{"type": "FeatureCollection", "features": [{"type": "Feature", "properties": {"OBJECTID": 14695788, "gnis_name": null, "ftype": 558, "fcode": 55800, "source": "usgs_nhdplus_hr", "nhd_layer": "NetworkNHDFlowline", "hydro_role": "flowline", "proxy_note": "distance_to_water_proxy; LM is tidal river/shoreline-heavy, not inland streams"}, "geometry": {"type": "LineString", "coordinates": [[-73.968, 40.72658946745558], [-73.96834, 40.72396], [-73.97375, 40.71139], [-73.97845, 40.70847], [-73.99305, 40.70694], [-73.99958, 40.70362], [-74.00747173453996, 40.698]]}}, {"type": "Feature", "properties": {"OBJECTID": 20344984, "gnis_name": "Hudson River", "ftype": 558, "fcode": 55800, "source": "usgs_nhdplus_hr", "nhd_layer": "NetworkNHDFlowline", "hydro_role": "flowline", "proxy_note": "distance_to_water_proxy; LM is tidal river/shoreline-heavy, not inland streams"}, "geometry": {"type": "LineString", "coordinates": [[-74.010733299389, 40.762], [-74.01373, 40.75789], [-74.01579, 40.75012], [-74.02199999999999, 40.72490363636365]]}}, {"type": "Feature", "properties": {"OBJECTID": 333924, "gnis_name": null, "ftype": 566, "fcode": 56600, "source": "usgs_nhdplus_hr", "nhd_layer": "NonNetworkNHDFlowline", "hydro_role": "flowline", "proxy_note": "distance_to_water_proxy; LM is tidal river/shoreline-heavy, not inland streams"}, "geometry": {"type": "MultiLineString", "coordinates": [[[-74.02199999999999, 40.746604680851064], [-74.02171, 40.74658], [-74.02199999999999, 40.74665601941748]], [[-74.02199999999999, 40.74696325203252], [-74.02162, 40.74692], [-74.0216, 40.74704], [-74.02199999999999, 40.74710666666666]], [[-74.02199999999999, 40.747546419753085], [-74.02153, 40.7475], [-74.02199999999999, 40.747583664921464]], [[-74.02199999999999, 40.750071695906435], [-74.02177, 40.75003], [-74.02173, 40.75022], [-74.02199999999999, 40.75026835820895]], [[-74.02199999999999, 40.75048271375464], [-74.02099, 40.75031], [-74.02097, 40.75041], [-74.02199999999999, 40.75059035019455]], [[-74.02199999999999, 40.751056159695814], [-74.02087, 40.75088], [-74.02199999999999, 40.751090995850625]], [[-74.02199999999999, 40.751659361702124], [-74.02077, 40.75145], [-74.02073, 40.75155], [-74.02199999999999, 40.75178231707317]], [[-74.02199999999999, 40.75252366533864], [-74.02061, 40.75228], [-74.02058, 40.75239], [-74.02199999999999, 40.75264244444444]], [[-74.02199999999999, 40.75341896694215], [-74.02043, 40.75314], [-74.02038, 40.75326], [-74.02199999999999, 40.7535491076923]], [[-74.02199999999999, 40.75433313207547], [-74.02076, 40.75416], [-74.02072, 40.75432], [-74.02108, 40.75447], [-74.02199999999999, 40.754630178571425]], [[-74.02199999999999, 40.75890882575757], [-74.01973, 40.75792], [-74.0194, 40.7579], [-74.0193, 40.75815], [-74.02199999999999, 40.7593806122449]], [[-74.02199999999999, 40.75980433628319], [-74.02111, 40.76097], [-74.01874, 40.75991], [-74.01859, 40.76021], [-74.02089, 40.76124], [-74.02056, 40.76167], [-74.01851, 40.76078], [-74.01856, 40.76067], [-74.0184, 40.7606], [-74.01846, 40.76051], [-74.01825, 40.7604], [-74.01805, 40.7604], [-74.01776, 40.76078], [-74.02035, 40.76193], [-74.02029904, 40.762]]]}}, {"type": "Feature", "properties": {"OBJECTID": 512519, "gnis_name": null, "ftype": 566, "fcode": 56600, "source": "usgs_nhdplus_hr", "nhd_layer": "NonNetworkNHDFlowline", "hydro_role": "flowline", "proxy_note": "distance_to_water_proxy; LM is tidal river/shoreline-heavy, not inland streams"}, "geometry": {"type": "MultiLineString", "coordinates": [[[-74.01514, 40.70084], [-74.01501, 40.70097], [-74.01434, 40.70063], [-74.01467, 40.70022], [-74.0146, 40.70016], [-74.01423, 40.70057], [-74.01415, 40.70052], [-74.01431, 40.70009], [-74.01418, 40.70007], [-74.01397, 40.70086], [-74.01376, 40.70082], [-74.01381, 40.70062], [-74.01358, 40.70055], [-74.01356, 40.70039], [-74.01367, 40.70016], [-74.01359, 40.70011], [-74.01349, 40.70048], [-74.01328, 40.7005], [-74.01331, 40.69977], [-74.01305, 40.69975], [-74.01312, 40.70051], [-74.0129, 40.70052], [-74.01258, 40.70011], [-74.0126, 40.70058], [-74.01238, 40.70062], [-74.01193, 40.70004], [-74.01216, 40.70065], [-74.01186, 40.70017], [-74.0119, 40.70052], [-74.01162, 40.70048], [-74.01167, 40.70077], [-74.01153, 40.70081], [-74.01129, 40.70057], [-74.01135, 40.70085], [-74.01116, 40.70089], [-74.01079, 40.70019], [-74.01118, 40.70107], [-74.01116, 40.70142], [-74.00959, 40.70184], [-74.00859, 40.70054], [-74.00833, 40.70065], [-74.00852, 40.70091], [-74.00759, 40.70133], [-74.00775, 40.70154], [-74.00869, 40.70116], [-74.0093, 40.70194], [-74.00769, 40.70285], [-74.00752, 40.70311], [-74.0068, 40.70357], [-74.00548, 40.70245], [-74.00532, 40.70256], [-74.00656, 40.7037], [-74.00615, 40.70395], [-74.006, 40.70386], [-74.00407, 40.70516], [-74.00285, 40.70407], [-74.00261, 40.70422], [-74.00377, 40.7053], [-74.00331, 40.70563], [-74.00215, 40.70462], [-74.00196, 40.70475], [-74.00272, 40.70542], [-74.00259, 40.70554], [-74.00208, 40.70541], [-74.00144, 40.70487], [-74.00058, 40.70543], [-74.0014, 40.70616], [-74.00099, 40.70642], [-74.00123, 40.70675], [-74.0, 40.70738], [-73.99963, 40.70774], [-73.99922, 40.70777], [-73.99869, 40.70827], [-73.99764, 40.70865], [-73.98887, 40.70997], [-73.98864, 40.70992], [-73.98849, 40.70912], [-73.98125, 40.70983], [-73.98129, 40.71022], [-73.97781, 40.71063], [-73.97672, 40.7115], [-73.9764, 40.71195], [-73.97435, 40.71641], [-73.97346, 40.71891], [-73.97177, 40.72584], [-73.97149, 40.72742], [-73.97165, 40.72745], [-73.97165, 40.72762], [-73.97141, 40.72889], [-73.97151, 40.72934], [-73.97216, 40.73018], [-73.97339, 40.73127], [-73.97387, 40.73306], [-73.97357, 40.73306], [-73.97355, 40.73316], [-73.97398, 40.73348], [-73.97443, 40.73531], [-73.97356, 40.73495], [-73.97327, 40.73507], [-73.97329, 40.73524], [-73.97305, 40.73513], [-73.97276, 40.7355], [-73.97306, 40.7352], [-73.97414, 40.73568], [-73.97453, 40.73568], [-73.9744, 40.73643], [-73.97285, 40.73577], [-73.97247, 40.73578], [-73.97268, 40.73917], [-73.97246, 40.73999], [-73.97231, 40.74002], [-73.9722, 40.74039], [-73.97219, 40.74072], [-73.97228, 40.74074], [-73.97197, 40.74234], [-73.97176, 40.74267], [-73.97188, 40.74273], [-73.97122, 40.74378], [-73.97134, 40.74383], [-73.97124, 40.74402], [-73.9708, 40.74388], [-73.97107, 40.74354], [-73.97095, 40.74345], [-73.97036, 40.74428], [-73.97048, 40.74432], [-73.97068, 40.74402], [-73.97108, 40.7442], [-73.97095, 40.74445], [-73.9708, 40.74442], [-73.96894, 40.74654], [-73.96825, 40.74737], [-73.96835, 40.74746], [-73.968, 40.74788035175879]], [[-74.00199304347827, 40.762], [-74.0022, 40.76172], [-74.0028475, 40.762]], [[-74.00339375, 40.762], [-74.00233, 40.76154], [-74.00277, 40.76094], [-74.00313, 40.76108], [-74.0033, 40.76087], [-74.00392, 40.76001], [-74.00356, 40.75986], [-74.00367, 40.75971], [-74.00413, 40.75989], [-74.00423, 40.7597], [-74.00386, 40.75944], [-74.00419, 40.7595], [-74.00451, 40.75909], [-74.00654, 40.7599], [-74.00699, 40.75927], [-74.00684, 40.75912], [-74.00503, 40.75836], [-74.00528, 40.75806], [-74.0048, 40.75781], [-74.00519, 40.75728], [-74.00544, 40.7573], [-74.00655, 40.75579], [-74.00743, 40.75606], [-74.00664, 40.75565], [-74.00714, 40.75495], [-74.00728, 40.75498], [-74.0074, 40.75482], [-74.00726, 40.75475], [-74.00746, 40.75449], [-74.00759, 40.75454], [-74.00773, 40.75434], [-74.00763, 40.75428], [-74.00834, 40.75236], [-74.0093, 40.75259], [-74.00981, 40.75287], [-74.00974, 40.75298], [-74.00925, 40.75281], [-74.0092, 40.75289], [-74.00983, 40.75317], [-74.01004, 40.75284], [-74.00843, 40.75216], [-74.00849, 40.75207], [-74.01008, 40.75266], [-74.01018, 40.75253], [-74.00856, 40.75186], [-74.009, 40.75066], [-74.01055, 40.7513], [-74.01067, 40.75104], [-74.00912, 40.75037], [-74.00926, 40.74998], [-74.00955, 40.74997], [-74.00996, 40.74896], [-74.0112, 40.74897], [-74.01123, 40.74866], [-74.00901, 40.74838], [-74.00908, 40.74779], [-74.01134, 40.74802], [-74.01143, 40.74763], [-74.00918, 40.74735], [-74.00925, 40.74681], [-74.01149, 40.74701], [-74.01159, 40.74665], [-74.00935, 40.74633], [-74.00945, 40.74574], [-74.01168, 40.746], [-74.01179, 40.74559], [-74.00958, 40.74531], [-74.00962, 40.745], [-74.00873, 40.74488], [-74.00891, 40.74392], [-74.00945, 40.74398], [-74.00953, 40.74367], [-74.01207, 40.74394], [-74.01214, 40.74357], [-74.0096, 40.74323], [-74.00962, 40.74298], [-74.00909, 40.74288], [-74.00927, 40.74187], [-74.00947, 40.74189], [-74.00953, 40.74152], [-74.01196, 40.74171], [-74.01212, 40.7416], [-74.01213, 40.74149], [-74.00959, 40.74123], [-74.00942, 40.74116], [-74.00949, 40.74068], [-74.0127, 40.74075], [-74.01208, 40.74064], [-74.01209, 40.74055], [-74.01147, 40.74056], [-74.01151, 40.73998], [-74.01161, 40.74015], [-74.01232, 40.74018], [-74.01236, 40.73974], [-74.01163, 40.73969], [-74.01153, 40.73988], [-74.01158, 40.73929], [-74.01039, 40.7392], [-74.01046, 40.73837], [-74.01114, 40.7384], [-74.01109, 40.7381], [-74.0105, 40.73806], [-74.01063, 40.73638], [-74.01075, 40.73619], [-74.01065, 40.73604], [-74.01082, 40.73427], [-74.01196, 40.73433], [-74.01199, 40.73407], [-74.01085, 40.73401], [-74.01088, 40.73361], [-74.01073, 40.73348], [-74.01092, 40.7333], [-74.01401, 40.73334], [-74.01402, 40.73305], [-74.01093, 40.73301], [-74.01117, 40.73047], [-74.01407, 40.73068], [-74.01434, 40.72862], [-74.01484, 40.72867], [-74.01488, 40.72851], [-74.01138, 40.72823], [-74.01156, 40.72645], [-74.01512, 40.72682], [-74.01521, 40.72647], [-74.0151, 40.7263], [-74.01233, 40.72605], [-74.01167, 40.72587], [-74.01256, 40.7215], [-74.01363, 40.72159], [-74.01312, 40.72147], [-74.01316, 40.72126], [-74.01562, 40.72155], [-74.0157, 40.7212], [-74.01291, 40.72087], [-74.013, 40.72034], [-74.01631, 40.72073], [-74.01638, 40.72038], [-74.0134, 40.72003], [-74.01344, 40.71982], [-74.01293, 40.71974], [-74.01321, 40.71832], [-74.01669, 40.71868], [-74.01736, 40.71521], [-74.01803, 40.7153], [-74.01815, 40.71482], [-74.01743, 40.71478], [-74.01774, 40.71307], [-74.01758, 40.7136], [-74.01637, 40.7134], [-74.01668, 40.71279], [-74.01668, 40.71221], [-74.01781, 40.71236], [-74.01779, 40.71284], [-74.01814, 40.71088], [-74.01886, 40.70806], [-74.01821, 40.7078], [-74.01857, 40.7069], [-74.01883, 40.70697], [-74.01863, 40.70715], [-74.01912, 40.70701], [-74.01935, 40.70611], [-74.01891, 40.70474], [-74.01795, 40.70451], [-74.01868, 40.70445], [-74.01844, 40.70416], [-74.01787, 40.70425], [-74.01796, 40.70398], [-74.01783, 40.70403], [-74.01784, 40.70391], [-74.0178, 40.70422], [-74.01758, 40.70419], [-74.01767, 40.70363], [-74.0179, 40.70362], [-74.01788, 40.70353], [-74.01767, 40.70358], [-74.01755, 40.70324], [-74.01625, 40.70162], [-74.01514, 40.70084]]]}}, {"type": "Feature", "properties": {"OBJECTID": 512520, "gnis_name": null, "ftype": 566, "fcode": 56600, "source": "usgs_nhdplus_hr", "nhd_layer": "NonNetworkNHDFlowline", "hydro_role": "flowline", "proxy_note": "distance_to_water_proxy; LM is tidal river/shoreline-heavy, not inland streams"}, "geometry": {"type": "MultiLineString", "coordinates": [[[-73.968, 40.71507999999999], [-73.96884, 40.7132], [-73.96853, 40.7131], [-73.96849, 40.71292], [-73.9687, 40.71276], [-73.96929, 40.71118], [-73.96943, 40.71095], [-73.96977, 40.71078], [-73.96966, 40.71056], [-73.97002, 40.7105], [-73.96956, 40.7103], [-73.96994, 40.70926], [-73.96991, 40.70801], [-73.96929, 40.70701], [-73.96929, 40.70508], [-73.968, 40.70427197802198]], [[-73.968, 40.70355540229885], [-73.97024, 40.70492], [-73.97017, 40.70564], [-73.97042, 40.70566], [-73.97026, 40.70692], [-73.97231, 40.70909], [-73.9728, 40.70885], [-73.97252, 40.70852], [-73.97278, 40.70839], [-73.97176, 40.70722], [-73.97147, 40.70738], [-73.97103, 40.70689], [-73.97112, 40.70586], [-73.97124, 40.70578], [-73.97423, 40.70799], [-73.97461, 40.70771], [-73.9726, 40.70622], [-73.9734, 40.70572], [-73.97454, 40.70629], [-73.9744, 40.70605], [-73.97111, 40.70364], [-73.97136, 40.70362], [-73.97122, 40.7035], [-73.97145, 40.70352], [-73.97218, 40.70398], [-73.97233, 40.70385], [-73.97201, 40.70364], [-73.97235, 40.70331], [-73.97267, 40.7035], [-73.97284, 40.70337], [-73.96949, 40.70048], [-73.96991, 40.70028], [-73.97285, 40.70272], [-73.97328, 40.70235], [-73.97081, 40.70012], [-73.97078, 40.69997], [-73.97096, 40.69986], [-73.97118, 40.69992], [-73.97319, 40.70167], [-73.9737, 40.70151], [-73.97239, 40.70018], [-73.97254, 40.70007], [-73.97284, 40.70024], [-73.9741, 40.70128], [-73.9744, 40.7011], [-73.97543, 40.69957], [-73.97571, 40.69954], [-73.97581, 40.69977], [-73.97456, 40.70158], [-73.97539, 40.70196], [-73.97576, 40.70165], [-73.97618, 40.7009], [-73.97651, 40.701], [-73.97582, 40.7019], [-73.97598, 40.70194], [-73.97532, 40.70298], [-73.97558, 40.70309], [-73.97618, 40.70217], [-73.97693, 40.70276], [-73.97602, 40.70458], [-73.9763, 40.70469], [-73.97715, 40.70301], [-73.97749, 40.70321], [-73.97722, 40.70422], [-73.97802, 40.70428], [-73.97859, 40.70498], [-73.97844, 40.70557], [-73.97865, 40.70559], [-73.9786, 40.70582], [-73.97875, 40.70548], [-73.97891, 40.70551], [-73.97889, 40.70586], [-73.97897, 40.70552], [-73.97926, 40.70555], [-73.97909, 40.70596], [-73.97921, 40.70597], [-73.9793, 40.70577], [-73.97958, 40.70573], [-73.981, 40.7059], [-73.98243, 40.70582], [-73.98249, 40.70552], [-73.98337, 40.70547], [-73.98344, 40.70564], [-73.9864, 40.70541], [-73.98647, 40.70467], [-73.98666, 40.70467], [-73.98672, 40.70506], [-73.987, 40.70516], [-73.98817, 40.70508], [-73.98833, 40.70464], [-73.98908, 40.70459], [-73.98925, 40.70494], [-73.98955, 40.70482], [-73.99024, 40.70494], [-73.99039, 40.70473], [-73.99037, 40.70449], [-73.99083, 40.70429], [-73.9909, 40.70399], [-73.99182, 40.7041], [-73.9921, 40.70442], [-73.99215, 40.70467], [-73.99415, 40.70451], [-73.99502, 40.70382], [-73.9949, 40.70376], [-73.99497, 40.70364], [-73.99467, 40.70345], [-73.99478, 40.70329], [-73.99531, 40.70356], [-73.99555, 40.70311], [-73.99622, 40.70337], [-73.99813, 40.70154], [-73.99681, 40.70096], [-73.99738, 40.69966], [-73.99952, 40.70033], [-73.99965, 40.70014], [-74.00002, 40.69948], [-73.9981, 40.69877], [-73.99784, 40.69924], [-73.99769, 40.6992], [-73.99777, 40.6989], [-73.99754, 40.6987], [-73.99795, 40.69876], [-73.99838, 40.69806], [-74.00047, 40.69878], [-74.00063, 40.69856], [-74.00097124999999, 40.698]]]}}, {"type": "Feature", "properties": {"OBJECTID": 10013, "gnis_name": "Wallabout Channel", "ftype": 312, "fcode": 31200, "source": "usgs_nhdplus_hr", "nhd_layer": "NHDArea", "hydro_role": "water_area", "proxy_note": "distance_to_water_proxy; LM is tidal river/shoreline-heavy, not inland streams"}, "geometry": {"type": "Polygon", "coordinates": [[[-73.97024, 40.70492], [-73.97017, 40.70564], [-73.97042, 40.70566], [-73.97026, 40.70692], [-73.9704, 40.70711], [-73.9723, 40.70908], [-73.96994, 40.70919], [-73.96991, 40.70801], [-73.96929, 40.70701], [-73.96929, 40.70508], [-73.968, 40.70427197802198], [-73.968, 40.70355540229885], [-73.97024, 40.70492]]]}}, {"type": "Feature", "properties": {"OBJECTID": 550846, "gnis_name": null, "ftype": 390, "fcode": 39004, "source": "usgs_nhdplus_hr", "nhd_layer": "NHDWaterbody", "hydro_role": "waterbody", "proxy_note": "distance_to_water_proxy; LM is tidal river/shoreline-heavy, not inland streams"}, "geometry": {"type": "Polygon", "coordinates": [[[-73.98088, 40.71959], [-73.98081, 40.7198], [-73.98031, 40.71966], [-73.98046, 40.71946], [-73.98088, 40.71959]]]}}, {"type": "Feature", "properties": {"OBJECTID": 880660, "gnis_name": null, "ftype": 390, "fcode": 39004, "source": "usgs_nhdplus_hr", "nhd_layer": "NHDWaterbody", "hydro_role": "waterbody", "proxy_note": "distance_to_water_proxy; LM is tidal river/shoreline-heavy, not inland streams"}, "geometry": {"type": "Polygon", "coordinates": [[[-73.99351, 40.70449], [-73.99333, 40.70452], [-73.99323, 40.70432], [-73.9934, 40.70427], [-73.99351, 40.70449]]]}}, {"type": "Feature", "properties": {"OBJECTID": 1705801, "gnis_name": null, "ftype": 390, "fcode": 39004, "source": "usgs_nhdplus_hr", "nhd_layer": "NHDWaterbody", "hydro_role": "waterbody", "proxy_note": "distance_to_water_proxy; LM is tidal river/shoreline-heavy, not inland streams"}, "geometry": {"type": "Polygon", "coordinates": [[[-73.99355, 40.71821], [-73.99333, 40.71864], [-73.99306, 40.71858], [-73.99332, 40.71813], [-73.99355, 40.71821]]]}}, {"type": "Feature", "properties": {"OBJECTID": 5165571, "gnis_name": null, "ftype": 390, "fcode": 39004, "source": "usgs_nhdplus_hr", "nhd_layer": "NHDWaterbody", "hydro_role": "waterbody", "proxy_note": "distance_to_water_proxy; LM is tidal river/shoreline-heavy, not inland streams"}, "geometry": {"type": "Polygon", "coordinates": [[[-73.98162, 40.72704], [-73.98146, 40.72725], [-73.98124, 40.72717], [-73.98144, 40.72695], [-73.98162, 40.72704]]]}}, {"type": "Feature", "properties": {"OBJECTID": 5605077, "gnis_name": "Upper Bay", "ftype": 493, "fcode": 49300, "source": "usgs_nhdplus_hr", "nhd_layer": "NHDWaterbody", "hydro_role": "waterbody", "proxy_note": "distance_to_water_proxy; LM is tidal river/shoreline-heavy, not inland streams"}, "geometry": {"type": "Polygon", "coordinates": [[[-74.0201, 40.7024], [-74.01625, 40.70162], [-74.01514, 40.70084], [-74.01501, 40.70097], [-74.01434, 40.70063], [-74.01468, 40.70021], [-74.0146, 40.70016], [-74.01423, 40.70057], [-74.01415, 40.70052], [-74.01431, 40.70009], [-74.01418, 40.70007], [-74.01397, 40.70086], [-74.01376, 40.70082], [-74.01381, 40.70062], [-74.01358, 40.70055], [-74.01356, 40.70039], [-74.01367, 40.70016], [-74.01359, 40.70011], [-74.01349, 40.70048], [-74.01328, 40.7005], [-74.01331, 40.69977], [-74.01049727722773, 40.698], [-74.02199999999999, 40.698], [-74.02199999999999, 40.70291488054607], [-74.0201, 40.7024]]]}}, {"type": "Feature", "properties": {"OBJECTID": 5659999, "gnis_name": null, "ftype": 390, "fcode": 39004, "source": "usgs_nhdplus_hr", "nhd_layer": "NHDWaterbody", "hydro_role": "waterbody", "proxy_note": "distance_to_water_proxy; LM is tidal river/shoreline-heavy, not inland streams"}, "geometry": {"type": "Polygon", "coordinates": [[[-73.98127, 40.7198], [-73.98101, 40.71989], [-73.98115, 40.71964], [-73.98127, 40.7198]]]}}, {"type": "Feature", "properties": {"OBJECTID": 6648139, "gnis_name": null, "ftype": 390, "fcode": 39004, "source": "usgs_nhdplus_hr", "nhd_layer": "NHDWaterbody", "hydro_role": "waterbody", "proxy_note": "distance_to_water_proxy; LM is tidal river/shoreline-heavy, not inland streams"}, "geometry": {"type": "Polygon", "coordinates": [[[-73.99202, 40.72129], [-73.99175, 40.72185], [-73.99146, 40.72177], [-73.99178, 40.72118], [-73.99202, 40.72129]]]}}]}