{"type": "FeatureCollection", "features": [{"type": "Feature", "properties": {"source": "floodnet", "held_out_only": true, "sensor_id": "BK-richardson-st-n-11th-st-1x59w1", "sensor_name": "BK - Richardson St/N 11th St", "tidally_influenced": "No", "borough": "Brooklyn", "date_installed": "2024-06-06T00:00:00.000", "n_flood_events": 2, "max_depth_inches": 10.71, "sensor_exposure_days": 815.0, "event_rate_per_year": 0.896319018404908, "dataset_events": "aq7i-eu5q", "dataset_sensors": "kb2e-tjy3"}, "geometry": {"type": "Point", "coordinates": [-73.952866, 40.718566]}}, {"type": "Feature", "properties": {"source": "floodnet", "held_out_only": true, "sensor_id": "Q-vernon-blvd-40th-ave-2uoync", "sensor_name": "Q - Vernon Blvd/40th Ave", "tidally_influenced": "No", "borough": "Queens", "date_installed": "2026-03-20T00:00:00.000", "n_flood_events": 0, "max_depth_inches": null, "sensor_exposure_days": 163.0, "event_rate_per_year": 0.0, "dataset_events": "aq7i-eu5q", "dataset_sensors": "kb2e-tjy3"}, "geometry": {"type": "Point", "coordinates": [-73.94525, 40.7582]}}, {"type": "Feature", "properties": {"source": "floodnet", "held_out_only": true, "sensor_id": "BK-marcy-ave-hopkins-st-278inc", "sensor_name": "BK - Marcy Ave/Hopkins St", "tidally_influenced": "No", "borough": "Brooklyn", "date_installed": "2024-12-19T00:00:00.000", "n_flood_events": 13, "max_depth_inches": 11.69, "sensor_exposure_days": 619.0, "event_rate_per_year": 7.670840064620355, "dataset_events": "aq7i-eu5q", "dataset_sensors": "kb2e-tjy3"}, "geometry": {"type": "Point", "coordinates": [-73.949902, 40.699262]}}, {"type": "Feature", "properties": {"source": "floodnet", "held_out_only": true, "sensor_id": "M-avenue-c-loop-avenue-c-2zpcg0", "sensor_name": "M - Ave C/E 18th St", "tidally_influenced": "No", "borough": "Manhattan", "date_installed": "2026-06-25T00:00:00.000", "n_flood_events": 5, "max_depth_inches": 5.71, "sensor_exposure_days": 66.0, "event_rate_per_year": 20.0, "dataset_events": "aq7i-eu5q", "dataset_sensors": "kb2e-tjy3"}, "geometry": {"type": "Point", "coordinates": [-73.97415, 40.7304]}}, {"type": "Feature", "properties": {"source": "floodnet", "held_out_only": true, "sensor_id": "BK-main-st-water-st-1-2xljvo", "sensor_name": "BK - Main St/Plymouth St", "tidally_influenced": "No", "borough": "Brooklyn", "date_installed": "2026-05-15T00:00:00.000", "n_flood_events": 0, "max_depth_inches": null, "sensor_exposure_days": 107.0, "event_rate_per_year": 0.0, "dataset_events": "aq7i-eu5q", "dataset_sensors": "kb2e-tjy3"}, "geometry": {"type": "Point", "coordinates": [-73.990734, 40.703366]}}, {"type": "Feature", "properties": {"source": "floodnet", "held_out_only": true, "sensor_id": "BK-tillary-st-park-ave-2jg4e0", "sensor_name": "BK - Tillary St / Navy St", "tidally_influenced": "No", "borough": "Brooklyn", "date_installed": "2025-08-13T00:00:00.000", "n_flood_events": 0, "max_depth_inches": null, "sensor_exposure_days": 382.0, "event_rate_per_year": 0.0, "dataset_events": "aq7i-eu5q", "dataset_sensors": "kb2e-tjy3"}, "geometry": {"type": "Point", "coordinates": [-73.98072, 40.696065]}}, {"type": "Feature", "properties": {"source": "floodnet", "held_out_only": true, "sensor_id": "BK-lee-ave-middleton-st-19qok0", "sensor_name": "BK - Lee Ave/Middleton St", "tidally_influenced": "No", "borough": "Brooklyn", "date_installed": "2023-03-09T00:00:00.000", "n_flood_events": 9, "max_depth_inches": 23.54, "sensor_exposure_days": 1270.0, "event_rate_per_year": 2.5883858267716535, "dataset_events": "aq7i-eu5q", "dataset_sensors": "kb2e-tjy3"}, "geometry": {"type": "Point", "coordinates": [-73.954629, 40.700775]}}, {"type": "Feature", "properties": {"source": "floodnet", "held_out_only": true, "sensor_id": "M-e-11th-st-avenue-d-2zpc60", "sensor_name": "M - Ave D/E 11th St", "tidally_influenced": "No", "borough": "Manhattan", "date_installed": "2026-06-25T00:00:00.000", "n_flood_events": 0, "max_depth_inches": null, "sensor_exposure_days": 66.0, "event_rate_per_year": 0.0, "dataset_events": "aq7i-eu5q", "dataset_sensors": "kb2e-tjy3"}, "geometry": {"type": "Point", "coordinates": [-73.974831, 40.725477]}}, {"type": "Feature", "properties": {"source": "floodnet", "held_out_only": true, "sensor_id": "M-avenue-c-e-20th-st-2zpcro", "sensor_name": "M - Ave C/E 20th St", "tidally_influenced": "No", "borough": "Manhattan", "date_installed": "2026-06-25T00:00:00.000", "n_flood_events": 0, "max_depth_inches": null, "sensor_exposure_days": 66.0, "event_rate_per_year": 0.0, "dataset_events": "aq7i-eu5q", "dataset_sensors": "kb2e-tjy3"}, "geometry": {"type": "Point", "coordinates": [-73.974479, 40.732463]}}, {"type": "Feature", "properties": {"source": "floodnet", "held_out_only": true, "sensor_id": "BK-downing-st-gates-ave-31i33c", "sensor_name": "BK - Downing St/Quincy St", "tidally_influenced": "No", "borough": "Brooklyn", "date_installed": "2026-07-30T00:00:00.000", "n_flood_events": 0, "max_depth_inches": null, "sensor_exposure_days": 31.0, "event_rate_per_year": 0.0, "dataset_events": "aq7i-eu5q", "dataset_sensors": "kb2e-tjy3"}, "geometry": {"type": "Point", "coordinates": [-73.961325, 40.68555]}}, {"type": "Feature", "properties": {"source": "floodnet", "held_out_only": true, "sensor_id": "BK-w-st-quay-st-31i7q0", "sensor_name": "BK - Quay St/West St", "tidally_influenced": "No", "borough": "Brooklyn", "date_installed": "2026-07-30T00:00:00.000", "n_flood_events": 0, "max_depth_inches": null, "sensor_exposure_days": 31.0, "event_rate_per_year": 0.0, "dataset_events": "aq7i-eu5q", "dataset_sensors": "kb2e-tjy3"}, "geometry": {"type": "Point", "coordinates": [-73.958516, 40.726141]}}, {"type": "Feature", "properties": {"source": "floodnet", "held_out_only": true, "sensor_id": "BK-fort-greene-pl-atlantic-ave-2rrw0c", "sensor_name": "BK - Atlantic Ave/ Fort Greene Pl", "tidally_influenced": "No", "borough": "Brooklyn", "date_installed": "2026-01-22T00:00:00.000", "n_flood_events": 0, "max_depth_inches": null, "sensor_exposure_days": 220.0, "event_rate_per_year": 0.0, "dataset_events": "aq7i-eu5q", "dataset_sensors": "kb2e-tjy3"}, "geometry": {"type": "Point", "coordinates": [-73.975486, 40.683547]}}, {"type": "Feature", "properties": {"source": "floodnet", "held_out_only": true, "sensor_id": "BK-putnam-ave-franklin-ave-2jg3bo", "sensor_name": "BK - Putnam Ave/ Franklin Ave", "tidally_influenced": "No", "borough": "Brooklyn", "date_installed": "2025-08-13T00:00:00.000", "n_flood_events": 0, "max_depth_inches": null, "sensor_exposure_days": 382.0, "event_rate_per_year": 0.0, "dataset_events": "aq7i-eu5q", "dataset_sensors": "kb2e-tjy3"}, "geometry": {"type": "Point", "coordinates": [-73.95605, 40.68345]}}, {"type": "Feature", "properties": {"source": "floodnet", "held_out_only": true, "sensor_id": "BK-gates-ave-bedford-ave-31i3dc", "sensor_name": "BK - Gates Ave/Bedford Ave", "tidally_influenced": "No", "borough": "Brooklyn", "date_installed": "2026-07-30T00:00:00.000", "n_flood_events": 0, "max_depth_inches": null, "sensor_exposure_days": 31.0, "event_rate_per_year": 0.0, "dataset_events": "aq7i-eu5q", "dataset_sensors": "kb2e-tjy3"}, "geometry": {"type": "Point", "coordinates": [-73.954139, 40.68587]}}, {"type": "Feature", "properties": {"source": "floodnet", "held_out_only": true, "sensor_id": "BK-lexington-ave-throop-ave-31i4mc", "sensor_name": "BK - Throop Ave/Lexington Ave", "tidally_influenced": "No", "borough": "Brooklyn", "date_installed": "2026-07-30T00:00:00.000", "n_flood_events": 0, "max_depth_inches": null, "sensor_exposure_days": 31.0, "event_rate_per_year": 0.0, "dataset_events": "aq7i-eu5q", "dataset_sensors": "kb2e-tjy3"}, "geometry": {"type": "Point", "coordinates": [-73.942029, 40.688851]}}, {"type": "Feature", "properties": {"source": "floodnet", "held_out_only": true, "sensor_id": "BK-w-st-kent-st-31i7yc", "sensor_name": "BK - Kent St/West St", "tidally_influenced": "No", "borough": "Brooklyn", "date_installed": "2026-07-30T00:00:00.000", "n_flood_events": 5, "max_depth_inches": 5.12, "sensor_exposure_days": 31.0, "event_rate_per_year": 20.0, "dataset_events": "aq7i-eu5q", "dataset_sensors": "kb2e-tjy3"}, "geometry": {"type": "Point", "coordinates": [-73.961232, 40.730248]}}, {"type": "Feature", "properties": {"source": "floodnet", "held_out_only": true, "sensor_id": "BK-franklin-st-meserole-ave-31i7jc", "sensor_name": "BK - Franklin St/Meserole Ave", "tidally_influenced": "No", "borough": "Brooklyn", "date_installed": "2026-07-30T00:00:00.000", "n_flood_events": 0, "max_depth_inches": null, "sensor_exposure_days": 31.0, "event_rate_per_year": 0.0, "dataset_events": "aq7i-eu5q", "dataset_sensors": "kb2e-tjy3"}, "geometry": {"type": "Point", "coordinates": [-73.957433, 40.725443]}}, {"type": "Feature", "properties": {"source": "floodnet", "held_out_only": true, "sensor_id": "BK-flushing-ave-warsoff-pl-31i3lo", "sensor_name": "BK - Warsaw Pl/Flushing Ave", "tidally_influenced": "No", "borough": "Brooklyn", "date_installed": "2026-07-30T00:00:00.000", "n_flood_events": 1, "max_depth_inches": 3.35, "sensor_exposure_days": 31.0, "event_rate_per_year": 4.0, "dataset_events": "aq7i-eu5q", "dataset_sensors": "kb2e-tjy3"}, "geometry": {"type": "Point", "coordinates": [-73.954216, 40.699163]}}, {"type": "Feature", "properties": {"source": "floodnet", "held_out_only": true, "sensor_id": "M-e-30th-st-franklin-delano-roosevelt-drive-service-road-west-2zpd00", "sensor_name": "M - E 30th St/FDR Drive S", "tidally_influenced": "No", "borough": "Manhattan", "date_installed": "2026-06-25T00:00:00.000", "n_flood_events": 1, "max_depth_inches": 0.51, "sensor_exposure_days": 66.0, "event_rate_per_year": 4.0, "dataset_events": "aq7i-eu5q", "dataset_sensors": "kb2e-tjy3"}, "geometry": {"type": "Point", "coordinates": [-73.973166, 40.740516]}}, {"type": "Feature", "properties": {"source": "floodnet", "held_out_only": true, "sensor_id": "BK-humboldt-st-norman-ave-2k9nco", "sensor_name": "BK - Humboldt St / Norman Ave", "tidally_influenced": "No", "borough": "Brooklyn", "date_installed": "2025-08-29T00:00:00.000", "n_flood_events": 3, "max_depth_inches": 13.46, "sensor_exposure_days": 366.0, "event_rate_per_year": 2.9938524590163933, "dataset_events": "aq7i-eu5q", "dataset_sensors": "kb2e-tjy3"}, "geometry": {"type": "Point", "coordinates": [-73.945817, 40.727479]}}, {"type": "Feature", "properties": {"source": "floodnet", "held_out_only": true, "sensor_id": "Q-44th-dr-jackson-ave-2k9oqo", "sensor_name": "Q - 44th Dr / Jackson Ave", "tidally_influenced": "No", "borough": "Queens", "date_installed": "2025-08-29T00:00:00.000", "n_flood_events": 1, "max_depth_inches": 0.79, "sensor_exposure_days": 366.0, "event_rate_per_year": 0.9979508196721312, "dataset_events": "aq7i-eu5q", "dataset_sensors": "kb2e-tjy3"}, "geometry": {"type": "Point", "coordinates": [-73.94253, 40.74718]}}, {"type": "Feature", "properties": {"source": "floodnet", "held_out_only": true, "sensor_id": "M-12th-ave-w-29th-st-2nvb9o", "sensor_name": "M - W 29th St/12th Ave", "tidally_influenced": "No", "borough": "Manhattan", "date_installed": "2025-11-07T00:00:00.000", "n_flood_events": 2, "max_depth_inches": 0.83, "sensor_exposure_days": 296.0, "event_rate_per_year": 2.4679054054054053, "dataset_events": "aq7i-eu5q", "dataset_sensors": "kb2e-tjy3"}, "geometry": {"type": "Point", "coordinates": [-74.006925, 40.753704]}}, {"type": "Feature", "properties": {"source": "floodnet", "held_out_only": true, "sensor_id": "BK-marcy-ave-flushing-ave-19qzo0", "sensor_name": "BK - Marcy Ave/Flushing Ave", "tidally_influenced": "No", "borough": "Brooklyn", "date_installed": "2023-03-09T00:00:00.000", "n_flood_events": 3, "max_depth_inches": 12.17, "sensor_exposure_days": 1270.0, "event_rate_per_year": 0.8627952755905511, "dataset_events": "aq7i-eu5q", "dataset_sensors": "kb2e-tjy3"}, "geometry": {"type": "Point", "coordinates": [-73.950083, 40.699283]}}, {"type": "Feature", "properties": {"source": "floodnet", "held_out_only": true, "sensor_id": "BK-newel-st-greenpoint-ave-2k9o50", "sensor_name": "BK - Jewel St/ Greenpoint Ave", "tidally_influenced": "No", "borough": "Brooklyn", "date_installed": "2025-08-29T00:00:00.000", "n_flood_events": 1, "max_depth_inches": 7.01, "sensor_exposure_days": 366.0, "event_rate_per_year": 0.9979508196721312, "dataset_events": "aq7i-eu5q", "dataset_sensors": "kb2e-tjy3"}, "geometry": {"type": "Point", "coordinates": [-73.94872, 40.73051]}}, {"type": "Feature", "properties": {"source": "floodnet", "held_out_only": true, "sensor_id": "BK-kent-ave-wallabout-st-19r2g0", "sensor_name": "BK - Kent Ave/Wallabout St", "tidally_influenced": "No", "borough": "Brooklyn", "date_installed": "2023-03-09T00:00:00.000", "n_flood_events": 2, "max_depth_inches": 11.73, "sensor_exposure_days": 1270.0, "event_rate_per_year": 0.5751968503937007, "dataset_events": "aq7i-eu5q", "dataset_sensors": "kb2e-tjy3"}, "geometry": {"type": "Point", "coordinates": [-73.960584, 40.699336]}}, {"type": "Feature", "properties": {"source": "floodnet", "held_out_only": true, "sensor_id": "BK-meserole-ave-newel-st-2if0k0", "sensor_name": "BK - Newel Ave/ Meserole St", "tidally_influenced": "No", "borough": "Brooklyn", "date_installed": "2025-07-24T00:00:00.000", "n_flood_events": 2, "max_depth_inches": 12.6, "sensor_exposure_days": 402.0, "event_rate_per_year": 1.8171641791044775, "dataset_events": "aq7i-eu5q", "dataset_sensors": "kb2e-tjy3"}, "geometry": {"type": "Point", "coordinates": [-73.94935, 40.728355]}}, {"type": "Feature", "properties": {"source": "floodnet", "held_out_only": true, "sensor_id": "M-e-79th-st-park-ave-2ausk0", "sensor_name": "M - E 79th St/ Park Ave", "tidally_influenced": "No", "borough": "Manhattan", "date_installed": "2025-02-27T00:00:00.000", "n_flood_events": 3, "max_depth_inches": 0.75, "sensor_exposure_days": 549.0, "event_rate_per_year": 1.9959016393442621, "dataset_events": "aq7i-eu5q", "dataset_sensors": "kb2e-tjy3"}, "geometry": {"type": "Point", "coordinates": [-73.96116, 40.776]}}, {"type": "Feature", "properties": {"source": "floodnet", "held_out_only": true, "sensor_id": "M-park-ave-tito-puente-wy-1yjco0", "sensor_name": "M - Park Ave/ Tito Puente Wy", "tidally_influenced": "No", "borough": "Manhattan", "date_installed": "2024-07-03T00:00:00.000", "n_flood_events": 0, "max_depth_inches": null, "sensor_exposure_days": 788.0, "event_rate_per_year": 0.0, "dataset_events": "aq7i-eu5q", "dataset_sensors": "kb2e-tjy3"}, "geometry": {"type": "Point", "coordinates": [-73.946467, 40.795714]}}, {"type": "Feature", "properties": {"source": "floodnet", "held_out_only": true, "sensor_id": "BK-wythe-ave-wallabout-st-19qzo0", "sensor_name": "BK - Wythe Ave/Wallabout St", "tidally_influenced": "No", "borough": "Brooklyn", "date_installed": "2023-03-09T00:00:00.000", "n_flood_events": 23, "max_depth_inches": 6.26, "sensor_exposure_days": 1270.0, "event_rate_per_year": 6.614763779527559, "dataset_events": "aq7i-eu5q", "dataset_sensors": "kb2e-tjy3"}, "geometry": {"type": "Point", "coordinates": [-73.958983, 40.699542]}}, {"type": "Feature", "properties": {"source": "floodnet", "held_out_only": true, "sensor_id": "BK-walton-st-marcy-ave-19qww0", "sensor_name": "BK - Walton St/Marcy Ave", "tidally_influenced": "No", "borough": "Brooklyn", "date_installed": "2023-03-09T00:00:00.000", "n_flood_events": 11, "max_depth_inches": 21.61, "sensor_exposure_days": 1270.0, "event_rate_per_year": 3.1635826771653544, "dataset_events": "aq7i-eu5q", "dataset_sensors": "kb2e-tjy3"}, "geometry": {"type": "Point", "coordinates": [-73.951335, 40.700821]}}, {"type": "Feature", "properties": {"source": "floodnet", "held_out_only": true, "sensor_id": "M-stanton-st-mangin-st-1vri80", "sensor_name": "M - Mangin St/Stanton St", "tidally_influenced": "No", "borough": "Manhattan", "date_installed": "2024-05-10T00:00:00.000", "n_flood_events": 3, "max_depth_inches": 1.85, "sensor_exposure_days": 842.0, "event_rate_per_year": 1.3013657957244658, "dataset_events": "aq7i-eu5q", "dataset_sensors": "kb2e-tjy3"}, "geometry": {"type": "Point", "coordinates": [-73.976247, 40.717852]}}, {"type": "Feature", "properties": {"source": "floodnet", "held_out_only": true, "sensor_id": "M-riverside-dr-w-81st-st-2ausk0", "sensor_name": "M - W 81st St/ Riverside Dr", "tidally_influenced": "No", "borough": "Manhattan", "date_installed": "2025-02-27T00:00:00.000", "n_flood_events": 0, "max_depth_inches": null, "sensor_exposure_days": 549.0, "event_rate_per_year": 0.0, "dataset_events": "aq7i-eu5q", "dataset_sensors": "kb2e-tjy3"}, "geometry": {"type": "Point", "coordinates": [-73.981525, 40.786217]}}, {"type": "Feature", "properties": {"source": "floodnet", "held_out_only": true, "sensor_id": "M-e-26th-st-lexington-ave-2mfdi0", "sensor_name": "M - Lexington Ave/E 26th St", "tidally_influenced": "No", "borough": "Manhattan", "date_installed": "2025-10-10T00:00:00.000", "n_flood_events": 0, "max_depth_inches": null, "sensor_exposure_days": 324.0, "event_rate_per_year": 0.0, "dataset_events": "aq7i-eu5q", "dataset_sensors": "kb2e-tjy3"}, "geometry": {"type": "Point", "coordinates": [-73.98337, 40.74119]}}, {"type": "Feature", "properties": {"source": "floodnet", "held_out_only": true, "sensor_id": "Q-2nd-st-54th-ave-2k9of0", "sensor_name": "Q - 54th Ave / Second St", "tidally_influenced": "No", "borough": "Queens", "date_installed": "2025-08-29T00:00:00.000", "n_flood_events": 2, "max_depth_inches": 9.57, "sensor_exposure_days": 366.0, "event_rate_per_year": 1.9959016393442623, "dataset_events": "aq7i-eu5q", "dataset_sensors": "kb2e-tjy3"}, "geometry": {"type": "Point", "coordinates": [-73.959307, 40.740837]}}, {"type": "Feature", "properties": {"source": "floodnet", "held_out_only": true, "sensor_id": "M-lexington-ave-e-104th-st-1yjfg0", "sensor_name": "M - Lexington Ave/E 104th St", "tidally_influenced": "No", "borough": "Manhattan", "date_installed": "2024-07-03T00:00:00.000", "n_flood_events": 1, "max_depth_inches": 0.59, "sensor_exposure_days": 788.0, "event_rate_per_year": 0.463515228426396, "dataset_events": "aq7i-eu5q", "dataset_sensors": "kb2e-tjy3"}, "geometry": {"type": "Point", "coordinates": [-73.947317, 40.791021]}}, {"type": "Feature", "properties": {"source": "floodnet", "held_out_only": true, "sensor_id": "BK-wallabout-st-harrison-ave-19qrc0", "sensor_name": "BK - Wallabout St/Harrison Ave", "tidally_influenced": "No", "borough": "Brooklyn", "date_installed": "2023-03-09T00:00:00.000", "n_flood_events": 7, "max_depth_inches": 12.87, "sensor_exposure_days": 1270.0, "event_rate_per_year": 2.0131889763779527, "dataset_events": "aq7i-eu5q", "dataset_sensors": "kb2e-tjy3"}, "geometry": {"type": "Point", "coordinates": [-73.948601, 40.701603]}}, {"type": "Feature", "properties": {"source": "floodnet", "held_out_only": true, "sensor_id": "BK-hancock-st-marcy-ave-2mfkg0", "sensor_name": "BK - Hancock St/Marcy Ave", "tidally_influenced": "No", "borough": "Brooklyn", "date_installed": "2025-10-10T00:00:00.000", "n_flood_events": 2, "max_depth_inches": 10.87, "sensor_exposure_days": 324.0, "event_rate_per_year": 2.2546296296296293, "dataset_events": "aq7i-eu5q", "dataset_sensors": "kb2e-tjy3"}, "geometry": {"type": "Point", "coordinates": [-73.9469, 40.68294]}}, {"type": "Feature", "properties": {"source": "floodnet", "held_out_only": true, "sensor_id": "BK-vanderbilt-ave-flushing-ave-214o0o", "sensor_name": "BK - Vanderbilt Ave/Flushing Ave", "tidally_influenced": "No", "borough": "Brooklyn", "date_installed": "2024-08-22T00:00:00.000", "n_flood_events": 0, "max_depth_inches": null, "sensor_exposure_days": 738.0, "event_rate_per_year": 0.0, "dataset_events": "aq7i-eu5q", "dataset_sensors": "kb2e-tjy3"}, "geometry": {"type": "Point", "coordinates": [-73.970675, 40.697725]}}, {"type": "Feature", "properties": {"source": "floodnet", "held_out_only": true, "sensor_id": "M-grand-st-thompson-st-2suz00", "sensor_name": "M - Thompson St/Grand St", "tidally_influenced": "No", "borough": "Manhattan", "date_installed": "2026-02-12T00:00:00.000", "n_flood_events": 4, "max_depth_inches": 6.1, "sensor_exposure_days": 199.0, "event_rate_per_year": 7.341708542713568, "dataset_events": "aq7i-eu5q", "dataset_sensors": "kb2e-tjy3"}, "geometry": {"type": "Point", "coordinates": [-74.004389, 40.722921]}}, {"type": "Feature", "properties": {"source": "floodnet", "held_out_only": true, "sensor_id": "M-s-st-broad-st-1zbc0d", "sensor_name": "M - Broad St/South St", "tidally_influenced": "No", "borough": "Manhattan", "date_installed": "2025-08-22T00:00:00.000", "n_flood_events": 2, "max_depth_inches": 0.71, "sensor_exposure_days": 373.0, "event_rate_per_year": 1.9584450402144773, "dataset_events": "aq7i-eu5q", "dataset_sensors": "kb2e-tjy3"}, "geometry": {"type": "Point", "coordinates": [-74.011231, 40.701836]}}, {"type": "Feature", "properties": {"source": "floodnet", "held_out_only": true, "sensor_id": "M-e-houston-st-baruch-dr-1zmfzc", "sensor_name": "M - E Houston St/Baruch Dr", "tidally_influenced": "No", "borough": "Manhattan", "date_installed": "2024-07-24T00:00:00.000", "n_flood_events": 1, "max_depth_inches": 0.55, "sensor_exposure_days": 767.0, "event_rate_per_year": 0.476205997392438, "dataset_events": "aq7i-eu5q", "dataset_sensors": "kb2e-tjy3"}, "geometry": {"type": "Point", "coordinates": [-73.977398, 40.719531]}}, {"type": "Feature", "properties": {"source": "floodnet", "held_out_only": true, "sensor_id": "M-barclay-st-w-st-2juumc", "sensor_name": "M - Barclay St/West St", "tidally_influenced": "No", "borough": "Manhattan", "date_installed": "2025-08-21T00:00:00.000", "n_flood_events": 3, "max_depth_inches": 16.57, "sensor_exposure_days": 374.0, "event_rate_per_year": 2.9298128342245993, "dataset_events": "aq7i-eu5q", "dataset_sensors": "kb2e-tjy3"}, "geometry": {"type": "Point", "coordinates": [-74.013332, 40.714444]}}, {"type": "Feature", "properties": {"source": "floodnet", "held_out_only": true, "sensor_id": "M-3rd-ave-e-25th-st-2mfd4o", "sensor_name": "M - 3rd Ave/E 25th St", "tidally_influenced": "No", "borough": "Manhattan", "date_installed": "2025-10-10T00:00:00.000", "n_flood_events": 6, "max_depth_inches": 3.19, "sensor_exposure_days": 324.0, "event_rate_per_year": 6.763888888888888, "dataset_events": "aq7i-eu5q", "dataset_sensors": "kb2e-tjy3"}, "geometry": {"type": "Point", "coordinates": [-73.982282, 40.740155]}}, {"type": "Feature", "properties": {"source": "floodnet", "held_out_only": true, "sensor_id": "M-waverly-pl-6th-av-0mg3o0", "sensor_name": "M - Waverly Pl/6th Av", "tidally_influenced": "No", "borough": "Manhattan", "date_installed": "2021-12-11T00:00:00.000", "n_flood_events": 0, "max_depth_inches": null, "sensor_exposure_days": 1723.0, "event_rate_per_year": 0.0, "dataset_events": "aq7i-eu5q", "dataset_sensors": "kb2e-tjy3"}, "geometry": {"type": "Point", "coordinates": [-74.000316, 40.733009]}}, {"type": "Feature", "properties": {"source": "floodnet", "held_out_only": true, "sensor_id": "BK-decatur-st-tompkins-ave-2mfii0", "sensor_name": "BK - Tompkins Ave/ Fulton St", "tidally_influenced": "No", "borough": "Brooklyn", "date_installed": "2025-10-10T00:00:00.000", "n_flood_events": 1, "max_depth_inches": 10.94, "sensor_exposure_days": 324.0, "event_rate_per_year": 1.1273148148148147, "dataset_events": "aq7i-eu5q", "dataset_sensors": "kb2e-tjy3"}, "geometry": {"type": "Point", "coordinates": [-73.94321, 40.6802]}}, {"type": "Feature", "properties": {"source": "floodnet", "held_out_only": true, "sensor_id": "M-e-79th-st-1st-ave-29txio", "sensor_name": "M - E 79th St/ 1st Ave", "tidally_influenced": "No", "borough": "Manhattan", "date_installed": "2025-02-07T00:00:00.000", "n_flood_events": 0, "max_depth_inches": null, "sensor_exposure_days": 569.0, "event_rate_per_year": 0.0, "dataset_events": "aq7i-eu5q", "dataset_sensors": "kb2e-tjy3"}, "geometry": {"type": "Point", "coordinates": [-73.95258, 40.77222]}}, {"type": "Feature", "properties": {"source": "floodnet", "held_out_only": true, "sensor_id": "BK-halsey-st-throop-ave-2mfhfo", "sensor_name": "BK - Halsey St/ Throop Ave", "tidally_influenced": "No", "borough": "Brooklyn", "date_installed": "2025-10-10T00:00:00.000", "n_flood_events": 3, "max_depth_inches": 16.61, "sensor_exposure_days": 324.0, "event_rate_per_year": 3.381944444444444, "dataset_events": "aq7i-eu5q", "dataset_sensors": "kb2e-tjy3"}, "geometry": {"type": "Point", "coordinates": [-73.941032, 40.682874]}}, {"type": "Feature", "properties": {"source": "floodnet", "held_out_only": true, "sensor_id": "M-delancey-st-fdr-dr-2suzbo", "sensor_name": "M - Delancey St/FDR Dr", "tidally_influenced": "No", "borough": "Manhattan", "date_installed": "2026-02-12T00:00:00.000", "n_flood_events": 3, "max_depth_inches": 3.78, "sensor_exposure_days": 199.0, "event_rate_per_year": 5.506281407035176, "dataset_events": "aq7i-eu5q", "dataset_sensors": "kb2e-tjy3"}, "geometry": {"type": "Point", "coordinates": [-73.976881, 40.71467]}}, {"type": "Feature", "properties": {"source": "floodnet", "held_out_only": true, "sensor_id": "M-e-23rd-st-asser-levy-pl-2mfdvc", "sensor_name": "M - E 23rd St/FDR Drive", "tidally_influenced": "No", "borough": "Manhattan", "date_installed": "2025-10-10T00:00:00.000", "n_flood_events": 4, "max_depth_inches": 6.06, "sensor_exposure_days": 324.0, "event_rate_per_year": 4.509259259259259, "dataset_events": "aq7i-eu5q", "dataset_sensors": "kb2e-tjy3"}, "geometry": {"type": "Point", "coordinates": [-73.975937, 40.735873]}}, {"type": "Feature", "properties": {"source": "floodnet", "held_out_only": true, "sensor_id": "BK-wallabout-st-throop-ave-19qu40", "sensor_name": "BK - Wallabout St/Throop Ave", "tidally_influenced": "No", "borough": "Brooklyn", "date_installed": "2023-03-09T00:00:00.000", "n_flood_events": 10, "max_depth_inches": 25.08, "sensor_exposure_days": 1270.0, "event_rate_per_year": 2.8759842519685037, "dataset_events": "aq7i-eu5q", "dataset_sensors": "kb2e-tjy3"}, "geometry": {"type": "Point", "coordinates": [-73.946768, 40.702812]}}, {"type": "Feature", "properties": {"source": "floodnet", "held_out_only": true, "sensor_id": "M-market-slip-s-st-2suyoc", "sensor_name": "M - Market Slip/South St", "tidally_influenced": "No", "borough": "Manhattan", "date_installed": "2026-02-12T00:00:00.000", "n_flood_events": 4, "max_depth_inches": 13.5, "sensor_exposure_days": 199.0, "event_rate_per_year": 7.341708542713568, "dataset_events": "aq7i-eu5q", "dataset_sensors": "kb2e-tjy3"}, "geometry": {"type": "Point", "coordinates": [-73.994078, 40.709579]}}, {"type": "Feature", "properties": {"source": "floodnet", "held_out_only": true, "sensor_id": "M-11th-ave-w-42nd-st-2nvbn0", "sensor_name": "M - W 42nd St/11th Ave", "tidally_influenced": "No", "borough": "Manhattan", "date_installed": "2025-11-07T00:00:00.000", "n_flood_events": 0, "max_depth_inches": null, "sensor_exposure_days": 296.0, "event_rate_per_year": 0.0, "dataset_events": "aq7i-eu5q", "dataset_sensors": "kb2e-tjy3"}, "geometry": {"type": "Point", "coordinates": [-73.998075, 40.760792]}}, {"type": "Feature", "properties": {"source": "floodnet", "held_out_only": true, "sensor_id": "M-rivington-st-suffolk-st-1zmfzc", "sensor_name": "M - Rivington St/Suffolk St", "tidally_influenced": "No", "borough": "Manhattan", "date_installed": "2024-07-24T00:00:00.000", "n_flood_events": 1, "max_depth_inches": 18.5, "sensor_exposure_days": 767.0, "event_rate_per_year": 0.476205997392438, "dataset_events": "aq7i-eu5q", "dataset_sensors": "kb2e-tjy3"}, "geometry": {"type": "Point", "coordinates": [-73.985789, 40.719461]}}, {"type": "Feature", "properties": {"source": "floodnet", "held_out_only": true, "sensor_id": "M-e-6th-st-fdr-drive-1vrfg0", "sensor_name": "M - E 6th St/FDR Dr", "tidally_influenced": "No", "borough": "Manhattan", "date_installed": "2024-05-10T00:00:00.000", "n_flood_events": 0, "max_depth_inches": null, "sensor_exposure_days": 842.0, "event_rate_per_year": 0.0, "dataset_events": "aq7i-eu5q", "dataset_sensors": "kb2e-tjy3"}, "geometry": {"type": "Point", "coordinates": [-73.975084, 40.721652]}}, {"type": "Feature", "properties": {"source": "floodnet", "held_out_only": true, "sensor_id": "BK-meserole-ave-newel-st-1tyro0", "sensor_name": "BK - Meserole Ave/Newel St", "tidally_influenced": "No", "borough": "Brooklyn", "date_installed": "2024-04-05T00:00:00.000", "n_flood_events": 0, "max_depth_inches": null, "sensor_exposure_days": 877.0, "event_rate_per_year": 0.0, "dataset_events": "aq7i-eu5q", "dataset_sensors": "kb2e-tjy3"}, "geometry": {"type": "Point", "coordinates": [-73.949231, 40.728288]}}, {"type": "Feature", "properties": {"source": "floodnet", "held_out_only": true, "sensor_id": "M-e-108th-st-park-ave-1kwx40", "sensor_name": "M - E 108th St/Park Ave", "tidally_influenced": "No", "borough": "Manhattan", "date_installed": "2023-10-12T00:00:00.000", "n_flood_events": 3, "max_depth_inches": 2.13, "sensor_exposure_days": 1053.0, "event_rate_per_year": 1.0405982905982907, "dataset_events": "aq7i-eu5q", "dataset_sensors": "kb2e-tjy3"}, "geometry": {"type": "Point", "coordinates": [-73.947289, 40.794408]}}, {"type": "Feature", "properties": {"source": "floodnet", "held_out_only": true, "sensor_id": "M-lafayette-st-white-st-1zmfzc", "sensor_name": "M - Lafayette St/White St", "tidally_influenced": "No", "borough": "Manhattan", "date_installed": "2024-07-24T00:00:00.000", "n_flood_events": 2, "max_depth_inches": 0.75, "sensor_exposure_days": 767.0, "event_rate_per_year": 0.952411994784876, "dataset_events": "aq7i-eu5q", "dataset_sensors": "kb2e-tjy3"}, "geometry": {"type": "Point", "coordinates": [-74.001524, 40.717411]}}, {"type": "Feature", "properties": {"source": "floodnet", "held_out_only": true, "sensor_id": "M-varick-st-canal-st-1zmfzc", "sensor_name": "M - Varick St/Canal St", "tidally_influenced": "No", "borough": "Manhattan", "date_installed": "2024-07-24T00:00:00.000", "n_flood_events": 1, "max_depth_inches": 0.87, "sensor_exposure_days": 767.0, "event_rate_per_year": 0.476205997392438, "dataset_events": "aq7i-eu5q", "dataset_sensors": "kb2e-tjy3"}, "geometry": {"type": "Point", "coordinates": [-74.006881, 40.722851]}}, {"type": "Feature", "properties": {"source": "floodnet", "held_out_only": true, "sensor_id": "Q-44th-dr-vernon-blvd-2if0k0", "sensor_name": "Q - 44th Dr/ Vernon Blvd", "tidally_influenced": "No", "borough": "Queens", "date_installed": "2025-07-24T00:00:00.000", "n_flood_events": 2, "max_depth_inches": 3.74, "sensor_exposure_days": 402.0, "event_rate_per_year": 1.8171641791044775, "dataset_events": "aq7i-eu5q", "dataset_sensors": "kb2e-tjy3"}, "geometry": {"type": "Point", "coordinates": [-73.95193, 40.74908]}}, {"type": "Feature", "properties": {"source": "floodnet", "held_out_only": true, "sensor_id": "BK-grand-ave-greene-ave-2jg3u0", "sensor_name": "BK - Greene Ave / Grand Ave", "tidally_influenced": "No", "borough": "Brooklyn", "date_installed": "2025-08-13T00:00:00.000", "n_flood_events": 2, "max_depth_inches": 17.6, "sensor_exposure_days": 382.0, "event_rate_per_year": 1.9123036649214658, "dataset_events": "aq7i-eu5q", "dataset_sensors": "kb2e-tjy3"}, "geometry": {"type": "Point", "coordinates": [-73.962457, 40.687137]}}, {"type": "Feature", "properties": {"source": "floodnet", "held_out_only": true, "sensor_id": "BK-concord-st-navy-st-1zmfzc", "sensor_name": "BK - Concord St/Navy St", "tidally_influenced": "No", "borough": "Brooklyn", "date_installed": "2024-07-24T00:00:00.000", "n_flood_events": 2, "max_depth_inches": 5.28, "sensor_exposure_days": 767.0, "event_rate_per_year": 0.952411994784876, "dataset_events": "aq7i-eu5q", "dataset_sensors": "kb2e-tjy3"}, "geometry": {"type": "Point", "coordinates": [-73.980408, 40.697836]}}, {"type": "Feature", "properties": {"source": "floodnet", "held_out_only": true, "sensor_id": "M-avenue-of-the-americas-w-18th-st-2mfe0c", "sensor_name": "M - 6th Ave/W 18th St", "tidally_influenced": "No", "borough": "Manhattan", "date_installed": "2025-10-10T00:00:00.000", "n_flood_events": 1, "max_depth_inches": 0.91, "sensor_exposure_days": 324.0, "event_rate_per_year": 1.1273148148148147, "dataset_events": "aq7i-eu5q", "dataset_sensors": "kb2e-tjy3"}, "geometry": {"type": "Point", "coordinates": [-73.99526, 40.73971]}}, {"type": "Feature", "properties": {"source": "floodnet", "held_out_only": true, "sensor_id": "M-catherine-slip-catherine-st-2suy9c", "sensor_name": "M - Catherine Slip/Catherine St", "tidally_influenced": "No", "borough": "Manhattan", "date_installed": "2026-02-12T00:00:00.000", "n_flood_events": 1, "max_depth_inches": 4.88, "sensor_exposure_days": 199.0, "event_rate_per_year": 1.835427135678392, "dataset_events": "aq7i-eu5q", "dataset_sensors": "kb2e-tjy3"}, "geometry": {"type": "Point", "coordinates": [-73.998475, 40.710519]}}, {"type": "Feature", "properties": {"source": "floodnet", "held_out_only": true, "sensor_id": "BK-marcy-av-ellery-st-007vc0", "sensor_name": "BK - Marcy Ave/Ellery St", "tidally_influenced": "No", "borough": "Brooklyn", "date_installed": "2020-10-05T00:00:00.000", "n_flood_events": 0, "max_depth_inches": null, "sensor_exposure_days": 2155.0, "event_rate_per_year": 0.0, "dataset_events": "aq7i-eu5q", "dataset_sensors": "kb2e-tjy3"}, "geometry": {"type": "Point", "coordinates": [-73.949837, 40.697974]}}, {"type": "Feature", "properties": {"source": "floodnet", "held_out_only": true, "sensor_id": "M-avenue-c-e-5th-st-1zmfzc", "sensor_name": "M - Avenue C/E 5th St", "tidally_influenced": "No", "borough": "Manhattan", "date_installed": "2024-07-24T00:00:00.000", "n_flood_events": 0, "max_depth_inches": null, "sensor_exposure_days": 767.0, "event_rate_per_year": 0.0, "dataset_events": "aq7i-eu5q", "dataset_sensors": "kb2e-tjy3"}, "geometry": {"type": "Point", "coordinates": [-73.979801, 40.722973]}}, {"type": "Feature", "properties": {"source": "floodnet", "held_out_only": true, "sensor_id": "M-peck-slip-front-st-1zmfzc", "sensor_name": "M - Peck Slip/Front St", "tidally_influenced": "No", "borough": "Manhattan", "date_installed": "2024-07-24T00:00:00.000", "n_flood_events": 2, "max_depth_inches": 5.83, "sensor_exposure_days": 767.0, "event_rate_per_year": 0.952411994784876, "dataset_events": "aq7i-eu5q", "dataset_sensors": "kb2e-tjy3"}, "geometry": {"type": "Point", "coordinates": [-74.001697, 40.707833]}}, {"type": "Feature", "properties": {"source": "floodnet", "held_out_only": true, "sensor_id": "M-12th-ave-w-24th-st-2nvb30", "sensor_name": "M - W 24th St/12th Ave", "tidally_influenced": "No", "borough": "Manhattan", "date_installed": "2025-11-07T00:00:00.000", "n_flood_events": 1, "max_depth_inches": 2.52, "sensor_exposure_days": 296.0, "event_rate_per_year": 1.2339527027027026, "dataset_events": "aq7i-eu5q", "dataset_sensors": "kb2e-tjy3"}, "geometry": {"type": "Point", "coordinates": [-74.00807, 40.75026]}}, {"type": "Feature", "properties": {"source": "floodnet", "held_out_only": true, "sensor_id": "BK-fulton-st-dekalb-ave-1zmfzc", "sensor_name": "BK - Fulton St/Dekalb Ave", "tidally_influenced": "No", "borough": "Brooklyn", "date_installed": "2024-07-24T00:00:00.000", "n_flood_events": 0, "max_depth_inches": null, "sensor_exposure_days": 767.0, "event_rate_per_year": 0.0, "dataset_events": "aq7i-eu5q", "dataset_sensors": "kb2e-tjy3"}, "geometry": {"type": "Point", "coordinates": [-73.983095, 40.689812]}}, {"type": "Feature", "properties": {"source": "floodnet", "held_out_only": true, "sensor_id": "BK-3rd-ave-bergen-st-2jg440", "sensor_name": "BK - Bergen St / 3rd Ave", "tidally_influenced": "No", "borough": "Brooklyn", "date_installed": "2025-08-13T00:00:00.000", "n_flood_events": 3, "max_depth_inches": 5.04, "sensor_exposure_days": 382.0, "event_rate_per_year": 2.8684554973821985, "dataset_events": "aq7i-eu5q", "dataset_sensors": "kb2e-tjy3"}, "geometry": {"type": "Point", "coordinates": [-73.981874, 40.683327]}}]}