{"type": "FeatureCollection", "features": [{"type": "Feature", "properties": {"OBJECTID": 11964082, "gnis_name": null, "ftype": 428, "fcode": 42803, "source": "usgs_nhdplus_hr", "nhd_layer": "NetworkNHDFlowline", "hydro_role": "flowline", "proxy_note": "distance_to_water_proxy; LM is tidal river/shoreline-heavy, not inland streams"}, "geometry": {"type": "LineString", "coordinates": [[-74.02965, 40.7971], [-74.02992, 40.7972]]}}, {"type": "Feature", "properties": {"OBJECTID": 12090229, "gnis_name": null, "ftype": 558, "fcode": 55800, "source": "usgs_nhdplus_hr", "nhd_layer": "NetworkNHDFlowline", "hydro_role": "flowline", "proxy_note": "distance_to_water_proxy; LM is tidal river/shoreline-heavy, not inland streams"}, "geometry": {"type": "LineString", "coordinates": [[-73.98694, 40.68168], [-73.98931, 40.67822], [-73.9893123655914, 40.678]]}}, {"type": "Feature", "properties": {"OBJECTID": 12135764, "gnis_name": null, "ftype": 460, "fcode": 46006, "source": "usgs_nhdplus_hr", "nhd_layer": "NetworkNHDFlowline", "hydro_role": "flowline", "proxy_note": "distance_to_water_proxy; LM is tidal river/shoreline-heavy, not inland streams"}, "geometry": {"type": "LineString", "coordinates": [[-74.02925, 40.7975], [-74.02881, 40.79759], [-74.02856, 40.79792], [-74.02799, 40.79814], [-74.02765, 40.79852], [-74.02769, 40.79866], [-74.02828, 40.7988]]}}, {"type": "Feature", "properties": {"OBJECTID": 13097710, "gnis_name": null, "ftype": 558, "fcode": 55800, "source": "usgs_nhdplus_hr", "nhd_layer": "NetworkNHDFlowline", "hydro_role": "flowline", "proxy_note": "distance_to_water_proxy; LM is tidal river/shoreline-heavy, not inland streams"}, "geometry": {"type": "LineString", "coordinates": [[-73.95779, 40.79433], [-73.95755, 40.79464], [-73.95614, 40.79543]]}}, {"type": "Feature", "properties": {"OBJECTID": 13388606, "gnis_name": "Newtown Creek", "ftype": 558, "fcode": 55800, "source": "usgs_nhdplus_hr", "nhd_layer": "NetworkNHDFlowline", "hydro_role": "flowline", "proxy_note": "distance_to_water_proxy; LM is tidal river/shoreline-heavy, not inland streams"}, "geometry": {"type": "LineString", "coordinates": [[-73.94671, 40.73732], [-73.95083, 40.73875], [-73.9538, 40.73939], [-73.95757, 40.73906], [-73.96042, 40.73741], [-73.96665, 40.73703]]}}, {"type": "Feature", "properties": {"OBJECTID": 13851373, "gnis_name": null, "ftype": 460, "fcode": 46006, "source": "usgs_nhdplus_hr", "nhd_layer": "NetworkNHDFlowline", "hydro_role": "flowline", "proxy_note": "distance_to_water_proxy; LM is tidal river/shoreline-heavy, not inland streams"}, "geometry": {"type": "LineString", "coordinates": [[-74.02828, 40.7988], [-74.02826, 40.79897]]}}, {"type": "Feature", "properties": {"OBJECTID": 14277937, "gnis_name": null, "ftype": 460, "fcode": 46006, "source": "usgs_nhdplus_hr", "nhd_layer": "NetworkNHDFlowline", "hydro_role": "flowline", "proxy_note": "distance_to_water_proxy; LM is tidal river/shoreline-heavy, not inland streams"}, "geometry": {"type": "LineString", "coordinates": [[-74.02881, 40.79678], [-74.02965, 40.7971]]}}, {"type": "Feature", "properties": {"OBJECTID": 14283955, "gnis_name": null, "ftype": 460, "fcode": 46006, "source": "usgs_nhdplus_hr", "nhd_layer": "NetworkNHDFlowline", "hydro_role": "flowline", "proxy_note": "distance_to_water_proxy; LM is tidal river/shoreline-heavy, not inland streams"}, "geometry": {"type": "LineString", "coordinates": [[-74.02804, 40.79916], [-74.0277, 40.79958]]}}, {"type": "Feature", "properties": {"OBJECTID": 14695788, "gnis_name": null, "ftype": 558, "fcode": 55800, "source": "usgs_nhdplus_hr", "nhd_layer": "NetworkNHDFlowline", "hydro_role": "flowline", "proxy_note": "distance_to_water_proxy; LM is tidal river/shoreline-heavy, not inland streams"}, "geometry": {"type": "LineString", "coordinates": [[-73.96665, 40.73703], [-73.96834, 40.72396], [-73.97375, 40.71139], [-73.97845, 40.70847], [-73.99305, 40.70694], [-73.99958, 40.70362], [-74.00889, 40.69699]]}}, {"type": "Feature", "properties": {"OBJECTID": 14827818, "gnis_name": null, "ftype": 460, "fcode": 46006, "source": "usgs_nhdplus_hr", "nhd_layer": "NetworkNHDFlowline", "hydro_role": "flowline", "proxy_note": "distance_to_water_proxy; LM is tidal river/shoreline-heavy, not inland streams"}, "geometry": {"type": "LineString", "coordinates": [[-74.02961, 40.79951], [-74.02969, 40.79951]]}}, {"type": "Feature", "properties": {"OBJECTID": 15302109, "gnis_name": null, "ftype": 460, "fcode": 46006, "source": "usgs_nhdplus_hr", "nhd_layer": "NetworkNHDFlowline", "hydro_role": "flowline", "proxy_note": "distance_to_water_proxy; LM is tidal river/shoreline-heavy, not inland streams"}, "geometry": {"type": "LineString", "coordinates": [[-74.02902, 40.79945], [-74.02949, 40.79955]]}}, {"type": "Feature", "properties": {"OBJECTID": 15563805, "gnis_name": null, "ftype": 558, "fcode": 55800, "source": "usgs_nhdplus_hr", "nhd_layer": "NetworkNHDFlowline", "hydro_role": "flowline", "proxy_note": "distance_to_water_proxy; LM is tidal river/shoreline-heavy, not inland streams"}, "geometry": {"type": "LineString", "coordinates": [[-73.938, 40.77920221105528], [-73.94078, 40.77513], [-73.9498, 40.76589], [-73.95836, 40.75612], [-73.96116, 40.75387], [-73.9629, 40.7501], [-73.96665, 40.73703]]}}, {"type": "Feature", "properties": {"OBJECTID": 15566814, "gnis_name": null, "ftype": 334, "fcode": 33400, "source": "usgs_nhdplus_hr", "nhd_layer": "NetworkNHDFlowline", "hydro_role": "flowline", "proxy_note": "distance_to_water_proxy; LM is tidal river/shoreline-heavy, not inland streams"}, "geometry": {"type": "LineString", "coordinates": [[-74.02874, 40.79899], [-74.0285, 40.7989]]}}, {"type": "Feature", "properties": {"OBJECTID": 16107201, "gnis_name": null, "ftype": 460, "fcode": 46006, "source": "usgs_nhdplus_hr", "nhd_layer": "NetworkNHDFlowline", "hydro_role": "flowline", "proxy_note": "distance_to_water_proxy; LM is tidal river/shoreline-heavy, not inland streams"}, "geometry": {"type": "LineString", "coordinates": [[-74.02747, 40.79931], [-74.02748, 40.79949], [-74.0277, 40.79958]]}}, {"type": "Feature", "properties": {"OBJECTID": 16665585, "gnis_name": null, "ftype": 334, "fcode": 33400, "source": "usgs_nhdplus_hr", "nhd_layer": "NetworkNHDFlowline", "hydro_role": "flowline", "proxy_note": "distance_to_water_proxy; LM is tidal river/shoreline-heavy, not inland streams"}, "geometry": {"type": "LineString", "coordinates": [[-73.95527, 40.7961], [-73.95435, 40.7968]]}}, {"type": "Feature", "properties": {"OBJECTID": 16894491, "gnis_name": null, "ftype": 334, "fcode": 33400, "source": "usgs_nhdplus_hr", "nhd_layer": "NetworkNHDFlowline", "hydro_role": "flowline", "proxy_note": "distance_to_water_proxy; LM is tidal river/shoreline-heavy, not inland streams"}, "geometry": {"type": "LineString", "coordinates": [[-74.02949, 40.79955], [-74.02961, 40.79951]]}}, {"type": "Feature", "properties": {"OBJECTID": 16957552, "gnis_name": null, "ftype": 460, "fcode": 46006, "source": "usgs_nhdplus_hr", "nhd_layer": "NetworkNHDFlowline", "hydro_role": "flowline", "proxy_note": "distance_to_water_proxy; LM is tidal river/shoreline-heavy, not inland streams"}, "geometry": {"type": "LineString", "coordinates": [[-74.02987, 40.79645], [-74.03036, 40.79586], [-74.03053, 40.79582]]}}, {"type": "Feature", "properties": {"OBJECTID": 17256225, "gnis_name": null, "ftype": 558, "fcode": 55800, "source": "usgs_nhdplus_hr", "nhd_layer": "NetworkNHDFlowline", "hydro_role": "flowline", "proxy_note": "distance_to_water_proxy; LM is tidal river/shoreline-heavy, not inland streams"}, "geometry": {"type": "LineString", "coordinates": [[-73.9542, 40.79693], [-73.95294, 40.79723], [-73.95026, 40.7964]]}}, {"type": "Feature", "properties": {"OBJECTID": 17291981, "gnis_name": null, "ftype": 460, "fcode": 46006, "source": "usgs_nhdplus_hr", "nhd_layer": "NetworkNHDFlowline", "hydro_role": "flowline", "proxy_note": "distance_to_water_proxy; LM is tidal river/shoreline-heavy, not inland streams"}, "geometry": {"type": "LineString", "coordinates": [[-74.02845, 40.79888], [-74.02826, 40.79897]]}}, {"type": "Feature", "properties": {"OBJECTID": 17643978, "gnis_name": null, "ftype": 460, "fcode": 46006, "source": "usgs_nhdplus_hr", "nhd_layer": "NetworkNHDFlowline", "hydro_role": "flowline", "proxy_note": "distance_to_water_proxy; LM is tidal river/shoreline-heavy, not inland streams"}, "geometry": {"type": "LineString", "coordinates": [[-74.02826, 40.79897], [-74.02804, 40.79916]]}}, {"type": "Feature", "properties": {"OBJECTID": 17694934, "gnis_name": null, "ftype": 460, "fcode": 46006, "source": "usgs_nhdplus_hr", "nhd_layer": "NetworkNHDFlowline", "hydro_role": "flowline", "proxy_note": "distance_to_water_proxy; LM is tidal river/shoreline-heavy, not inland streams"}, "geometry": {"type": "LineString", "coordinates": [[-74.02886, 40.79891], [-74.02874, 40.79899]]}}, {"type": "Feature", "properties": {"OBJECTID": 18401980, "gnis_name": null, "ftype": 460, "fcode": 46006, "source": "usgs_nhdplus_hr", "nhd_layer": "NetworkNHDFlowline", "hydro_role": "flowline", "proxy_note": "distance_to_water_proxy; LM is tidal river/shoreline-heavy, not inland streams"}, "geometry": {"type": "LineString", "coordinates": [[-74.02765, 40.79893], [-74.02804, 40.79916]]}}, {"type": "Feature", "properties": {"OBJECTID": 19414407, "gnis_name": null, "ftype": 460, "fcode": 46006, "source": "usgs_nhdplus_hr", "nhd_layer": "NetworkNHDFlowline", "hydro_role": "flowline", "proxy_note": "distance_to_water_proxy; LM is tidal river/shoreline-heavy, not inland streams"}, "geometry": {"type": "LineString", "coordinates": [[-74.02845, 40.79888], [-74.02828, 40.7988]]}}, {"type": "Feature", "properties": {"OBJECTID": 19715052, "gnis_name": null, "ftype": 460, "fcode": 46006, "source": "usgs_nhdplus_hr", "nhd_layer": "NetworkNHDFlowline", "hydro_role": "flowline", "proxy_note": "distance_to_water_proxy; LM is tidal river/shoreline-heavy, not inland streams"}, "geometry": {"type": "LineString", "coordinates": [[-74.02992, 40.7972], [-74.03131, 40.79776]]}}, {"type": "Feature", "properties": {"OBJECTID": 19799167, "gnis_name": "Hudson River", "ftype": 558, "fcode": 55800, "source": "usgs_nhdplus_hr", "nhd_layer": "NetworkNHDFlowline", "hydro_role": "flowline", "proxy_note": "distance_to_water_proxy; LM is tidal river/shoreline-heavy, not inland streams"}, "geometry": {"type": "LineString", "coordinates": [[-74.02584, 40.70395], [-74.02639, 40.70019], [-74.032, 40.690986541737644]]}}, {"type": "Feature", "properties": {"OBJECTID": 20344984, "gnis_name": "Hudson River", "ftype": 558, "fcode": 55800, "source": "usgs_nhdplus_hr", "nhd_layer": "NetworkNHDFlowline", "hydro_role": "flowline", "proxy_note": "distance_to_water_proxy; LM is tidal river/shoreline-heavy, not inland streams"}, "geometry": {"type": "LineString", "coordinates": [[-73.9815683299389, 40.802], [-74.01373, 40.75789], [-74.01579, 40.75012], [-74.02371, 40.71796], [-74.02584, 40.70395]]}}, {"type": "Feature", "properties": {"OBJECTID": 20407960, "gnis_name": null, "ftype": 460, "fcode": 46006, "source": "usgs_nhdplus_hr", "nhd_layer": "NetworkNHDFlowline", "hydro_role": "flowline", "proxy_note": "distance_to_water_proxy; LM is tidal river/shoreline-heavy, not inland streams"}, "geometry": {"type": "LineString", "coordinates": [[-73.95614, 40.79543], [-73.95527, 40.7961]]}}, {"type": "Feature", "properties": {"OBJECTID": 20510498, "gnis_name": null, "ftype": 460, "fcode": 46006, "source": "usgs_nhdplus_hr", "nhd_layer": "NetworkNHDFlowline", "hydro_role": "flowline", "proxy_note": "distance_to_water_proxy; LM is tidal river/shoreline-heavy, not inland streams"}, "geometry": {"type": "LineString", "coordinates": [[-74.0285, 40.7989], [-74.02845, 40.79888]]}}, {"type": "Feature", "properties": {"OBJECTID": 20883317, "gnis_name": null, "ftype": 334, "fcode": 33400, "source": "usgs_nhdplus_hr", "nhd_layer": "NetworkNHDFlowline", "hydro_role": "flowline", "proxy_note": "distance_to_water_proxy; LM is tidal river/shoreline-heavy, not inland streams"}, "geometry": {"type": "LineString", "coordinates": [[-74.02891, 40.79884], [-74.02886, 40.79891]]}}, {"type": "Feature", "properties": {"OBJECTID": 21099264, "gnis_name": null, "ftype": 558, "fcode": 55800, "source": "usgs_nhdplus_hr", "nhd_layer": "NetworkNHDFlowline", "hydro_role": "flowline", "proxy_note": "distance_to_water_proxy; LM is tidal river/shoreline-heavy, not inland streams"}, "geometry": {"type": "LineString", "coordinates": [[-74.00889, 40.69699], [-74.01111, 40.6954], [-74.01859, 40.69674], [-74.032, 40.69067754206291]]}}, {"type": "Feature", "properties": {"OBJECTID": 21632146, "gnis_name": null, "ftype": 558, "fcode": 55800, "source": "usgs_nhdplus_hr", "nhd_layer": "NetworkNHDFlowline", "hydro_role": "flowline", "proxy_note": "distance_to_water_proxy; LM is tidal river/shoreline-heavy, not inland streams"}, "geometry": {"type": "LineString", "coordinates": [[-73.93914, 40.74305], [-73.94144, 40.73964], [-73.94366, 40.73862], [-73.94631, 40.73765], [-73.94671, 40.73732]]}}, {"type": "Feature", "properties": {"OBJECTID": 23100082, "gnis_name": "Newtown Creek", "ftype": 558, "fcode": 55800, "source": "usgs_nhdplus_hr", "nhd_layer": "NetworkNHDFlowline", "hydro_role": "flowline", "proxy_note": "distance_to_water_proxy; LM is tidal river/shoreline-heavy, not inland streams"}, "geometry": {"type": "LineString", "coordinates": [[-73.938, 40.7301439910314], [-73.93842, 40.73037], [-73.93923, 40.73096], [-73.94079, 40.73405], [-73.9418, 40.73543], [-73.94671, 40.73732]]}}, {"type": "Feature", "properties": {"OBJECTID": 23520694, "gnis_name": null, "ftype": 558, "fcode": 55800, "source": "usgs_nhdplus_hr", "nhd_layer": "NetworkNHDFlowline", "hydro_role": "flowline", "proxy_note": "distance_to_water_proxy; LM is tidal river/shoreline-heavy, not inland streams"}, "geometry": {"type": "LineString", "coordinates": [[-74.02969, 40.79951], [-74.03012, 40.79954], [-74.032, 40.800363471074384]]}}, {"type": "Feature", "properties": {"OBJECTID": 23784883, "gnis_name": null, "ftype": 460, "fcode": 46006, "source": "usgs_nhdplus_hr", "nhd_layer": "NetworkNHDFlowline", "hydro_role": "flowline", "proxy_note": "distance_to_water_proxy; LM is tidal river/shoreline-heavy, not inland streams"}, "geometry": {"type": "LineString", "coordinates": [[-74.0277, 40.79958], [-74.02772, 40.79987], [-74.02721, 40.80006], [-74.02718, 40.80029]]}}, {"type": "Feature", "properties": {"OBJECTID": 23929888, "gnis_name": null, "ftype": 460, "fcode": 46006, "source": "usgs_nhdplus_hr", "nhd_layer": "NetworkNHDFlowline", "hydro_role": "flowline", "proxy_note": "distance_to_water_proxy; LM is tidal river/shoreline-heavy, not inland streams"}, "geometry": {"type": "LineString", "coordinates": [[-74.0297, 40.79759], [-74.02891, 40.79884]]}}, {"type": "Feature", "properties": {"OBJECTID": 24140461, "gnis_name": null, "ftype": 460, "fcode": 46006, "source": "usgs_nhdplus_hr", "nhd_layer": "NetworkNHDFlowline", "hydro_role": "flowline", "proxy_note": "distance_to_water_proxy; LM is tidal river/shoreline-heavy, not inland streams"}, "geometry": {"type": "LineString", "coordinates": [[-73.95435, 40.7968], [-73.9542, 40.79693]]}}, {"type": "Feature", "properties": {"OBJECTID": 333924, "gnis_name": null, "ftype": 566, "fcode": 56600, "source": "usgs_nhdplus_hr", "nhd_layer": "NonNetworkNHDFlowline", "hydro_role": "flowline", "proxy_note": "distance_to_water_proxy; LM is tidal river/shoreline-heavy, not inland streams"}, "geometry": {"type": "MultiLineString", "coordinates": [[[-74.032, 40.7132928], [-74.03192, 40.71328], [-74.03195, 40.71356], [-74.03183, 40.71379], [-74.032, 40.71380612068966]], [[-74.032, 40.716179565217395], [-74.0317, 40.71616], [-74.03172, 40.71581], [-74.0315, 40.71572], [-74.03138, 40.7158], [-74.03129, 40.71628], [-74.032, 40.71636068181818]], [[-74.032, 40.71690289855072], [-74.03, 40.7167], [-74.02993, 40.71706], [-74.032, 40.71729489361702]], [[-74.032, 40.719213461538466], [-74.02937, 40.71891], [-74.02926, 40.71932], [-74.032, 40.71969793103448]], [[-74.032, 40.72019111111111], [-74.03147, 40.72025], [-74.03133, 40.72062], [-74.03135, 40.72116], [-74.03152, 40.72116], [-74.03141, 40.72188], [-74.032, 40.7219324911032]], [[-74.032, 40.72399130434783], [-74.0296, 40.7238], [-74.02944, 40.72453], [-74.02978, 40.72465], [-74.032, 40.72484137931034]], [[-74.032, 40.726118303571425], [-74.03133, 40.72622], [-74.03029, 40.72613], [-74.03002, 40.72647], [-74.0304, 40.72703], [-74.03034, 40.72777], [-74.02741, 40.72759], [-74.02756, 40.72771], [-74.03108, 40.72803], [-74.03103, 40.72857], [-74.02661, 40.72818], [-74.02655, 40.72859], [-74.031, 40.72899], [-74.03096, 40.72933], [-74.02734, 40.72906], [-74.03123, 40.72947], [-74.0311, 40.73006], [-74.03052, 40.72975], [-74.02976, 40.72975], [-74.03135, 40.73066], [-74.03125, 40.73075], [-74.03063, 40.73057], [-74.02913, 40.73046], [-74.02742, 40.72948], [-74.02699740724285, 40.72949482781604]], [[-74.02699740724285, 40.72949482781604], [-74.02685, 40.7295], [-74.02696, 40.72947], [-74.02699740724285, 40.72949482781604]], [[-74.02699740724285, 40.72949482781604], [-74.02809, 40.73022], [-74.028, 40.731], [-74.03097, 40.73127], [-74.03065, 40.73347], [-74.032, 40.73359368012422]], [[-74.032, 40.733858087855296], [-74.02929, 40.73362], [-74.02911, 40.73381], [-74.02906, 40.73408], [-74.02783, 40.73398], [-74.02791, 40.73356], [-74.02779, 40.73353], [-74.02776, 40.73371], [-74.02747, 40.73376], [-74.02774, 40.73378], [-74.02777, 40.73394], [-74.02563, 40.73377], [-74.02563, 40.73395], [-74.02705, 40.73407], [-74.02704, 40.73428], [-74.0262, 40.73428], [-74.02617, 40.73438], [-74.02682, 40.73466], [-74.02614, 40.73585], [-74.02745, 40.7361], [-74.0277, 40.7362], [-74.0277, 40.73632], [-74.02759, 40.73665], [-74.02514, 40.73627], [-74.02493, 40.73712], [-74.02733, 40.73755], [-74.02675, 40.73947], [-74.02646, 40.73955], [-74.02629, 40.7398], [-74.02599, 40.73965], [-74.02564, 40.73974], [-74.02542, 40.74001], [-74.02546, 40.74042], [-74.0249, 40.74034], [-74.0257, 40.74063], [-74.02638, 40.74067], [-74.0263, 40.74101], [-74.02563, 40.74133], [-74.0256, 40.74145], [-74.02528, 40.7414], [-74.02499, 40.74237], [-74.02477, 40.7423], [-74.02452, 40.74313], [-74.02396, 40.74304], [-74.02361, 40.74379], [-74.02336, 40.74374], [-74.02291, 40.74432], [-74.02253, 40.74546], [-74.02208, 40.74539], [-74.02209, 40.74562], [-74.02255, 40.74552], [-74.02255, 40.74648], [-74.02265, 40.74666], [-74.02171, 40.74658], [-74.02274, 40.74685], [-74.02285, 40.74706], [-74.02162, 40.74692], [-74.0216, 40.74704], [-74.02298, 40.74727], [-74.02303, 40.74738], [-74.02292, 40.74743], [-74.02315, 40.74766], [-74.02153, 40.7475], [-74.02344, 40.74784], [-74.02363, 40.74813], [-74.02347, 40.74846], [-74.02242, 40.74845], [-74.02228, 40.74883], [-74.02351, 40.74922], [-74.02325, 40.75013], [-74.02354, 40.75014], [-74.02348, 40.75034], [-74.02177, 40.75003], [-74.02173, 40.75022], [-74.02374, 40.75058], [-74.02368, 40.75077], [-74.02099, 40.75031], [-74.02097, 40.75041], [-74.02354, 40.75086], [-74.02362, 40.75094], [-74.0235, 40.75129], [-74.02087, 40.75088], [-74.02328, 40.75133], [-74.02343, 40.75149], [-74.02324, 40.75148], [-74.02312, 40.75185], [-74.02077, 40.75145], [-74.02073, 40.75155], [-74.02319, 40.752], [-74.02313, 40.75227], [-74.0234, 40.75251], [-74.02335, 40.75266], [-74.02312, 40.75272], [-74.02061, 40.75228], [-74.02058, 40.75239], [-74.02328, 40.75287], [-74.02321, 40.75312], [-74.02298, 40.75319], [-74.02308, 40.75351], [-74.02285, 40.75357], [-74.02043, 40.75314], [-74.02038, 40.75326], [-74.02363, 40.75384], [-74.02341, 40.75453], [-74.02076, 40.75416], [-74.02072, 40.75432], [-74.02108, 40.75447], [-74.02332, 40.75486], [-74.02344, 40.75521], [-74.02321, 40.75523], [-74.02312, 40.75558], [-74.02365, 40.75564], [-74.02402, 40.75446], [-74.02439, 40.75451], [-74.02426, 40.75497], [-74.02721, 40.75549], [-74.02692, 40.7563], [-74.02746, 40.75636], [-74.02718, 40.75727], [-74.02633, 40.75713], [-74.02607, 40.75797], [-74.02495, 40.75822], [-74.02367, 40.75767], [-74.02361, 40.75775], [-74.02334, 40.75764], [-74.02263, 40.75854], [-74.02286, 40.75867], [-74.02254, 40.75905], [-74.02237, 40.75907], [-74.01973, 40.75792], [-74.0194, 40.7579], [-74.0193, 40.75815], [-74.02224, 40.75949], [-74.02111, 40.76097], [-74.01874, 40.75991], [-74.01859, 40.76021], [-74.02089, 40.76124], [-74.02056, 40.76167], [-74.01851, 40.76078], [-74.01856, 40.76067], [-74.0184, 40.7606], [-74.01846, 40.76051], [-74.01825, 40.7604], [-74.01805, 40.7604], [-74.01776, 40.76078], [-74.02035, 40.76193], [-74.01944, 40.76318], [-74.02077, 40.7638], [-74.02041, 40.76392], [-74.01872, 40.7633], [-74.01857, 40.76342], [-74.01798, 40.76343], [-74.01743, 40.76385], [-74.01686, 40.76462], [-74.01705, 40.76483], [-74.0172, 40.7653], [-74.01697, 40.76583], [-74.01709, 40.76601], [-74.01685, 40.76619], [-74.01724, 40.76659], [-74.01698, 40.76663], [-74.0152, 40.76908], [-74.01549, 40.76924], [-74.01544, 40.76947], [-74.01495, 40.7698], [-74.01441, 40.77052], [-74.01431, 40.7712], [-74.01394, 40.77096], [-74.01356, 40.77135], [-74.01344, 40.77129], [-74.01357, 40.77107], [-74.0134, 40.77098], [-74.01268, 40.7716], [-74.01083, 40.77252], [-74.01033, 40.77301], [-74.01042, 40.77331], [-74.00989, 40.77372], [-74.00978, 40.77399], [-74.01094, 40.77458], [-74.01095, 40.77487], [-74.01057, 40.77549], [-74.01165, 40.77603], [-74.01122, 40.77654], [-74.01105, 40.77659], [-74.01032, 40.77619], [-74.01029, 40.77602], [-74.01008, 40.77627], [-74.01017, 40.77634], [-74.01026, 40.77624], [-74.01051, 40.77641], [-74.01031, 40.77666], [-74.00998, 40.77659], [-74.00998, 40.77645], [-74.00977, 40.77669], [-74.01077, 40.77694], [-74.0108, 40.77709], [-74.01042, 40.77759], [-74.00921, 40.77714], [-74.00677, 40.78026], [-74.00661, 40.78028], [-74.00559, 40.77979], [-74.00541, 40.78001], [-74.00653, 40.78056], [-74.00616, 40.78101], [-74.00533, 40.78068], [-74.00495, 40.78115], [-74.00308, 40.78033], [-74.003, 40.78047], [-74.00314, 40.78062], [-74.00476, 40.78139], [-74.00388, 40.78251], [-74.00327, 40.78231], [-74.00314, 40.78239], [-74.00128, 40.78479], [-74.00009, 40.78426], [-73.99997, 40.7844], [-74.00114, 40.78499], [-74.00057, 40.78571], [-73.99994, 40.78548], [-74.00053, 40.78576], [-73.99962, 40.7869], [-73.9994, 40.78702], [-73.9994, 40.78733], [-73.99889, 40.78783], [-73.99726, 40.79008], [-73.99817, 40.79047], [-73.9979, 40.79096], [-73.99803, 40.79137], [-73.99825, 40.79155], [-73.99783, 40.79172], [-73.99704, 40.79135], [-73.99618, 40.79116], [-73.99611, 40.79146], [-73.9967, 40.79174], [-73.9968, 40.79239], [-73.99667, 40.79273], [-73.99641, 40.79282], [-73.99543, 40.79259], [-73.99432, 40.79342], [-73.99422, 40.79367], [-73.99432, 40.79391], [-73.99427, 40.79436], [-73.994, 40.79445], [-73.9935, 40.79499], [-73.99478, 40.79558], [-73.99512, 40.7959], [-73.99484, 40.79617], [-73.99319, 40.79571], [-73.99293, 40.79578], [-73.99262, 40.79639], [-73.99195, 40.7972], [-73.99214, 40.79746], [-73.99447, 40.79839], [-73.99449, 40.79856], [-73.99417, 40.79895], [-73.99339, 40.79936], [-73.99308, 40.7998], [-73.99234, 40.79996], [-73.9925, 40.80022], [-73.99232, 40.80098], [-73.99175333333334, 40.802]]]}}, {"type": "Feature", "properties": {"OBJECTID": 512518, "gnis_name": null, "ftype": 566, "fcode": 56600, "source": "usgs_nhdplus_hr", "nhd_layer": "NonNetworkNHDFlowline", "hydro_role": "flowline", "proxy_note": "distance_to_water_proxy; LM is tidal river/shoreline-heavy, not inland streams"}, "geometry": {"type": "MultiLineString", "coordinates": [[[-74.00368, 40.69371], [-74.00395, 40.69319], [-74.0017, 40.69241], [-74.00202, 40.6919], [-74.00435, 40.69255], [-74.00482, 40.6917], [-74.00075, 40.69056], [-74.00095, 40.69016], [-74.00184, 40.69039], [-74.00196, 40.69015], [-74.0053, 40.69103], [-74.00571, 40.6902], [-74.00373, 40.68967], [-74.00386, 40.68944], [-74.00378, 40.6894], [-74.00407, 40.68902], [-74.00635, 40.68963], [-74.00676, 40.68878], [-74.00466, 40.6882], [-74.00517, 40.68763], [-74.00745, 40.68823], [-74.00789, 40.68736], [-74.00565, 40.68672], [-74.00594, 40.68613], [-74.00696, 40.68647], [-74.00775, 40.68622], [-74.00823, 40.68638], [-74.01211, 40.68407], [-74.01184, 40.6838], [-74.0108, 40.68435], [-74.01037, 40.68392], [-74.00834, 40.68516], [-74.00803, 40.68465], [-74.01294, 40.68047], [-74.01373, 40.68099], [-74.01348, 40.68118], [-74.01358, 40.68125], [-74.01313, 40.68154], [-74.01321, 40.68162], [-74.01372, 40.68132], [-74.01406, 40.68164], [-74.01197, 40.68293], [-74.0127, 40.68367], [-74.01903, 40.67987], [-74.01896, 40.67977], [-74.01946, 40.67932], [-74.0195, 40.67894], [-74.01858, 40.67895], [-74.01822, 40.67872], [-74.0182, 40.67853], [-74.01985, 40.67843], [-74.01985, 40.67834], [-74.01843, 40.67838], [-74.01845375, 40.678]], [[-73.98944710280374, 40.678], [-73.9894, 40.67836], [-73.98705, 40.68175], [-73.98679, 40.68157], [-73.98911, 40.67818], [-73.9891197826087, 40.678]]]}}, {"type": "Feature", "properties": {"OBJECTID": 512519, "gnis_name": null, "ftype": 566, "fcode": 56600, "source": "usgs_nhdplus_hr", "nhd_layer": "NonNetworkNHDFlowline", "hydro_role": "flowline", "proxy_note": "distance_to_water_proxy; LM is tidal river/shoreline-heavy, not inland streams"}, "geometry": {"type": "MultiLineString", "coordinates": [[[-74.01514, 40.70084], [-74.01501, 40.70097], [-74.01434, 40.70063], [-74.01467, 40.70022], [-74.0146, 40.70016], [-74.01423, 40.70057], [-74.01415, 40.70052], [-74.01431, 40.70009], [-74.01418, 40.70007], [-74.01397, 40.70086], [-74.01376, 40.70082], [-74.01381, 40.70062], [-74.01358, 40.70055], [-74.01356, 40.70039], [-74.01367, 40.70016], [-74.01359, 40.70011], [-74.01349, 40.70048], [-74.01328, 40.7005], [-74.01331, 40.69977], [-74.01305, 40.69975], [-74.01312, 40.70051], [-74.0129, 40.70052], [-74.01258, 40.70011], [-74.0126, 40.70058], [-74.01238, 40.70062], [-74.01193, 40.70004], [-74.01216, 40.70065], [-74.01186, 40.70017], [-74.0119, 40.70052], [-74.01162, 40.70048], [-74.01167, 40.70077], [-74.01153, 40.70081], [-74.01129, 40.70057], [-74.01135, 40.70085], [-74.01116, 40.70089], [-74.01079, 40.70019], [-74.01118, 40.70107], [-74.01116, 40.70142], [-74.00959, 40.70184], [-74.00859, 40.70054], [-74.00833, 40.70065], [-74.00852, 40.70091], [-74.00759, 40.70133], [-74.00775, 40.70154], [-74.00869, 40.70116], [-74.0093, 40.70194], [-74.00769, 40.70285], [-74.00752, 40.70311], [-74.0068, 40.70357], [-74.00548, 40.70245], [-74.00532, 40.70256], [-74.00656, 40.7037], [-74.00615, 40.70395], [-74.006, 40.70386], [-74.00407, 40.70516], [-74.00285, 40.70407], [-74.00261, 40.70422], [-74.00377, 40.7053], [-74.00331, 40.70563], [-74.00215, 40.70462], [-74.00196, 40.70475], [-74.00272, 40.70542], [-74.00259, 40.70554], [-74.00208, 40.70541], [-74.00144, 40.70487], [-74.00058, 40.70543], [-74.0014, 40.70616], [-74.00099, 40.70642], [-74.00123, 40.70675], [-74.0, 40.70738], [-73.99963, 40.70774], [-73.99922, 40.70777], [-73.99869, 40.70827], [-73.99764, 40.70865], [-73.98887, 40.70997], [-73.98864, 40.70992], [-73.98849, 40.70912], [-73.98125, 40.70983], [-73.98129, 40.71022], [-73.97781, 40.71063], [-73.97672, 40.7115], [-73.9764, 40.71195], [-73.97435, 40.71641], [-73.97346, 40.71891], [-73.97177, 40.72584], [-73.97149, 40.72742], [-73.97165, 40.72745], [-73.97165, 40.72762], [-73.97141, 40.72889], [-73.97151, 40.72934], [-73.97216, 40.73018], [-73.97339, 40.73127], [-73.97387, 40.73306], [-73.97357, 40.73306], [-73.97355, 40.73316], [-73.97398, 40.73348], [-73.97443, 40.73531], [-73.97356, 40.73495], [-73.97327, 40.73507], [-73.97329, 40.73524], [-73.97305, 40.73513], [-73.97276, 40.7355], [-73.97306, 40.7352], [-73.97414, 40.73568], [-73.97453, 40.73568], [-73.9744, 40.73643], [-73.97285, 40.73577], [-73.97247, 40.73578], [-73.97268, 40.73917], [-73.97246, 40.73999], [-73.97231, 40.74002], [-73.9722, 40.74039], [-73.97219, 40.74072], [-73.97228, 40.74074], [-73.97197, 40.74234], [-73.97176, 40.74267], [-73.97188, 40.74273], [-73.97122, 40.74378], [-73.97134, 40.74383], [-73.97124, 40.74402], [-73.9708, 40.74388], [-73.97107, 40.74354], [-73.97095, 40.74345], [-73.97036, 40.74428], [-73.97048, 40.74432], [-73.97068, 40.74402], [-73.97108, 40.7442], [-73.97095, 40.74445], [-73.9708, 40.74442], [-73.96894, 40.74654], [-73.96825, 40.74737], [-73.96835, 40.74746], [-73.96636, 40.74985], [-73.96525, 40.75114], [-73.96504, 40.75116], [-73.96512, 40.75127], [-73.96226, 40.75452], [-73.96082, 40.75576], [-73.95869, 40.75835], [-73.9536, 40.76308], [-73.94945, 40.76774], [-73.94768, 40.76995], [-73.94652, 40.77116], [-73.94458, 40.77287], [-73.9429, 40.77474], [-73.94238, 40.77583], [-73.94207, 40.77598], [-73.94206, 40.77705], [-73.94227, 40.77745], [-73.94203, 40.77752], [-73.94207, 40.77762], [-73.94236, 40.77755], [-73.94229, 40.77734], [-73.94245, 40.77742], [-73.94289, 40.77862], [-73.94256, 40.77908], [-73.94274, 40.7792], [-73.94273, 40.77956], [-73.94296, 40.77962], [-73.9432, 40.77928], [-73.9436, 40.78014], [-73.94388, 40.78128], [-73.94367, 40.78264], [-73.94319, 40.78342], [-73.94239, 40.78396], [-73.93982, 40.78528], [-73.93803, 40.78726], [-73.938, 40.787326206896545]], [[-73.97385743833017, 40.802], [-73.98808, 40.78166], [-73.98812, 40.7814], [-73.98838, 40.78147], [-73.98817, 40.78136], [-73.98891, 40.78023], [-73.98891, 40.7799], [-73.99142, 40.77976], [-73.99155, 40.77958], [-73.99126, 40.77968], [-73.98887, 40.77971], [-73.98916, 40.77933], [-73.98979, 40.7793], [-73.98976, 40.77899], [-73.99012, 40.77896], [-73.98991, 40.77881], [-73.9906, 40.77875], [-73.98956, 40.77876], [-73.9904, 40.77758], [-73.99095, 40.77758], [-73.9924, 40.77554], [-73.99216, 40.77544], [-73.99231, 40.77512], [-73.99274, 40.77481], [-73.99393, 40.77319], [-73.99607, 40.77409], [-73.99616, 40.77401], [-73.99623, 40.77381], [-73.99507, 40.77329], [-73.99476, 40.77321], [-73.99465, 40.77332], [-73.99428, 40.77317], [-73.99436, 40.77305], [-73.99385, 40.77292], [-73.99415, 40.77248], [-73.99613, 40.77328], [-73.99642, 40.77305], [-73.99548, 40.77263], [-73.9954, 40.77276], [-73.99445, 40.77237], [-73.99479, 40.77192], [-73.997, 40.77283], [-73.99718, 40.77258], [-73.99501, 40.77164], [-73.99494, 40.7715], [-73.99512, 40.77146], [-73.99531, 40.77121], [-73.99592, 40.77144], [-73.99599, 40.77128], [-73.99543, 40.77104], [-73.99577, 40.77056], [-73.99589, 40.77061], [-73.99602, 40.77046], [-73.99589, 40.77041], [-73.9963, 40.7698], [-73.99875, 40.77081], [-73.99901, 40.77046], [-73.9966, 40.76942], [-73.99708, 40.76874], [-73.99952, 40.76978], [-73.99973, 40.76951], [-73.99649, 40.76806], [-73.99715, 40.76716], [-74.00044, 40.76853], [-74.00067, 40.76824], [-73.99736, 40.76684], [-73.99792, 40.76606], [-73.99819, 40.76607], [-74.00119, 40.76734], [-74.00133, 40.76734], [-74.00163, 40.76691], [-73.99839, 40.76545], [-73.99871, 40.76522], [-73.99854, 40.76509], [-73.99891, 40.76461], [-74.00199, 40.76588], [-74.00224, 40.7657], [-74.0023, 40.76556], [-74.00218, 40.76547], [-74.00231, 40.76517], [-73.99954, 40.76402], [-73.99937, 40.76429], [-73.99918, 40.76422], [-73.99961, 40.76357], [-73.99994, 40.76342], [-74.00316, 40.76477], [-74.0032, 40.76462], [-74.00296, 40.76462], [-74.00315, 40.76435], [-74.00097, 40.76344], [-74.00136, 40.76287], [-74.00361, 40.76378], [-74.00377, 40.76358], [-74.00152, 40.76264], [-74.0022, 40.76172], [-74.00442, 40.76268], [-74.00455, 40.7625], [-74.00233, 40.76154], [-74.00277, 40.76094], [-74.00313, 40.76108], [-74.0033, 40.76087], [-74.00392, 40.76001], [-74.00356, 40.75986], [-74.00367, 40.75971], [-74.00413, 40.75989], [-74.00423, 40.7597], [-74.00386, 40.75944], [-74.00419, 40.7595], [-74.00451, 40.75909], [-74.00654, 40.7599], [-74.00699, 40.75927], [-74.00684, 40.75912], [-74.00503, 40.75836], [-74.00528, 40.75806], [-74.0048, 40.75781], [-74.00519, 40.75728], [-74.00544, 40.7573], [-74.00655, 40.75579], [-74.00743, 40.75606], [-74.00664, 40.75565], [-74.00714, 40.75495], [-74.00728, 40.75498], [-74.0074, 40.75482], [-74.00726, 40.75475], [-74.00746, 40.75449], [-74.00759, 40.75454], [-74.00773, 40.75434], [-74.00763, 40.75428], [-74.00834, 40.75236], [-74.0093, 40.75259], [-74.00981, 40.75287], [-74.00974, 40.75298], [-74.00925, 40.75281], [-74.0092, 40.75289], [-74.00983, 40.75317], [-74.01004, 40.75284], [-74.00843, 40.75216], [-74.00849, 40.75207], [-74.01008, 40.75266], [-74.01018, 40.75253], [-74.00856, 40.75186], [-74.009, 40.75066], [-74.01055, 40.7513], [-74.01067, 40.75104], [-74.00912, 40.75037], [-74.00926, 40.74998], [-74.00955, 40.74997], [-74.00996, 40.74896], [-74.0112, 40.74897], [-74.01123, 40.74866], [-74.00901, 40.74838], [-74.00908, 40.74779], [-74.01134, 40.74802], [-74.01143, 40.74763], [-74.00918, 40.74735], [-74.00925, 40.74681], [-74.01149, 40.74701], [-74.01159, 40.74665], [-74.00935, 40.74633], [-74.00945, 40.74574], [-74.01168, 40.746], [-74.01179, 40.74559], [-74.00958, 40.74531], [-74.00962, 40.745], [-74.00873, 40.74488], [-74.00891, 40.74392], [-74.00945, 40.74398], [-74.00953, 40.74367], [-74.01207, 40.74394], [-74.01214, 40.74357], [-74.0096, 40.74323], [-74.00962, 40.74298], [-74.00909, 40.74288], [-74.00927, 40.74187], [-74.00947, 40.74189], [-74.00953, 40.74152], [-74.01196, 40.74171], [-74.01212, 40.7416], [-74.01213, 40.74149], [-74.00959, 40.74123], [-74.00942, 40.74116], [-74.00949, 40.74068], [-74.0127, 40.74075], [-74.01208, 40.74064], [-74.01209, 40.74055], [-74.01147, 40.74056], [-74.01151, 40.73998], [-74.01161, 40.74015], [-74.01232, 40.74018], [-74.01236, 40.73974], [-74.01163, 40.73969], [-74.01153, 40.73988], [-74.01158, 40.73929], [-74.01039, 40.7392], [-74.01046, 40.73837], [-74.01114, 40.7384], [-74.01109, 40.7381], [-74.0105, 40.73806], [-74.01063, 40.73638], [-74.01075, 40.73619], [-74.01065, 40.73604], [-74.01082, 40.73427], [-74.01196, 40.73433], [-74.01199, 40.73407], [-74.01085, 40.73401], [-74.01088, 40.73361], [-74.01073, 40.73348], [-74.01092, 40.7333], [-74.01401, 40.73334], [-74.01402, 40.73305], [-74.01093, 40.73301], [-74.01117, 40.73047], [-74.01407, 40.73068], [-74.01434, 40.72862], [-74.01484, 40.72867], [-74.01488, 40.72851], [-74.01138, 40.72823], [-74.01156, 40.72645], [-74.01512, 40.72682], [-74.01521, 40.72647], [-74.0151, 40.7263], [-74.01233, 40.72605], [-74.01167, 40.72587], [-74.01256, 40.7215], [-74.01363, 40.72159], [-74.01312, 40.72147], [-74.01316, 40.72126], [-74.01562, 40.72155], [-74.0157, 40.7212], [-74.01291, 40.72087], [-74.013, 40.72034], [-74.01631, 40.72073], [-74.01638, 40.72038], [-74.0134, 40.72003], [-74.01344, 40.71982], [-74.01293, 40.71974], [-74.01321, 40.71832], [-74.01669, 40.71868], [-74.01736, 40.71521], [-74.01803, 40.7153], [-74.01815, 40.71482], [-74.01743, 40.71478], [-74.01774, 40.71307], [-74.01758, 40.7136], [-74.01637, 40.7134], [-74.01668, 40.71279], [-74.01668, 40.71221], [-74.01781, 40.71236], [-74.01779, 40.71284], [-74.01814, 40.71088], [-74.01886, 40.70806], [-74.01821, 40.7078], [-74.01857, 40.7069], [-74.01883, 40.70697], [-74.01863, 40.70715], [-74.01912, 40.70701], [-74.01935, 40.70611], [-74.01891, 40.70474], [-74.01795, 40.70451], [-74.01868, 40.70445], [-74.01844, 40.70416], [-74.01787, 40.70425], [-74.01796, 40.70398], [-74.01783, 40.70403], [-74.01784, 40.70391], [-74.0178, 40.70422], [-74.01758, 40.70419], [-74.01767, 40.70363], [-74.0179, 40.70362], [-74.01788, 40.70353], [-74.01767, 40.70358], [-74.01755, 40.70324], [-74.01625, 40.70162], [-74.01514, 40.70084]]]}}, {"type": "Feature", "properties": {"OBJECTID": 512520, "gnis_name": null, "ftype": 566, "fcode": 56600, "source": "usgs_nhdplus_hr", "nhd_layer": "NonNetworkNHDFlowline", "hydro_role": "flowline", "proxy_note": "distance_to_water_proxy; LM is tidal river/shoreline-heavy, not inland streams"}, "geometry": {"type": "LineString", "coordinates": [[-73.938, 40.729688461538466], [-73.9381, 40.72975], [-73.93976, 40.73106], [-73.94063, 40.73281], [-73.94057, 40.73302], [-73.94071, 40.73333], [-73.94102, 40.73349], [-73.94111, 40.73371], [-73.941, 40.73379], [-73.94104, 40.73394], [-73.9416, 40.73472], [-73.94242, 40.73544], [-73.94447, 40.73628], [-73.94504, 40.73544], [-73.94532, 40.73548], [-73.94538, 40.7359], [-73.9451, 40.73638], [-73.94553, 40.73654], [-73.94582, 40.73607], [-73.94623, 40.73619], [-73.94631, 40.73612], [-73.94674, 40.73531], [-73.94664, 40.73449], [-73.94705, 40.73441], [-73.94721, 40.73535], [-73.94641, 40.73678], [-73.94648, 40.73693], [-73.95077, 40.73843], [-73.95284, 40.73895], [-73.9546, 40.73913], [-73.95685, 40.73889], [-73.9581, 40.73831], [-73.95974, 40.73713], [-73.96165, 40.73512], [-73.96212, 40.7345], [-73.96236, 40.73368], [-73.96228, 40.7329], [-73.96219, 40.73268], [-73.96193, 40.73266], [-73.96189, 40.73249], [-73.96212, 40.73235], [-73.96146, 40.73106], [-73.96132, 40.73054], [-73.961, 40.72859], [-73.96161, 40.72667], [-73.96165, 40.72582], [-73.96025, 40.72593], [-73.96014, 40.72532], [-73.95847, 40.72538], [-73.95799, 40.72498], [-73.95802, 40.72445], [-73.95824, 40.72439], [-73.95881, 40.72453], [-73.96103, 40.72525], [-73.96193, 40.72529], [-73.96208, 40.72518], [-73.96169, 40.72483], [-73.96195, 40.72444], [-73.96192, 40.72398], [-73.9624, 40.72326], [-73.96267, 40.7234], [-73.96281, 40.72334], [-73.96255, 40.72307], [-73.96257, 40.72287], [-73.96306, 40.72198], [-73.96345, 40.72172], [-73.96449, 40.72028], [-73.96441, 40.72013], [-73.96449, 40.72005], [-73.96561, 40.72075], [-73.96566, 40.72069], [-73.96514, 40.72032], [-73.9654, 40.71982], [-73.9654, 40.71955], [-73.96519, 40.71926], [-73.96587, 40.71857], [-73.96634, 40.71828], [-73.96675, 40.71776], [-73.96669, 40.71762], [-73.96727, 40.71699], [-73.96716, 40.71693], [-73.9672, 40.71645], [-73.96737, 40.71649], [-73.96884, 40.7132], [-73.96853, 40.7131], [-73.96849, 40.71292], [-73.9687, 40.71276], [-73.96929, 40.71118], [-73.96943, 40.71095], [-73.96977, 40.71078], [-73.96966, 40.71056], [-73.97002, 40.7105], [-73.96956, 40.7103], [-73.96994, 40.70926], [-73.96991, 40.70801], [-73.96929, 40.70701], [-73.96929, 40.70508], [-73.96747, 40.70394], [-73.96751, 40.70341], [-73.96763, 40.70333], [-73.97024, 40.70492], [-73.97017, 40.70564], [-73.97042, 40.70566], [-73.97026, 40.70692], [-73.97231, 40.70909], [-73.9728, 40.70885], [-73.97252, 40.70852], [-73.97278, 40.70839], [-73.97176, 40.70722], [-73.97147, 40.70738], [-73.97103, 40.70689], [-73.97112, 40.70586], [-73.97124, 40.70578], [-73.97423, 40.70799], [-73.97461, 40.70771], [-73.9726, 40.70622], [-73.9734, 40.70572], [-73.97454, 40.70629], [-73.9744, 40.70605], [-73.97111, 40.70364], [-73.97136, 40.70362], [-73.97122, 40.7035], [-73.97145, 40.70352], [-73.97218, 40.70398], [-73.97233, 40.70385], [-73.97201, 40.70364], [-73.97235, 40.70331], [-73.97267, 40.7035], [-73.97284, 40.70337], [-73.96949, 40.70048], [-73.96991, 40.70028], [-73.97285, 40.70272], [-73.97328, 40.70235], [-73.97081, 40.70012], [-73.97078, 40.69997], [-73.97096, 40.69986], [-73.97118, 40.69992], [-73.97319, 40.70167], [-73.9737, 40.70151], [-73.97239, 40.70018], [-73.97254, 40.70007], [-73.97284, 40.70024], [-73.9741, 40.70128], [-73.9744, 40.7011], [-73.97543, 40.69957], [-73.97571, 40.69954], [-73.97581, 40.69977], [-73.97456, 40.70158], [-73.97539, 40.70196], [-73.97576, 40.70165], [-73.97618, 40.7009], [-73.97651, 40.701], [-73.97582, 40.7019], [-73.97598, 40.70194], [-73.97532, 40.70298], [-73.97558, 40.70309], [-73.97618, 40.70217], [-73.97693, 40.70276], [-73.97602, 40.70458], [-73.9763, 40.70469], [-73.97715, 40.70301], [-73.97749, 40.70321], [-73.97722, 40.70422], [-73.97802, 40.70428], [-73.97859, 40.70498], [-73.97844, 40.70557], [-73.97865, 40.70559], [-73.9786, 40.70582], [-73.97875, 40.70548], [-73.97891, 40.70551], [-73.97889, 40.70586], [-73.97897, 40.70552], [-73.97926, 40.70555], [-73.97909, 40.70596], [-73.97921, 40.70597], [-73.9793, 40.70577], [-73.97958, 40.70573], [-73.981, 40.7059], [-73.98243, 40.70582], [-73.98249, 40.70552], [-73.98337, 40.70547], [-73.98344, 40.70564], [-73.9864, 40.70541], [-73.98647, 40.70467], [-73.98666, 40.70467], [-73.98672, 40.70506], [-73.987, 40.70516], [-73.98817, 40.70508], [-73.98833, 40.70464], [-73.98908, 40.70459], [-73.98925, 40.70494], [-73.98955, 40.70482], [-73.99024, 40.70494], [-73.99039, 40.70473], [-73.99037, 40.70449], [-73.99083, 40.70429], [-73.9909, 40.70399], [-73.99182, 40.7041], [-73.9921, 40.70442], [-73.99215, 40.70467], [-73.99415, 40.70451], [-73.99502, 40.70382], [-73.9949, 40.70376], [-73.99497, 40.70364], [-73.99467, 40.70345], [-73.99478, 40.70329], [-73.99531, 40.70356], [-73.99555, 40.70311], [-73.99622, 40.70337], [-73.99813, 40.70154], [-73.99681, 40.70096], [-73.99738, 40.69966], [-73.99952, 40.70033], [-73.99965, 40.70014], [-74.00002, 40.69948], [-73.9981, 40.69877], [-73.99784, 40.69924], [-73.99769, 40.6992], [-73.99777, 40.6989], [-73.99754, 40.6987], [-73.99795, 40.69876], [-73.99838, 40.69806], [-74.00047, 40.69878], [-74.00063, 40.69856], [-74.00102, 40.69792], [-73.99877, 40.69711], [-73.99884, 40.69691], [-73.9994, 40.69685], [-73.99955, 40.69662], [-73.99996, 40.69675], [-73.99999, 40.69664], [-73.99943, 40.69636], [-74.00027, 40.69496], [-74.00118, 40.69527], [-74.00106, 40.69551], [-74.00139, 40.69561], [-74.00152, 40.69539], [-74.00243, 40.6957], [-74.003, 40.69477], [-74.00098, 40.69405], [-74.00133, 40.69334], [-74.0034, 40.69406], [-74.00368, 40.69371]]}}, {"type": "Feature", "properties": {"OBJECTID": 512543, "gnis_name": null, "ftype": 566, "fcode": 56600, "source": "usgs_nhdplus_hr", "nhd_layer": "NonNetworkNHDFlowline", "hydro_role": "flowline", "proxy_note": "distance_to_water_proxy; LM is tidal river/shoreline-heavy, not inland streams"}, "geometry": {"type": "LineString", "coordinates": [[-74.01668, 40.69333], [-74.01535, 40.69305], [-74.0153, 40.69326], [-74.01513, 40.69324], [-74.01523, 40.69305], [-74.01499, 40.69318], [-74.01489, 40.69314], [-74.01501, 40.693], [-74.0142, 40.69282], [-74.01342, 40.69212], [-74.01248, 40.69231], [-74.01236, 40.6925], [-74.01208, 40.69256], [-74.01181, 40.69247], [-74.01173, 40.69225], [-74.01182, 40.69208], [-74.01216, 40.69199], [-74.01242, 40.69214], [-74.01328, 40.69199], [-74.01243, 40.69126], [-74.0124, 40.69108], [-74.01213, 40.69106], [-74.01213, 40.69071], [-74.01172, 40.69069], [-74.01174, 40.69038], [-74.01219, 40.6904], [-74.01226, 40.68929], [-74.01318, 40.68814], [-74.01483, 40.68726], [-74.016, 40.68731], [-74.01698, 40.68683], [-74.0166, 40.68633], [-74.01512, 40.68639], [-74.01512, 40.6863], [-74.01657, 40.68625], [-74.01746, 40.68527], [-74.01756, 40.68532], [-74.0167, 40.68627], [-74.0171, 40.68678], [-74.01754, 40.68661], [-74.02054, 40.68527], [-74.02018, 40.68473], [-74.01957, 40.68499], [-74.01953, 40.68488], [-74.02078, 40.68435], [-74.02086, 40.68444], [-74.0203, 40.68469], [-74.02067, 40.68517], [-74.02256, 40.68429], [-74.02214, 40.68368], [-74.02291, 40.68294], [-74.02301, 40.683], [-74.02227, 40.6837], [-74.02269, 40.68423], [-74.02379, 40.68387], [-74.02466, 40.68391], [-74.02578, 40.68428], [-74.02641, 40.68485], [-74.02658, 40.68545], [-74.02647, 40.68607], [-74.02021, 40.69198], [-74.01964, 40.6931], [-74.01668, 40.69333]]}}, {"type": "Feature", "properties": {"OBJECTID": 512548, "gnis_name": null, "ftype": 566, "fcode": 56600, "source": "usgs_nhdplus_hr", "nhd_layer": "NonNetworkNHDFlowline", "hydro_role": "flowline", "proxy_note": "distance_to_water_proxy; LM is tidal river/shoreline-heavy, not inland streams"}, "geometry": {"type": "LineString", "coordinates": [[-73.96468, 40.74638], [-73.9643, 40.74659], [-73.96407, 40.74705], [-73.96423, 40.74706], [-73.96451, 40.74678], [-73.96468, 40.74638]]}}, {"type": "Feature", "properties": {"OBJECTID": 512549, "gnis_name": null, "ftype": 566, "fcode": 56600, "source": "usgs_nhdplus_hr", "nhd_layer": "NonNetworkNHDFlowline", "hydro_role": "flowline", "proxy_note": "distance_to_water_proxy; LM is tidal river/shoreline-heavy, not inland streams"}, "geometry": {"type": "LineString", "coordinates": [[-73.94525, 40.7688], [-73.94544, 40.76872], [-73.94558, 40.7688], [-73.94563, 40.76872], [-73.94549, 40.76866], [-73.94562, 40.76842], [-73.94719, 40.7667], [-73.94905, 40.76431], [-73.9499, 40.76378], [-73.95057, 40.76306], [-73.95215, 40.76079], [-73.95296, 40.75997], [-73.95312, 40.76004], [-73.95339, 40.7598], [-73.95332, 40.75975], [-73.95521, 40.75779], [-73.95534, 40.75748], [-73.95847, 40.75397], [-73.95926, 40.75334], [-73.95984, 40.75204], [-73.96084, 40.751], [-73.96155, 40.74971], [-73.96133, 40.7496], [-73.96119, 40.74975], [-73.96094, 40.74976], [-73.95898, 40.7514], [-73.95795, 40.75207], [-73.95689, 40.75298], [-73.95528, 40.75472], [-73.95305, 40.75655], [-73.95234, 40.75741], [-73.95218, 40.75789], [-73.95181, 40.75841], [-73.94926, 40.76076], [-73.94488, 40.7658], [-73.94384, 40.76722], [-73.94251, 40.76853], [-73.94102, 40.76947], [-73.94021, 40.77086], [-73.94029, 40.77231], [-73.94003, 40.77274], [-73.94004, 40.77294], [-73.94032, 40.77293], [-73.94074, 40.77246], [-73.94218, 40.77205], [-73.94392, 40.77036], [-73.94476, 40.76977], [-73.94525, 40.7688]]}}, {"type": "Feature", "properties": {"OBJECTID": 512552, "gnis_name": null, "ftype": 566, "fcode": 56600, "source": "usgs_nhdplus_hr", "nhd_layer": "NonNetworkNHDFlowline", "hydro_role": "flowline", "proxy_note": "distance_to_water_proxy; LM is tidal river/shoreline-heavy, not inland streams"}, "geometry": {"type": "LineString", "coordinates": [[-73.938, 40.768786], [-73.93824, 40.76869], [-73.939, 40.76797], [-73.93936, 40.76816], [-73.93985, 40.76801], [-73.94125, 40.76702], [-73.94282, 40.76536], [-73.94454, 40.76308], [-73.94457, 40.76279], [-73.94482, 40.76281], [-73.94575, 40.7615], [-73.94591, 40.76145], [-73.94677, 40.76036], [-73.94663, 40.76029], [-73.94672, 40.76016], [-73.94685, 40.76019], [-73.95037, 40.75597], [-73.95051, 40.75555], [-73.95198, 40.7539], [-73.95223, 40.75375], [-73.95301, 40.75273], [-73.95453, 40.75121], [-73.95467, 40.75087], [-73.95454, 40.75066], [-73.95462, 40.75037], [-73.9551, 40.74964], [-73.95513, 40.74993], [-73.95535, 40.75004], [-73.95556, 40.74974], [-73.95602, 40.74986], [-73.95613, 40.7497], [-73.95587, 40.74962], [-73.95633, 40.74906], [-73.95482, 40.74847], [-73.95317, 40.74814], [-73.95323, 40.74776], [-73.95484, 40.74802], [-73.95708, 40.74892], [-73.95846, 40.74711], [-73.95834, 40.74708], [-73.95839, 40.74695], [-73.95873, 40.74666], [-73.95913, 40.74602], [-73.95848, 40.74579], [-73.959, 40.7458], [-73.95936, 40.74551], [-73.95925, 40.74529], [-73.95865, 40.74517], [-73.95863, 40.74504], [-73.95968, 40.74517], [-73.95872, 40.74497], [-73.95882, 40.74464], [-73.95947, 40.74466], [-73.95887, 40.74458], [-73.95893, 40.74446], [-73.95926, 40.74431], [-73.96013, 40.74444], [-73.95965, 40.74428], [-73.95971, 40.744], [-73.96065, 40.74414], [-73.96068, 40.74403], [-73.95974, 40.74387], [-73.95981, 40.74359], [-73.96069, 40.74344], [-73.96098, 40.74276], [-73.9611, 40.74279], [-73.96156, 40.74198], [-73.96114, 40.7418], [-73.96123, 40.74121], [-73.96176, 40.7411], [-73.96191, 40.74086], [-73.96131, 40.74046], [-73.9616, 40.74047], [-73.96149, 40.74035], [-73.96157, 40.74003], [-73.96217, 40.74001], [-73.96239, 40.73981], [-73.96268, 40.73888], [-73.96215, 40.73833], [-73.96069, 40.73812], [-73.9572, 40.73959], [-73.95374, 40.73977], [-73.95142, 40.73936], [-73.94715, 40.7379], [-73.94544, 40.73821], [-73.94363, 40.73892], [-73.94285, 40.73901], [-73.94277, 40.73924], [-73.94154, 40.73988], [-73.94104, 40.74052], [-73.94094, 40.74085], [-73.93969, 40.74264], [-73.93966, 40.74273], [-73.94012, 40.74284], [-73.94003, 40.7432], [-73.93914, 40.74305]]}}, {"type": "Feature", "properties": {"OBJECTID": 512554, "gnis_name": null, "ftype": 566, "fcode": 56600, "source": "usgs_nhdplus_hr", "nhd_layer": "NonNetworkNHDFlowline", "hydro_role": "flowline", "proxy_note": "distance_to_water_proxy; LM is tidal river/shoreline-heavy, not inland streams"}, "geometry": {"type": "LineString", "coordinates": [[-73.93914, 40.74305], [-73.93859, 40.74296], [-73.93867, 40.74253], [-73.93908, 40.7426], [-73.93955, 40.74181], [-73.94033, 40.74089], [-73.94054, 40.74027], [-73.94128, 40.73947], [-73.94186, 40.73914], [-73.94249, 40.73902], [-73.94282, 40.73875], [-73.946, 40.73755], [-73.94342, 40.73665], [-73.94161, 40.73584], [-73.94085, 40.73503], [-73.94008, 40.7338], [-73.94021, 40.73361], [-73.94017, 40.73344], [-73.93989, 40.7333], [-73.93909, 40.73135], [-73.93808, 40.73053], [-73.938, 40.73048549295775]]}}, {"type": "Feature", "properties": {"OBJECTID": 10013, "gnis_name": "Wallabout Channel", "ftype": 312, "fcode": 31200, "source": "usgs_nhdplus_hr", "nhd_layer": "NHDArea", "hydro_role": "water_area", "proxy_note": "distance_to_water_proxy; LM is tidal river/shoreline-heavy, not inland streams"}, "geometry": {"type": "Polygon", "coordinates": [[[-73.9723, 40.70908], [-73.96994, 40.70919], [-73.96991, 40.70801], [-73.96929, 40.70701], [-73.96929, 40.70508], [-73.96747, 40.70394], [-73.96751, 40.70341], [-73.96763, 40.70333], [-73.97024, 40.70492], [-73.97017, 40.70564], [-73.97042, 40.70566], [-73.97026, 40.70692], [-73.9704, 40.70711], [-73.9723, 40.70908]]]}}, {"type": "Feature", "properties": {"OBJECTID": 10364, "gnis_name": "Bushwick Inlet", "ftype": 312, "fcode": 31200, "source": "usgs_nhdplus_hr", "nhd_layer": "NHDArea", "hydro_role": "water_area", "proxy_note": "distance_to_water_proxy; LM is tidal river/shoreline-heavy, not inland streams"}, "geometry": {"type": "Polygon", "coordinates": [[[-73.96177, 40.72584], [-73.96025, 40.72593], [-73.96014, 40.72532], [-73.95847, 40.72538], [-73.95799, 40.72498], [-73.95794, 40.72465], [-73.95806, 40.72441], [-73.95824, 40.72439], [-73.96103, 40.72525], [-73.96197, 40.72527], [-73.96177, 40.72584]]]}}, {"type": "Feature", "properties": {"OBJECTID": 11988, "gnis_name": null, "ftype": 364, "fcode": 36400, "source": "usgs_nhdplus_hr", "nhd_layer": "NHDArea", "hydro_role": "water_area", "proxy_note": "distance_to_water_proxy; LM is tidal river/shoreline-heavy, not inland streams"}, "geometry": {"type": "Polygon", "coordinates": [[[-73.98772, 40.78271], [-73.98709, 40.78349], [-73.98684, 40.78422], [-73.9862, 40.78436], [-73.98773, 40.78215], [-73.98772, 40.78271]]]}}, {"type": "Feature", "properties": {"OBJECTID": 12013, "gnis_name": null, "ftype": 460, "fcode": 46006, "source": "usgs_nhdplus_hr", "nhd_layer": "NHDArea", "hydro_role": "water_area", "proxy_note": "distance_to_water_proxy; LM is tidal river/shoreline-heavy, not inland streams"}, "geometry": {"type": "MultiPolygon", "coordinates": [[[[-74.0307, 40.79596], [-74.03087, 40.79593], [-74.032, 40.796367542087545], [-74.032, 40.796509836065574], [-74.0307, 40.79596]]], [[[-74.03002, 40.79955], [-74.0297, 40.79952], [-74.02963, 40.79937], [-74.0298, 40.79932], [-74.032, 40.800211503267974], [-74.032, 40.80041987447699], [-74.03002, 40.79955]]], [[[-74.0318, 40.80184], [-74.03185, 40.80145], [-74.032, 40.80127980769232], [-74.032, 40.802], [-74.03161257142858, 40.802], [-74.0318, 40.80184]]]]}}, {"type": "Feature", "properties": {"OBJECTID": 1494, "gnis_name": null, "ftype": 436, "fcode": 43612, "source": "usgs_nhdplus_hr", "nhd_layer": "NHDWaterbody", "hydro_role": "waterbody", "proxy_note": "distance_to_water_proxy; LM is tidal river/shoreline-heavy, not inland streams"}, "geometry": {"type": "Polygon", "coordinates": [[[-73.94958, 40.73408], [-73.9489, 40.7341], [-73.94891, 40.73399], [-73.94961, 40.73394], [-73.94958, 40.73408]]]}}, {"type": "Feature", "properties": {"OBJECTID": 166164, "gnis_name": null, "ftype": 436, "fcode": 43612, "source": "usgs_nhdplus_hr", "nhd_layer": "NHDWaterbody", "hydro_role": "waterbody", "proxy_note": "distance_to_water_proxy; LM is tidal river/shoreline-heavy, not inland streams"}, "geometry": {"type": "Polygon", "coordinates": [[[-73.94927, 40.73175], [-73.94855, 40.73177], [-73.94926, 40.73163], [-73.94927, 40.73175]]]}}, {"type": "Feature", "properties": {"OBJECTID": 166167, "gnis_name": null, "ftype": 436, "fcode": 43612, "source": "usgs_nhdplus_hr", "nhd_layer": "NHDWaterbody", "hydro_role": "waterbody", "proxy_note": "distance_to_water_proxy; LM is tidal river/shoreline-heavy, not inland streams"}, "geometry": {"type": "Polygon", "coordinates": [[[-73.94778, 40.73189], [-73.94697, 40.73196], [-73.94693, 40.73187], [-73.94777, 40.73177], [-73.94778, 40.73189]]]}}, {"type": "Feature", "properties": {"OBJECTID": 166283, "gnis_name": null, "ftype": 436, "fcode": 43612, "source": "usgs_nhdplus_hr", "nhd_layer": "NHDWaterbody", "hydro_role": "waterbody", "proxy_note": "distance_to_water_proxy; LM is tidal river/shoreline-heavy, not inland streams"}, "geometry": {"type": "Polygon", "coordinates": [[[-73.94785, 40.73236], [-73.94703, 40.73243], [-73.94704, 40.73232], [-73.94783, 40.73224], [-73.94785, 40.73236]]]}}, {"type": "Feature", "properties": {"OBJECTID": 220808, "gnis_name": null, "ftype": 436, "fcode": 43612, "source": "usgs_nhdplus_hr", "nhd_layer": "NHDWaterbody", "hydro_role": "waterbody", "proxy_note": "distance_to_water_proxy; LM is tidal river/shoreline-heavy, not inland streams"}, "geometry": {"type": "Polygon", "coordinates": [[[-73.94935, 40.73211], [-73.94859, 40.73212], [-73.94933, 40.73197], [-73.94935, 40.73211]]]}}, {"type": "Feature", "properties": {"OBJECTID": 221009, "gnis_name": null, "ftype": 436, "fcode": 43612, "source": "usgs_nhdplus_hr", "nhd_layer": "NHDWaterbody", "hydro_role": "waterbody", "proxy_note": "distance_to_water_proxy; LM is tidal river/shoreline-heavy, not inland streams"}, "geometry": {"type": "Polygon", "coordinates": [[[-73.94961, 40.73394], [-73.94891, 40.73399], [-73.94888, 40.73383], [-73.94959, 40.73377], [-73.94961, 40.73394]]]}}, {"type": "Feature", "properties": {"OBJECTID": 386318, "gnis_name": null, "ftype": 436, "fcode": 43612, "source": "usgs_nhdplus_hr", "nhd_layer": "NHDWaterbody", "hydro_role": "waterbody", "proxy_note": "distance_to_water_proxy; LM is tidal river/shoreline-heavy, not inland streams"}, "geometry": {"type": "Polygon", "coordinates": [[[-73.94883, 40.73415], [-73.9486, 40.73417], [-73.94815, 40.73421], [-73.94812, 40.73407], [-73.9488, 40.734], [-73.94883, 40.73415]]]}}, {"type": "Feature", "properties": {"OBJECTID": 550752, "gnis_name": null, "ftype": 436, "fcode": 43612, "source": "usgs_nhdplus_hr", "nhd_layer": "NHDWaterbody", "hydro_role": "waterbody", "proxy_note": "distance_to_water_proxy; LM is tidal river/shoreline-heavy, not inland streams"}, "geometry": {"type": "Polygon", "coordinates": [[[-73.94937, 40.73232], [-73.94863, 40.73236], [-73.94935, 40.73222], [-73.94937, 40.73232]]]}}, {"type": "Feature", "properties": {"OBJECTID": 550846, "gnis_name": null, "ftype": 390, "fcode": 39004, "source": "usgs_nhdplus_hr", "nhd_layer": "NHDWaterbody", "hydro_role": "waterbody", "proxy_note": "distance_to_water_proxy; LM is tidal river/shoreline-heavy, not inland streams"}, "geometry": {"type": "Polygon", "coordinates": [[[-73.98088, 40.71959], [-73.98081, 40.7198], [-73.98031, 40.71966], [-73.98046, 40.71946], [-73.98088, 40.71959]]]}}, {"type": "Feature", "properties": {"OBJECTID": 715591, "gnis_name": null, "ftype": 436, "fcode": 43612, "source": "usgs_nhdplus_hr", "nhd_layer": "NHDWaterbody", "hydro_role": "waterbody", "proxy_note": "distance_to_water_proxy; LM is tidal river/shoreline-heavy, not inland streams"}, "geometry": {"type": "Polygon", "coordinates": [[[-73.94869, 40.73322], [-73.94802, 40.73331], [-73.94799, 40.73314], [-73.94867, 40.73308], [-73.94869, 40.73322]]]}}, {"type": "Feature", "properties": {"OBJECTID": 715845, "gnis_name": null, "ftype": 436, "fcode": 43612, "source": "usgs_nhdplus_hr", "nhd_layer": "NHDWaterbody", "hydro_role": "waterbody", "proxy_note": "distance_to_water_proxy; LM is tidal river/shoreline-heavy, not inland streams"}, "geometry": {"type": "Polygon", "coordinates": [[[-73.9481, 40.7339], [-73.94727, 40.73395], [-73.94727, 40.73382], [-73.94808, 40.73375], [-73.9481, 40.7339]]]}}, {"type": "Feature", "properties": {"OBJECTID": 825653, "gnis_name": "Jacqueline Kennedy Onassis Reservoir", "ftype": 436, "fcode": 43613, "source": "usgs_nhdplus_hr", "nhd_layer": "NHDWaterbody", "hydro_role": "waterbody", "proxy_note": "distance_to_water_proxy; LM is tidal river/shoreline-heavy, not inland streams"}, "geometry": {"type": "Polygon", "coordinates": [[[-73.96302, 40.78264], [-73.96354, 40.78355], [-73.96399, 40.78387], [-73.966, 40.7846], [-73.96664, 40.7851], [-73.96609, 40.78756], [-73.9655, 40.78808], [-73.96514, 40.78822], [-73.96463, 40.78833], [-73.96246, 40.78827], [-73.96144, 40.78885], [-73.96111, 40.78891], [-73.95967, 40.78863], [-73.95905, 40.78865], [-73.95832, 40.78893], [-73.95786, 40.78889], [-73.95763, 40.78874], [-73.95748, 40.78829], [-73.95782, 40.78727], [-73.95782, 40.78656], [-73.96087, 40.78236], [-73.96155, 40.78205], [-73.96201, 40.78203], [-73.96255, 40.78221], [-73.96302, 40.78264]]]}}, {"type": "Feature", "properties": {"OBJECTID": 880660, "gnis_name": null, "ftype": 390, "fcode": 39004, "source": "usgs_nhdplus_hr", "nhd_layer": "NHDWaterbody", "hydro_role": "waterbody", "proxy_note": "distance_to_water_proxy; LM is tidal river/shoreline-heavy, not inland streams"}, "geometry": {"type": "Polygon", "coordinates": [[[-73.99351, 40.70449], [-73.99333, 40.70452], [-73.99323, 40.70432], [-73.9934, 40.70427], [-73.99351, 40.70449]]]}}, {"type": "Feature", "properties": {"OBJECTID": 1430620, "gnis_name": null, "ftype": 436, "fcode": 43612, "source": "usgs_nhdplus_hr", "nhd_layer": "NHDWaterbody", "hydro_role": "waterbody", "proxy_note": "distance_to_water_proxy; LM is tidal river/shoreline-heavy, not inland streams"}, "geometry": {"type": "Polygon", "coordinates": [[[-73.94812, 40.73407], [-73.94731, 40.73412], [-73.94727, 40.734], [-73.9481, 40.7339], [-73.94812, 40.73407]]]}}, {"type": "Feature", "properties": {"OBJECTID": 1430624, "gnis_name": null, "ftype": 436, "fcode": 43612, "source": "usgs_nhdplus_hr", "nhd_layer": "NHDWaterbody", "hydro_role": "waterbody", "proxy_note": "distance_to_water_proxy; LM is tidal river/shoreline-heavy, not inland streams"}, "geometry": {"type": "Polygon", "coordinates": [[[-73.94954, 40.73348], [-73.94883, 40.73351], [-73.9488, 40.73341], [-73.94952, 40.7333], [-73.94954, 40.73348]]]}}, {"type": "Feature", "properties": {"OBJECTID": 1650489, "gnis_name": null, "ftype": 436, "fcode": 43612, "source": "usgs_nhdplus_hr", "nhd_layer": "NHDWaterbody", "hydro_role": "waterbody", "proxy_note": "distance_to_water_proxy; LM is tidal river/shoreline-heavy, not inland streams"}, "geometry": {"type": "Polygon", "coordinates": [[[-73.94784, 40.73259], [-73.94706, 40.73265], [-73.94706, 40.73253], [-73.94786, 40.73246], [-73.94784, 40.73259]]]}}, {"type": "Feature", "properties": {"OBJECTID": 1650631, "gnis_name": null, "ftype": 436, "fcode": 43612, "source": "usgs_nhdplus_hr", "nhd_layer": "NHDWaterbody", "hydro_role": "waterbody", "proxy_note": "distance_to_water_proxy; LM is tidal river/shoreline-heavy, not inland streams"}, "geometry": {"type": "Polygon", "coordinates": [[[-73.94846, 40.73194], [-73.94778, 40.73196], [-73.94844, 40.73183], [-73.94846, 40.73194]]]}}, {"type": "Feature", "properties": {"OBJECTID": 1705801, "gnis_name": null, "ftype": 390, "fcode": 39004, "source": "usgs_nhdplus_hr", "nhd_layer": "NHDWaterbody", "hydro_role": "waterbody", "proxy_note": "distance_to_water_proxy; LM is tidal river/shoreline-heavy, not inland streams"}, "geometry": {"type": "Polygon", "coordinates": [[[-73.99355, 40.71821], [-73.99333, 40.71864], [-73.99306, 40.71858], [-73.99332, 40.71813], [-73.99355, 40.71821]]]}}, {"type": "Feature", "properties": {"OBJECTID": 1760650, "gnis_name": null, "ftype": 390, "fcode": 39004, "source": "usgs_nhdplus_hr", "nhd_layer": "NHDWaterbody", "hydro_role": "waterbody", "proxy_note": "distance_to_water_proxy; LM is tidal river/shoreline-heavy, not inland streams"}, "geometry": {"type": "Polygon", "coordinates": [[[-73.96775, 40.77911], [-73.96823, 40.77949], [-73.96881, 40.77944], [-73.96878, 40.77976], [-73.96916, 40.77995], [-73.96838, 40.78015], [-73.96765, 40.7797], [-73.9669, 40.77951], [-73.96681, 40.7793], [-73.96715, 40.77892], [-73.96736, 40.77903], [-73.96775, 40.77911]]]}}, {"type": "Feature", "properties": {"OBJECTID": 1870420, "gnis_name": null, "ftype": 436, "fcode": 43612, "source": "usgs_nhdplus_hr", "nhd_layer": "NHDWaterbody", "hydro_role": "waterbody", "proxy_note": "distance_to_water_proxy; LM is tidal river/shoreline-heavy, not inland streams"}, "geometry": {"type": "Polygon", "coordinates": [[[-73.9485, 40.73218], [-73.94783, 40.73224], [-73.94779, 40.7321], [-73.94849, 40.73205], [-73.9485, 40.73218]]]}}, {"type": "Feature", "properties": {"OBJECTID": 1925103, "gnis_name": null, "ftype": 436, "fcode": 43612, "source": "usgs_nhdplus_hr", "nhd_layer": "NHDWaterbody", "hydro_role": "waterbody", "proxy_note": "distance_to_water_proxy; LM is tidal river/shoreline-heavy, not inland streams"}, "geometry": {"type": "Polygon", "coordinates": [[[-73.94875, 40.73369], [-73.94808, 40.73375], [-73.94806, 40.7336], [-73.94873, 40.73353], [-73.94875, 40.73369]]]}}, {"type": "Feature", "properties": {"OBJECTID": 2144548, "gnis_name": null, "ftype": 436, "fcode": 43612, "source": "usgs_nhdplus_hr", "nhd_layer": "NHDWaterbody", "hydro_role": "waterbody", "proxy_note": "distance_to_water_proxy; LM is tidal river/shoreline-heavy, not inland streams"}, "geometry": {"type": "Polygon", "coordinates": [[[-73.94938, 40.73222], [-73.94862, 40.73224], [-73.94935, 40.73211], [-73.94938, 40.73222]]]}}, {"type": "Feature", "properties": {"OBJECTID": 2144554, "gnis_name": null, "ftype": 436, "fcode": 43612, "source": "usgs_nhdplus_hr", "nhd_layer": "NHDWaterbody", "hydro_role": "waterbody", "proxy_note": "distance_to_water_proxy; LM is tidal river/shoreline-heavy, not inland streams"}, "geometry": {"type": "Polygon", "coordinates": [[[-73.94806, 40.7336], [-73.94724, 40.73366], [-73.94719, 40.7335], [-73.94804, 40.73343], [-73.94806, 40.7336]]]}}, {"type": "Feature", "properties": {"OBJECTID": 2199432, "gnis_name": "The Pool", "ftype": 390, "fcode": 39004, "source": "usgs_nhdplus_hr", "nhd_layer": "NHDWaterbody", "hydro_role": "waterbody", "proxy_note": "distance_to_water_proxy; LM is tidal river/shoreline-heavy, not inland streams"}, "geometry": {"type": "Polygon", "coordinates": [[[-73.96114, 40.79434], [-73.96122, 40.79454], [-73.96174, 40.79473], [-73.96158, 40.79498], [-73.96127, 40.79478], [-73.96077, 40.79495], [-73.96004, 40.79487], [-73.9597, 40.79467], [-73.96088, 40.79446], [-73.96114, 40.79434]], [[-73.96075, 40.79484], [-73.96092, 40.79477], [-73.96075, 40.79475], [-73.96075, 40.79484]]]}}, {"type": "Feature", "properties": {"OBJECTID": 2199537, "gnis_name": null, "ftype": 436, "fcode": 43612, "source": "usgs_nhdplus_hr", "nhd_layer": "NHDWaterbody", "hydro_role": "waterbody", "proxy_note": "distance_to_water_proxy; LM is tidal river/shoreline-heavy, not inland streams"}, "geometry": {"type": "Polygon", "coordinates": [[[-73.9488, 40.734], [-73.94812, 40.73407], [-73.9481, 40.7339], [-73.94877, 40.73384], [-73.9488, 40.734]]]}}, {"type": "Feature", "properties": {"OBJECTID": 2583928, "gnis_name": null, "ftype": 436, "fcode": 43612, "source": "usgs_nhdplus_hr", "nhd_layer": "NHDWaterbody", "hydro_role": "waterbody", "proxy_note": "distance_to_water_proxy; LM is tidal river/shoreline-heavy, not inland streams"}, "geometry": {"type": "Polygon", "coordinates": [[[-73.94852, 40.73229], [-73.94784, 40.73234], [-73.94783, 40.73224], [-73.9485, 40.73218], [-73.94852, 40.73229]]]}}, {"type": "Feature", "properties": {"OBJECTID": 2748646, "gnis_name": null, "ftype": 436, "fcode": 43612, "source": "usgs_nhdplus_hr", "nhd_layer": "NHDWaterbody", "hydro_role": "waterbody", "proxy_note": "distance_to_water_proxy; LM is tidal river/shoreline-heavy, not inland streams"}, "geometry": {"type": "Polygon", "coordinates": [[[-73.94854, 40.73239], [-73.94786, 40.73246], [-73.94785, 40.73236], [-73.94852, 40.73229], [-73.94854, 40.73239]]]}}, {"type": "Feature", "properties": {"OBJECTID": 2858029, "gnis_name": null, "ftype": 390, "fcode": 39004, "source": "usgs_nhdplus_hr", "nhd_layer": "NHDWaterbody", "hydro_role": "waterbody", "proxy_note": "distance_to_water_proxy; LM is tidal river/shoreline-heavy, not inland streams"}, "geometry": {"type": "Polygon", "coordinates": [[[-73.94449, 40.70909], [-73.94424, 40.70904], [-73.94451, 40.70895], [-73.94449, 40.70909]]]}}, {"type": "Feature", "properties": {"OBJECTID": 2858037, "gnis_name": null, "ftype": 436, "fcode": 43612, "source": "usgs_nhdplus_hr", "nhd_layer": "NHDWaterbody", "hydro_role": "waterbody", "proxy_note": "distance_to_water_proxy; LM is tidal river/shoreline-heavy, not inland streams"}, "geometry": {"type": "Polygon", "coordinates": [[[-73.94799, 40.73314], [-73.94788, 40.73316], [-73.94717, 40.7332], [-73.94714, 40.73309], [-73.94797, 40.73299], [-73.94799, 40.73314]]]}}, {"type": "Feature", "properties": {"OBJECTID": 2912964, "gnis_name": null, "ftype": 436, "fcode": 43612, "source": "usgs_nhdplus_hr", "nhd_layer": "NHDWaterbody", "hydro_role": "waterbody", "proxy_note": "distance_to_water_proxy; LM is tidal river/shoreline-heavy, not inland streams"}, "geometry": {"type": "Polygon", "coordinates": [[[-73.94956, 40.73361], [-73.94885, 40.73367], [-73.94882, 40.73351], [-73.94954, 40.73348], [-73.94956, 40.73361]]]}}, {"type": "Feature", "properties": {"OBJECTID": 3516557, "gnis_name": null, "ftype": 436, "fcode": 43612, "source": "usgs_nhdplus_hr", "nhd_layer": "NHDWaterbody", "hydro_role": "waterbody", "proxy_note": "distance_to_water_proxy; LM is tidal river/shoreline-heavy, not inland streams"}, "geometry": {"type": "Polygon", "coordinates": [[[-73.94783, 40.73224], [-73.94701, 40.73228], [-73.94701, 40.73218], [-73.94779, 40.7321], [-73.94783, 40.73224]]]}}, {"type": "Feature", "properties": {"OBJECTID": 3681301, "gnis_name": null, "ftype": 436, "fcode": 43612, "source": "usgs_nhdplus_hr", "nhd_layer": "NHDWaterbody", "hydro_role": "waterbody", "proxy_note": "distance_to_water_proxy; LM is tidal river/shoreline-heavy, not inland streams"}, "geometry": {"type": "Polygon", "coordinates": [[[-73.94802, 40.73331], [-73.94719, 40.73337], [-73.94716, 40.73325], [-73.94799, 40.73314], [-73.94802, 40.73331]]]}}, {"type": "Feature", "properties": {"OBJECTID": 3681489, "gnis_name": null, "ftype": 436, "fcode": 43612, "source": "usgs_nhdplus_hr", "nhd_layer": "NHDWaterbody", "hydro_role": "waterbody", "proxy_note": "distance_to_water_proxy; LM is tidal river/shoreline-heavy, not inland streams"}, "geometry": {"type": "Polygon", "coordinates": [[[-73.94808, 40.73375], [-73.94725, 40.73382], [-73.94724, 40.73366], [-73.94806, 40.7336], [-73.94808, 40.73375]]]}}, {"type": "Feature", "properties": {"OBJECTID": 3681650, "gnis_name": null, "ftype": 390, "fcode": 39004, "source": "usgs_nhdplus_hr", "nhd_layer": "NHDWaterbody", "hydro_role": "waterbody", "proxy_note": "distance_to_water_proxy; LM is tidal river/shoreline-heavy, not inland streams"}, "geometry": {"type": "Polygon", "coordinates": [[[-73.95061, 40.69562], [-73.95034, 40.69564], [-73.95032, 40.69552], [-73.95055, 40.69549], [-73.95061, 40.69562]]]}}, {"type": "Feature", "properties": {"OBJECTID": 3956912, "gnis_name": null, "ftype": 436, "fcode": 43612, "source": "usgs_nhdplus_hr", "nhd_layer": "NHDWaterbody", "hydro_role": "waterbody", "proxy_note": "distance_to_water_proxy; LM is tidal river/shoreline-heavy, not inland streams"}, "geometry": {"type": "Polygon", "coordinates": [[[-73.94952, 40.7333], [-73.94878, 40.73328], [-73.9495, 40.73317], [-73.94952, 40.7333]]]}}, {"type": "Feature", "properties": {"OBJECTID": 4011904, "gnis_name": "The Pond", "ftype": 390, "fcode": 39004, "source": "usgs_nhdplus_hr", "nhd_layer": "NHDWaterbody", "hydro_role": "waterbody", "proxy_note": "distance_to_water_proxy; LM is tidal river/shoreline-heavy, not inland streams"}, "geometry": {"type": "Polygon", "coordinates": [[[-73.97433, 40.7652], [-73.97446, 40.76548], [-73.97527, 40.76559], [-73.97581, 40.76597], [-73.97579, 40.76646], [-73.97563, 40.76673], [-73.97569, 40.76645], [-73.97557, 40.76607], [-73.97532, 40.76612], [-73.97492, 40.76584], [-73.97438, 40.7659], [-73.97439, 40.76656], [-73.97403, 40.7667], [-73.97391, 40.76689], [-73.97435, 40.76748], [-73.97424, 40.76755], [-73.97356, 40.76675], [-73.97358, 40.76659], [-73.97379, 40.76649], [-73.97366, 40.7664], [-73.97383, 40.76583], [-73.97376, 40.76539], [-73.97401, 40.76548], [-73.97413, 40.76532], [-73.97433, 40.7652]]]}}, {"type": "Feature", "properties": {"OBJECTID": 4176890, "gnis_name": null, "ftype": 436, "fcode": 43612, "source": "usgs_nhdplus_hr", "nhd_layer": "NHDWaterbody", "hydro_role": "waterbody", "proxy_note": "distance_to_water_proxy; LM is tidal river/shoreline-heavy, not inland streams"}, "geometry": {"type": "Polygon", "coordinates": [[[-73.94959, 40.73377], [-73.94887, 40.73383], [-73.94885, 40.73367], [-73.94956, 40.73361], [-73.94959, 40.73377]]]}}, {"type": "Feature", "properties": {"OBJECTID": 4286839, "gnis_name": null, "ftype": 436, "fcode": 43612, "source": "usgs_nhdplus_hr", "nhd_layer": "NHDWaterbody", "hydro_role": "waterbody", "proxy_note": "distance_to_water_proxy; LM is tidal river/shoreline-heavy, not inland streams"}, "geometry": {"type": "Polygon", "coordinates": [[[-73.94842, 40.73158], [-73.94844, 40.73172], [-73.94777, 40.73177], [-73.94774, 40.73165], [-73.94842, 40.73158]]]}}, {"type": "Feature", "properties": {"OBJECTID": 4506965, "gnis_name": null, "ftype": 436, "fcode": 43612, "source": "usgs_nhdplus_hr", "nhd_layer": "NHDWaterbody", "hydro_role": "waterbody", "proxy_note": "distance_to_water_proxy; LM is tidal river/shoreline-heavy, not inland streams"}, "geometry": {"type": "Polygon", "coordinates": [[[-73.94786, 40.73246], [-73.94703, 40.73246], [-73.94785, 40.73236], [-73.94786, 40.73246]]]}}, {"type": "Feature", "properties": {"OBJECTID": 4561569, "gnis_name": null, "ftype": 436, "fcode": 43612, "source": "usgs_nhdplus_hr", "nhd_layer": "NHDWaterbody", "hydro_role": "waterbody", "proxy_note": "distance_to_water_proxy; LM is tidal river/shoreline-heavy, not inland streams"}, "geometry": {"type": "Polygon", "coordinates": [[[-73.94771, 40.73214], [-73.94698, 40.73214], [-73.94779, 40.732], [-73.94771, 40.73214]]]}}, {"type": "Feature", "properties": {"OBJECTID": 4561726, "gnis_name": null, "ftype": 436, "fcode": 43612, "source": "usgs_nhdplus_hr", "nhd_layer": "NHDWaterbody", "hydro_role": "waterbody", "proxy_note": "distance_to_water_proxy; LM is tidal river/shoreline-heavy, not inland streams"}, "geometry": {"type": "Polygon", "coordinates": [[[-73.94939, 40.73242], [-73.94873, 40.73251], [-73.94865, 40.73238], [-73.94937, 40.73232], [-73.94939, 40.73242]]]}}, {"type": "Feature", "properties": {"OBJECTID": 4671443, "gnis_name": null, "ftype": 436, "fcode": 43612, "source": "usgs_nhdplus_hr", "nhd_layer": "NHDWaterbody", "hydro_role": "waterbody", "proxy_note": "distance_to_water_proxy; LM is tidal river/shoreline-heavy, not inland streams"}, "geometry": {"type": "Polygon", "coordinates": [[[-73.9495, 40.73317], [-73.94878, 40.73318], [-73.94878, 40.73307], [-73.94948, 40.73302], [-73.9495, 40.73317]]]}}, {"type": "Feature", "properties": {"OBJECTID": 4781377, "gnis_name": null, "ftype": 436, "fcode": 43612, "source": "usgs_nhdplus_hr", "nhd_layer": "NHDWaterbody", "hydro_role": "waterbody", "proxy_note": "distance_to_water_proxy; LM is tidal river/shoreline-heavy, not inland streams"}, "geometry": {"type": "Polygon", "coordinates": [[[-73.94933, 40.73197], [-73.94859, 40.732], [-73.94931, 40.73187], [-73.94933, 40.73197]]]}}, {"type": "Feature", "properties": {"OBJECTID": 4781577, "gnis_name": "Hackensack Reservoir Number Two", "ftype": 436, "fcode": 43613, "source": "usgs_nhdplus_hr", "nhd_layer": "NHDWaterbody", "hydro_role": "waterbody", "proxy_note": "distance_to_water_proxy; LM is tidal river/shoreline-heavy, not inland streams"}, "geometry": {"type": "Polygon", "coordinates": [[[-74.02878, 40.76252], [-74.029, 40.76252], [-74.03138, 40.76367], [-74.03058, 40.76503], [-74.02944, 40.76472], [-74.02927, 40.76454], [-74.02805, 40.76408], [-74.02865, 40.7627], [-74.02878, 40.76252]]]}}, {"type": "Feature", "properties": {"OBJECTID": 5055933, "gnis_name": null, "ftype": 436, "fcode": 43612, "source": "usgs_nhdplus_hr", "nhd_layer": "NHDWaterbody", "hydro_role": "waterbody", "proxy_note": "distance_to_water_proxy; LM is tidal river/shoreline-heavy, not inland streams"}, "geometry": {"type": "Polygon", "coordinates": [[[-73.94873, 40.73353], [-73.94806, 40.7336], [-73.94805, 40.73343], [-73.94871, 40.73337], [-73.94873, 40.73353]]]}}, {"type": "Feature", "properties": {"OBJECTID": 5056010, "gnis_name": null, "ftype": 436, "fcode": 43612, "source": "usgs_nhdplus_hr", "nhd_layer": "NHDWaterbody", "hydro_role": "waterbody", "proxy_note": "distance_to_water_proxy; LM is tidal river/shoreline-heavy, not inland streams"}, "geometry": {"type": "Polygon", "coordinates": [[[-73.94877, 40.73384], [-73.9481, 40.7339], [-73.94808, 40.73375], [-73.94875, 40.73369], [-73.94877, 40.73384]]]}}, {"type": "Feature", "properties": {"OBJECTID": 5110647, "gnis_name": null, "ftype": 436, "fcode": 43612, "source": "usgs_nhdplus_hr", "nhd_layer": "NHDWaterbody", "hydro_role": "waterbody", "proxy_note": "distance_to_water_proxy; LM is tidal river/shoreline-heavy, not inland streams"}, "geometry": {"type": "Polygon", "coordinates": [[[-73.94815, 40.73421], [-73.94732, 40.73428], [-73.94731, 40.73412], [-73.94812, 40.73407], [-73.94815, 40.73421]]]}}, {"type": "Feature", "properties": {"OBJECTID": 5110712, "gnis_name": null, "ftype": 436, "fcode": 43612, "source": "usgs_nhdplus_hr", "nhd_layer": "NHDWaterbody", "hydro_role": "waterbody", "proxy_note": "distance_to_water_proxy; LM is tidal river/shoreline-heavy, not inland streams"}, "geometry": {"type": "Polygon", "coordinates": [[[-73.94804, 40.73343], [-73.94719, 40.7335], [-73.9472, 40.73336], [-73.94802, 40.73331], [-73.94804, 40.73343]]]}}, {"type": "Feature", "properties": {"OBJECTID": 5165452, "gnis_name": "Harlem Meer", "ftype": 390, "fcode": 39004, "source": "usgs_nhdplus_hr", "nhd_layer": "NHDWaterbody", "hydro_role": "waterbody", "proxy_note": "distance_to_water_proxy; LM is tidal river/shoreline-heavy, not inland streams"}, "geometry": {"type": "Polygon", "coordinates": [[[-73.95083, 40.79566], [-73.95091, 40.79537], [-73.9515, 40.79474], [-73.95176, 40.79462], [-73.95186, 40.79477], [-73.95154, 40.79533], [-73.95189, 40.79577], [-73.95192, 40.79633], [-73.95223, 40.79637], [-73.95219, 40.7969], [-73.9527, 40.79699], [-73.95384, 40.79676], [-73.95421, 40.79695], [-73.95422, 40.79707], [-73.9539, 40.79761], [-73.95328, 40.79774], [-73.95282, 40.79768], [-73.95166, 40.79709], [-73.95028, 40.79684], [-73.95016, 40.79657], [-73.95026, 40.7964], [-73.95083, 40.79566]]]}}, {"type": "Feature", "properties": {"OBJECTID": 5165571, "gnis_name": null, "ftype": 390, "fcode": 39004, "source": "usgs_nhdplus_hr", "nhd_layer": "NHDWaterbody", "hydro_role": "waterbody", "proxy_note": "distance_to_water_proxy; LM is tidal river/shoreline-heavy, not inland streams"}, "geometry": {"type": "Polygon", "coordinates": [[[-73.98162, 40.72704], [-73.98146, 40.72725], [-73.98124, 40.72717], [-73.98144, 40.72695], [-73.98162, 40.72704]]]}}, {"type": "Feature", "properties": {"OBJECTID": 5276234, "gnis_name": null, "ftype": 436, "fcode": 43612, "source": "usgs_nhdplus_hr", "nhd_layer": "NHDWaterbody", "hydro_role": "waterbody", "proxy_note": "distance_to_water_proxy; LM is tidal river/shoreline-heavy, not inland streams"}, "geometry": {"type": "Polygon", "coordinates": [[[-73.94852, 40.73253], [-73.94786, 40.73258], [-73.94786, 40.73246], [-73.94854, 40.73239], [-73.94852, 40.73253]]]}}, {"type": "Feature", "properties": {"OBJECTID": 5495479, "gnis_name": null, "ftype": 436, "fcode": 43612, "source": "usgs_nhdplus_hr", "nhd_layer": "NHDWaterbody", "hydro_role": "waterbody", "proxy_note": "distance_to_water_proxy; LM is tidal river/shoreline-heavy, not inland streams"}, "geometry": {"type": "Polygon", "coordinates": [[[-73.94857, 40.73171], [-73.94853, 40.73157], [-73.94925, 40.73149], [-73.94926, 40.73163], [-73.94857, 40.73171]]]}}, {"type": "Feature", "properties": {"OBJECTID": 5495862, "gnis_name": "The Lake", "ftype": 390, "fcode": 39004, "source": "usgs_nhdplus_hr", "nhd_layer": "NHDWaterbody", "hydro_role": "waterbody", "proxy_note": "distance_to_water_proxy; LM is tidal river/shoreline-heavy, not inland streams"}, "geometry": {"type": "Polygon", "coordinates": [[[-73.97362, 40.77465], [-73.97371, 40.7753], [-73.97352, 40.77585], [-73.97389, 40.77682], [-73.9738, 40.77729], [-73.97328, 40.77778], [-73.97295, 40.77734], [-73.97264, 40.77743], [-73.97261, 40.77772], [-73.97281, 40.77779], [-73.97274, 40.77819], [-73.97233, 40.77854], [-73.97211, 40.77839], [-73.97164, 40.77895], [-73.97121, 40.77926], [-73.97133, 40.77886], [-73.9718, 40.77858], [-73.97199, 40.77798], [-73.97181, 40.77779], [-73.97143, 40.7781], [-73.97167, 40.7776], [-73.97128, 40.77741], [-73.97169, 40.77721], [-73.97191, 40.77653], [-73.97217, 40.77624], [-73.97205, 40.77584], [-73.97144, 40.77592], [-73.97052, 40.77572], [-73.97037, 40.77599], [-73.96973, 40.77614], [-73.97003, 40.77589], [-73.97016, 40.77547], [-73.97037, 40.77536], [-73.97061, 40.77498], [-73.9702, 40.77493], [-73.96959, 40.77543], [-73.969, 40.77549], [-73.96886, 40.77518], [-73.96918, 40.77488], [-73.97012, 40.77463], [-73.9705, 40.77437], [-73.971, 40.77452], [-73.97111, 40.77479], [-73.97101, 40.77525], [-73.97151, 40.77567], [-73.97329, 40.7753], [-73.97331, 40.77495], [-73.97321, 40.77483], [-73.97336, 40.77473], [-73.97336, 40.77437], [-73.97362, 40.77465]], [[-73.96912, 40.77527], [-73.96961, 40.77525], [-73.96962, 40.7751], [-73.96912, 40.77527]], [[-73.97228, 40.77611], [-73.97251, 40.77606], [-73.9723, 40.77588], [-73.97228, 40.77611]]]}}, {"type": "Feature", "properties": {"OBJECTID": 5550110, "gnis_name": null, "ftype": 390, "fcode": 39004, "source": "usgs_nhdplus_hr", "nhd_layer": "NHDWaterbody", "hydro_role": "waterbody", "proxy_note": "distance_to_water_proxy; LM is tidal river/shoreline-heavy, not inland streams"}, "geometry": {"type": "Polygon", "coordinates": [[[-73.95757, 40.79467], [-73.95676, 40.79522], [-73.95614, 40.79543], [-73.95622, 40.79524], [-73.95746, 40.79464], [-73.95779, 40.79433], [-73.95757, 40.79467]]]}}, {"type": "Feature", "properties": {"OBJECTID": 5550310, "gnis_name": null, "ftype": 436, "fcode": 43612, "source": "usgs_nhdplus_hr", "nhd_layer": "NHDWaterbody", "hydro_role": "waterbody", "proxy_note": "distance_to_water_proxy; LM is tidal river/shoreline-heavy, not inland streams"}, "geometry": {"type": "Polygon", "coordinates": [[[-73.94849, 40.73205], [-73.94779, 40.7321], [-73.94779, 40.732], [-73.94846, 40.73194], [-73.94849, 40.73205]]]}}, {"type": "Feature", "properties": {"OBJECTID": 5550353, "gnis_name": null, "ftype": 436, "fcode": 43612, "source": "usgs_nhdplus_hr", "nhd_layer": "NHDWaterbody", "hydro_role": "waterbody", "proxy_note": "distance_to_water_proxy; LM is tidal river/shoreline-heavy, not inland streams"}, "geometry": {"type": "Polygon", "coordinates": [[[-73.94871, 40.73337], [-73.94802, 40.73337], [-73.94869, 40.73322], [-73.94871, 40.73337]]]}}, {"type": "Feature", "properties": {"OBJECTID": 5605077, "gnis_name": "Upper Bay", "ftype": 493, "fcode": 49300, "source": "usgs_nhdplus_hr", "nhd_layer": "NHDWaterbody", "hydro_role": "waterbody", "proxy_note": "distance_to_water_proxy; LM is tidal river/shoreline-heavy, not inland streams"}, "geometry": {"type": "MultiPolygon", "coordinates": [[[[-73.9894, 40.67836], [-73.98729, 40.68148], [-73.9871, 40.68175], [-73.98679, 40.68157], [-73.98893, 40.67851], [-73.98911, 40.67818], [-73.9891197826087, 40.678], [-73.98944710280374, 40.678], [-73.9894, 40.67836]]], [[[-74.0201, 40.7024], [-74.01625, 40.70162], [-74.01514, 40.70084], [-74.01501, 40.70097], [-74.01434, 40.70063], [-74.01468, 40.70021], [-74.0146, 40.70016], [-74.01423, 40.70057], [-74.01415, 40.70052], [-74.01431, 40.70009], [-74.01418, 40.70007], [-74.01397, 40.70086], [-74.01376, 40.70082], [-74.01381, 40.70062], [-74.01358, 40.70055], [-74.01356, 40.70039], [-74.01367, 40.70016], [-74.01359, 40.70011], [-74.01349, 40.70048], [-74.01328, 40.7005], [-74.01331, 40.69977], [-74.00368, 40.69371], [-74.00395, 40.69319], [-74.0017, 40.69241], [-74.00202, 40.6919], [-74.00435, 40.69255], [-74.00482, 40.6917], [-74.00075, 40.69056], [-74.00095, 40.69016], [-74.00184, 40.69039], [-74.00196, 40.69015], [-74.0053, 40.69103], [-74.00571, 40.6902], [-74.00373, 40.68967], [-74.00386, 40.68944], [-74.00378, 40.6894], [-74.00407, 40.68902], [-74.00635, 40.68963], [-74.00676, 40.68878], [-74.00466, 40.6882], [-74.00517, 40.68763], [-74.00745, 40.68823], [-74.00789, 40.68736], [-74.00565, 40.68672], [-74.00586, 40.68623], [-74.00594, 40.68613], [-74.00696, 40.68647], [-74.00775, 40.68622], [-74.00823, 40.68638], [-74.01211, 40.68407], [-74.01184, 40.6838], [-74.0108, 40.68435], [-74.01037, 40.68392], [-74.00834, 40.68516], [-74.00803, 40.68465], [-74.01294, 40.68047], [-74.01373, 40.68099], [-74.01348, 40.68118], [-74.01358, 40.68125], [-74.01313, 40.68154], [-74.01321, 40.68162], [-74.01372, 40.68132], [-74.01406, 40.68164], [-74.01197, 40.68293], [-74.0127, 40.68367], [-74.01903, 40.67987], [-74.01896, 40.67977], [-74.01946, 40.67932], [-74.0195, 40.67894], [-74.01858, 40.67895], [-74.01822, 40.67872], [-74.0182, 40.67853], [-74.01985, 40.67843], [-74.01985, 40.67834], [-74.01843, 40.67838], [-74.01845375, 40.678], [-74.032, 40.678], [-74.032, 40.705624778156995], [-74.0201, 40.7024]], [[-74.01964, 40.6931], [-74.02021, 40.69198], [-74.02647, 40.68607], [-74.02658, 40.68545], [-74.02641, 40.68485], [-74.02578, 40.68428], [-74.02466, 40.68391], [-74.02379, 40.68387], [-74.02269, 40.68423], [-74.02227, 40.6837], [-74.02301, 40.683], [-74.02291, 40.68294], [-74.02214, 40.68368], [-74.02256, 40.68429], [-74.02067, 40.68517], [-74.0203, 40.68469], [-74.02086, 40.68444], [-74.02078, 40.68435], [-74.01953, 40.68488], [-74.01957, 40.68499], [-74.02018, 40.68473], [-74.02054, 40.68527], [-74.01754, 40.68661], [-74.0171, 40.68678], [-74.0167, 40.68627], [-74.01756, 40.68532], [-74.01746, 40.68527], [-74.01657, 40.68625], [-74.01512, 40.6863], [-74.01512, 40.68639], [-74.0166, 40.68633], [-74.01698, 40.68683], [-74.016, 40.68731], [-74.01483, 40.68726], [-74.01318, 40.68814], [-74.01226, 40.68929], [-74.01219, 40.6904], [-74.01174, 40.69038], [-74.01172, 40.69069], [-74.01213, 40.69071], [-74.01213, 40.69106], [-74.0124, 40.69108], [-74.01243, 40.69126], [-74.01328, 40.69199], [-74.01242, 40.69214], [-74.01216, 40.69199], [-74.01182, 40.69208], [-74.01173, 40.69225], [-74.01181, 40.69247], [-74.01208, 40.69256], [-74.01236, 40.6925], [-74.01248, 40.69231], [-74.01342, 40.69212], [-74.0142, 40.69282], [-74.01501, 40.693], [-74.01489, 40.69314], [-74.01499, 40.69318], [-74.01523, 40.69305], [-74.01513, 40.69324], [-74.0153, 40.69326], [-74.01535, 40.69305], [-74.01668, 40.69333], [-74.01964, 40.6931]]]]}}, {"type": "Feature", "properties": {"OBJECTID": 5659999, "gnis_name": null, "ftype": 390, "fcode": 39004, "source": "usgs_nhdplus_hr", "nhd_layer": "NHDWaterbody", "hydro_role": "waterbody", "proxy_note": "distance_to_water_proxy; LM is tidal river/shoreline-heavy, not inland streams"}, "geometry": {"type": "Polygon", "coordinates": [[[-73.98127, 40.7198], [-73.98101, 40.71989], [-73.98115, 40.71964], [-73.98127, 40.7198]]]}}, {"type": "Feature", "properties": {"OBJECTID": 5770255, "gnis_name": null, "ftype": 436, "fcode": 43612, "source": "usgs_nhdplus_hr", "nhd_layer": "NHDWaterbody", "hydro_role": "waterbody", "proxy_note": "distance_to_water_proxy; LM is tidal river/shoreline-heavy, not inland streams"}, "geometry": {"type": "Polygon", "coordinates": [[[-73.94863, 40.73292], [-73.94867, 40.73306], [-73.94799, 40.73314], [-73.94797, 40.73299], [-73.94863, 40.73292]]]}}, {"type": "Feature", "properties": {"OBJECTID": 5880244, "gnis_name": null, "ftype": 390, "fcode": 39004, "source": "usgs_nhdplus_hr", "nhd_layer": "NHDWaterbody", "hydro_role": "waterbody", "proxy_note": "distance_to_water_proxy; LM is tidal river/shoreline-heavy, not inland streams"}, "geometry": {"type": "Polygon", "coordinates": [[[-73.97916, 40.6978], [-73.97887, 40.69778], [-73.97889, 40.69765], [-73.97914, 40.69765], [-73.97916, 40.6978]]]}}, {"type": "Feature", "properties": {"OBJECTID": 6099908, "gnis_name": null, "ftype": 436, "fcode": 43612, "source": "usgs_nhdplus_hr", "nhd_layer": "NHDWaterbody", "hydro_role": "waterbody", "proxy_note": "distance_to_water_proxy; LM is tidal river/shoreline-heavy, not inland streams"}, "geometry": {"type": "Polygon", "coordinates": [[[-73.94878, 40.73307], [-73.94874, 40.73292], [-73.94944, 40.73285], [-73.94948, 40.73302], [-73.94878, 40.73307]]]}}, {"type": "Feature", "properties": {"OBJECTID": 6155046, "gnis_name": null, "ftype": 436, "fcode": 43612, "source": "usgs_nhdplus_hr", "nhd_layer": "NHDWaterbody", "hydro_role": "waterbody", "proxy_note": "distance_to_water_proxy; LM is tidal river/shoreline-heavy, not inland streams"}, "geometry": {"type": "Polygon", "coordinates": [[[-73.94931, 40.73187], [-73.94857, 40.73191], [-73.94857, 40.73182], [-73.94927, 40.73175], [-73.94931, 40.73187]]]}}, {"type": "Feature", "properties": {"OBJECTID": 6319810, "gnis_name": null, "ftype": 390, "fcode": 39004, "source": "usgs_nhdplus_hr", "nhd_layer": "NHDWaterbody", "hydro_role": "waterbody", "proxy_note": "distance_to_water_proxy; LM is tidal river/shoreline-heavy, not inland streams"}, "geometry": {"type": "Polygon", "coordinates": [[[-73.94973, 40.71973], [-73.94988, 40.72075], [-73.94973, 40.72078], [-73.94968, 40.721], [-73.94953, 40.72108], [-73.94919, 40.72084], [-73.949, 40.71974], [-73.94939, 40.71954], [-73.94973, 40.71973]]]}}, {"type": "Feature", "properties": {"OBJECTID": 6593618, "gnis_name": null, "ftype": 436, "fcode": 43612, "source": "usgs_nhdplus_hr", "nhd_layer": "NHDWaterbody", "hydro_role": "waterbody", "proxy_note": "distance_to_water_proxy; LM is tidal river/shoreline-heavy, not inland streams"}, "geometry": {"type": "Polygon", "coordinates": [[[-73.94844, 40.73183], [-73.94778, 40.73189], [-73.94777, 40.73177], [-73.94844, 40.73172], [-73.94844, 40.73183]]]}}, {"type": "Feature", "properties": {"OBJECTID": 6648139, "gnis_name": null, "ftype": 390, "fcode": 39004, "source": "usgs_nhdplus_hr", "nhd_layer": "NHDWaterbody", "hydro_role": "waterbody", "proxy_note": "distance_to_water_proxy; LM is tidal river/shoreline-heavy, not inland streams"}, "geometry": {"type": "Polygon", "coordinates": [[[-73.99202, 40.72129], [-73.99175, 40.72185], [-73.99146, 40.72177], [-73.99178, 40.72118], [-73.99202, 40.72129]]]}}, {"type": "Feature", "properties": {"OBJECTID": 6703034, "gnis_name": null, "ftype": 390, "fcode": 39011, "source": "usgs_nhdplus_hr", "nhd_layer": "NHDWaterbody", "hydro_role": "waterbody", "proxy_note": "distance_to_water_proxy; LM is tidal river/shoreline-heavy, not inland streams"}, "geometry": {"type": "Polygon", "coordinates": [[[-73.96767, 40.77397], [-73.9675, 40.77446], [-73.96711, 40.77473], [-73.96673, 40.77481], [-73.96657, 40.77446], [-73.9668, 40.77403], [-73.96733, 40.77366], [-73.9676, 40.77367], [-73.96767, 40.77397]]]}}, {"type": "Feature", "properties": {"OBJECTID": 6923901, "gnis_name": null, "ftype": 436, "fcode": 43612, "source": "usgs_nhdplus_hr", "nhd_layer": "NHDWaterbody", "hydro_role": "waterbody", "proxy_note": "distance_to_water_proxy; LM is tidal river/shoreline-heavy, not inland streams"}, "geometry": {"type": "Polygon", "coordinates": [[[-73.94779, 40.732], [-73.94697, 40.73205], [-73.94697, 40.73196], [-73.94778, 40.73189], [-73.94779, 40.732]]]}}, {"type": "Feature", "properties": {"OBJECTID": 6978497, "gnis_name": null, "ftype": 436, "fcode": 43612, "source": "usgs_nhdplus_hr", "nhd_layer": "NHDWaterbody", "hydro_role": "waterbody", "proxy_note": "distance_to_water_proxy; LM is tidal river/shoreline-heavy, not inland streams"}, "geometry": {"type": "Polygon", "coordinates": [[[-73.94777, 40.73177], [-73.94693, 40.73182], [-73.94698, 40.7317], [-73.94774, 40.73165], [-73.94777, 40.73177]]]}}]}