{"type": "FeatureCollection", "features": [{"type": "Feature", "properties": {"hwm_id": "40950", "event": "Ida", "height_above_gnd": 1.89, "source": "usgs_sciencebase_P9OMBJPQ", "hwm_quality": "Fair: +/- 0.20 ft", "county": "Richmond County"}, "geometry": {"type": "Point", "coordinates": [-74.133442, 40.628024]}}, {"type": "Feature", "properties": {"hwm_id": "40952", "event": "Ida", "height_above_gnd": 4.87, "source": "usgs_sciencebase_P9OMBJPQ", "hwm_quality": "Good: +/- 0.10 ft", "county": "Queens County"}, "geometry": {"type": "Point", "coordinates": [-73.846662, 40.737636]}}, {"type": "Feature", "properties": {"hwm_id": "40949", "event": "Ida", "height_above_gnd": 2.3, "source": "usgs_sciencebase_P9OMBJPQ", "hwm_quality": "Fair: +/- 0.20 ft", "county": "Queens County"}, "geometry": {"type": "Point", "coordinates": [-73.846227, 40.737144]}}, {"type": "Feature", "properties": {"hwm_id": "40954", "event": "Ida", "height_above_gnd": 2.14, "source": "usgs_sciencebase_P9OMBJPQ", "hwm_quality": "Good: +/- 0.10 ft", "county": "Richmond County"}, "geometry": {"type": "Point", "coordinates": [-74.140253, 40.623183]}}, {"type": "Feature", "properties": {"hwm_id": "40959", "event": "Ida", "height_above_gnd": 2.21, "source": "usgs_sciencebase_P9OMBJPQ", "hwm_quality": "Good: +/- 0.10 ft", "county": "Richmond County"}, "geometry": {"type": "Point", "coordinates": [-74.12885, 40.633801]}}, {"type": "Feature", "properties": {"hwm_id": "40968", "event": "Ida", "height_above_gnd": 0.6, "source": "usgs_sciencebase_P9OMBJPQ", "hwm_quality": "Good: +/- 0.10 ft", "county": "Queens County"}, "geometry": {"type": "Point", "coordinates": [-73.87616, 40.761743]}}, {"type": "Feature", "properties": {"hwm_id": "40963", "event": "Ida", "height_above_gnd": 0.84, "source": "usgs_sciencebase_P9OMBJPQ", "hwm_quality": "Good: +/- 0.10 ft", "county": "Queens County"}, "geometry": {"type": "Point", "coordinates": [-73.897418, 40.739744]}}, {"type": "Feature", "properties": {"hwm_id": "40965", "event": "Ida", "height_above_gnd": 2.26, "source": "usgs_sciencebase_P9OMBJPQ", "hwm_quality": "Excellent: +/- 0.05 ft", "county": "Richmond County"}, "geometry": {"type": "Point", "coordinates": [-74.148731, 40.622075]}}, {"type": "Feature", "properties": {"hwm_id": "40958", "event": "Ida", "height_above_gnd": 2.95, "source": "usgs_sciencebase_P9OMBJPQ", "hwm_quality": "Fair: +/- 0.20 ft", "county": "Queens County"}, "geometry": {"type": "Point", "coordinates": [-73.878299, 40.723025]}}, {"type": "Feature", "properties": {"hwm_id": "40962", "event": "Ida", "height_above_gnd": 4.97, "source": "usgs_sciencebase_P9OMBJPQ", "hwm_quality": "Excellent: +/- 0.05 ft", "county": "Bronx County"}, "geometry": {"type": "Point", "coordinates": [-73.895858, 40.89022]}}, {"type": "Feature", "properties": {"hwm_id": "40960", "event": "Ida", "height_above_gnd": 5.46, "source": "usgs_sciencebase_P9OMBJPQ", "hwm_quality": "Fair: +/- 0.20 ft", "county": "Bronx County"}, "geometry": {"type": "Point", "coordinates": [-73.894321, 40.888684]}}, {"type": "Feature", "properties": {"hwm_id": "40987", "event": "Ida", "height_above_gnd": 1.32, "source": "usgs_sciencebase_P9OMBJPQ", "hwm_quality": "Good: +/- 0.10 ft", "county": "Richmond County"}, "geometry": {"type": "Point", "coordinates": [-74.144662, 40.626374]}}, {"type": "Feature", "properties": {"hwm_id": "40984", "event": "Ida", "height_above_gnd": 0.91, "source": "usgs_sciencebase_P9OMBJPQ", "hwm_quality": "Excellent: +/- 0.05 ft", "county": "Richmond County"}, "geometry": {"type": "Point", "coordinates": [-74.123061, 40.632609]}}, {"type": "Feature", "properties": {"hwm_id": "40995", "event": "Ida", "height_above_gnd": 0.0, "source": "usgs_sciencebase_P9OMBJPQ", "hwm_quality": "Poor: +/- 0.40 ft", "county": "Richmond County"}, "geometry": {"type": "Point", "coordinates": [-74.125044, 40.589076]}}, {"type": "Feature", "properties": {"hwm_id": "40982", "event": "Ida", "height_above_gnd": 0.91, "source": "usgs_sciencebase_P9OMBJPQ", "hwm_quality": "Poor: +/- 0.40 ft", "county": "Kings County"}, "geometry": {"type": "Point", "coordinates": [-73.911141, 40.687879]}}, {"type": "Feature", "properties": {"hwm_id": "40994", "event": "Ida", "height_above_gnd": 0.0, "source": "usgs_sciencebase_P9OMBJPQ", "hwm_quality": "Fair: +/- 0.20 ft", "county": "Richmond County"}, "geometry": {"type": "Point", "coordinates": [-74.156962, 40.605535]}}, {"type": "Feature", "properties": {"hwm_id": "40990", "event": "Ida", "height_above_gnd": 0.8, "source": "usgs_sciencebase_P9OMBJPQ", "hwm_quality": "Good: +/- 0.10 ft", "county": "Queens County"}, "geometry": {"type": "Point", "coordinates": [-73.848106, 40.726882]}}, {"type": "Feature", "properties": {"hwm_id": "40992", "event": "Ida", "height_above_gnd": 0.94, "source": "usgs_sciencebase_P9OMBJPQ", "hwm_quality": "Fair: +/- 0.20 ft", "county": "Queens County"}, "geometry": {"type": "Point", "coordinates": [-73.847996, 40.732376]}}, {"type": "Feature", "properties": {"hwm_id": "40985", "event": "Ida", "height_above_gnd": 3.05, "source": "usgs_sciencebase_P9OMBJPQ", "hwm_quality": "Good: +/- 0.10 ft", "county": "Kings County"}, "geometry": {"type": "Point", "coordinates": [-73.915255, 40.695151]}}, {"type": "Feature", "properties": {"hwm_id": "40988", "event": "Ida", "height_above_gnd": 0.0, "source": "usgs_sciencebase_P9OMBJPQ", "hwm_quality": "Fair: +/- 0.20 ft", "county": "Bronx County"}, "geometry": {"type": "Point", "coordinates": [-73.873351, 40.852372]}}, {"type": "Feature", "properties": {"hwm_id": "40983", "event": "Ida", "height_above_gnd": 6.21, "source": "usgs_sciencebase_P9OMBJPQ", "hwm_quality": "Fair: +/- 0.20 ft", "county": "Queens County"}, "geometry": {"type": "Point", "coordinates": [-73.901358, 40.738118]}}, {"type": "Feature", "properties": {"hwm_id": "41035", "event": "Ida", "height_above_gnd": 0.37, "source": "usgs_sciencebase_P9OMBJPQ", "hwm_quality": "Fair: +/- 0.20 ft", "county": "Queens County"}, "geometry": {"type": "Point", "coordinates": [-73.770739, 40.718133]}}, {"type": "Feature", "properties": {"hwm_id": "41023", "event": "Ida", "height_above_gnd": 1.3, "source": "usgs_sciencebase_P9OMBJPQ", "hwm_quality": "Good: +/- 0.10 ft", "county": "Kings County"}, "geometry": {"type": "Point", "coordinates": [-73.948417, 40.701143]}}, {"type": "Feature", "properties": {"hwm_id": "41028", "event": "Ida", "height_above_gnd": 1.92, "source": "usgs_sciencebase_P9OMBJPQ", "hwm_quality": "Fair: +/- 0.20 ft", "county": "Kings County"}, "geometry": {"type": "Point", "coordinates": [-73.951153, 40.700937]}}, {"type": "Feature", "properties": {"hwm_id": "41030", "event": "Ida", "height_above_gnd": 0.65, "source": "usgs_sciencebase_P9OMBJPQ", "hwm_quality": "Poor: +/- 0.40 ft", "county": "Kings County"}, "geometry": {"type": "Point", "coordinates": [-73.950827, 40.699782]}}, {"type": "Feature", "properties": {"hwm_id": "41017", "event": "Ida", "height_above_gnd": 0.93, "source": "usgs_sciencebase_P9OMBJPQ", "hwm_quality": "Fair: +/- 0.20 ft", "county": "Kings County"}, "geometry": {"type": "Point", "coordinates": [-73.946444, 40.702427]}}, {"type": "Feature", "properties": {"hwm_id": "41029", "event": "Ida", "height_above_gnd": 0.4, "source": "usgs_sciencebase_P9OMBJPQ", "hwm_quality": "Good: +/- 0.10 ft", "county": "Queens County"}, "geometry": {"type": "Point", "coordinates": [-73.765131, 40.73921]}}, {"type": "Feature", "properties": {"hwm_id": "41021", "event": "Ida", "height_above_gnd": 0.76, "source": "usgs_sciencebase_P9OMBJPQ", "hwm_quality": "Fair: +/- 0.20 ft", "county": "Queens County"}, "geometry": {"type": "Point", "coordinates": [-73.779794, 40.711261]}}, {"type": "Feature", "properties": {"hwm_id": "41037", "event": "Ida", "height_above_gnd": 1.19, "source": "usgs_sciencebase_P9OMBJPQ", "hwm_quality": "Excellent: +/- 0.05 ft", "county": "Richmond County"}, "geometry": {"type": "Point", "coordinates": [-74.138244, 40.639567]}}, {"type": "Feature", "properties": {"hwm_id": "41036", "event": "Ida", "height_above_gnd": 1.58, "source": "usgs_sciencebase_P9OMBJPQ", "hwm_quality": "Good: +/- 0.10 ft", "county": "Richmond County"}, "geometry": {"type": "Point", "coordinates": [-74.122774, 40.627907]}}, {"type": "Feature", "properties": {"hwm_id": "41031", "event": "Ida", "height_above_gnd": 2.0, "source": "usgs_sciencebase_P9OMBJPQ", "hwm_quality": "Good: +/- 0.10 ft", "county": "Queens County"}, "geometry": {"type": "Point", "coordinates": [-73.805993, 40.730147]}}, {"type": "Feature", "properties": {"hwm_id": "41032", "event": "Ida", "height_above_gnd": 4.58, "source": "usgs_sciencebase_P9OMBJPQ", "hwm_quality": "Fair: +/- 0.20 ft", "county": "Queens County"}, "geometry": {"type": "Point", "coordinates": [-73.804656, 40.730574]}}, {"type": "Feature", "properties": {"hwm_id": "41106", "event": "Ida", "height_above_gnd": 1.95, "source": "usgs_sciencebase_P9OMBJPQ", "hwm_quality": "Excellent: +/- 0.05 ft", "county": "New York County"}, "geometry": {"type": "Point", "coordinates": [-73.928156, 40.866126]}}, {"type": "Feature", "properties": {"hwm_id": "41105", "event": "Ida", "height_above_gnd": 0.0, "source": "usgs_sciencebase_P9OMBJPQ", "hwm_quality": "Fair: +/- 0.20 ft", "county": "New York County"}, "geometry": {"type": "Point", "coordinates": [-73.95129, 40.795039]}}, {"type": "Feature", "properties": {"hwm_id": "41107", "event": "Ida", "height_above_gnd": 0.0, "source": "usgs_sciencebase_P9OMBJPQ", "hwm_quality": "Excellent: +/- 0.05 ft", "county": "New York County"}, "geometry": {"type": "Point", "coordinates": [-73.919569, 40.87368]}}, {"type": "Feature", "properties": {"hwm_id": "41625", "event": "Ida", "height_above_gnd": 29.1, "source": "usgs_sciencebase_P9OMBJPQ", "hwm_quality": "Poor: +/- 0.40 ft", "county": "Kings County"}, "geometry": {"type": "Point", "coordinates": [-73.962747, 40.611225]}}, {"type": "Feature", "properties": {"hwm_id": "41598", "event": "Ida", "height_above_gnd": 1.28, "source": "usgs_sciencebase_P9OMBJPQ", "hwm_quality": "Fair: +/- 0.20 ft", "county": "Kings County"}, "geometry": {"type": "Point", "coordinates": [-73.964591, 40.612264]}}, {"type": "Feature", "properties": {"hwm_id": "41100", "event": "Ida", "height_above_gnd": 82.6, "source": "usgs_sciencebase_P9OMBJPQ", "hwm_quality": "Poor: +/- 0.40 ft", "county": "Kings County"}, "geometry": {"type": "Point", "coordinates": [-73.998204, 40.637908]}}, {"type": "Feature", "properties": {"hwm_id": "41102", "event": "Ida", "height_above_gnd": 63.0, "source": "usgs_sciencebase_P9OMBJPQ", "hwm_quality": "Poor: +/- 0.40 ft", "county": "Kings County"}, "geometry": {"type": "Point", "coordinates": [-73.996193, 40.633772]}}, {"type": "Feature", "properties": {"hwm_id": "41149", "event": "Ida", "height_above_gnd": 0.99, "source": "usgs_sciencebase_P9OMBJPQ", "hwm_quality": "Good: +/- 0.10 ft", "county": "Queens County"}, "geometry": {"type": "Point", "coordinates": [-73.855877, 40.717606]}}, {"type": "Feature", "properties": {"hwm_id": "41145", "event": "Ida", "height_above_gnd": 1.07, "source": "usgs_sciencebase_P9OMBJPQ", "hwm_quality": "Fair: +/- 0.20 ft", "county": "Queens County"}, "geometry": {"type": "Point", "coordinates": [-73.853027, 40.715417]}}, {"type": "Feature", "properties": {"hwm_id": "41140", "event": "Ida", "height_above_gnd": 1.56, "source": "usgs_sciencebase_P9OMBJPQ", "hwm_quality": "Fair: +/- 0.20 ft", "county": "Queens County"}, "geometry": {"type": "Point", "coordinates": [-73.847914, 40.718012]}}, {"type": "Feature", "properties": {"hwm_id": "41136", "event": "Ida", "height_above_gnd": 1.83, "source": "usgs_sciencebase_P9OMBJPQ", "hwm_quality": "Fair: +/- 0.20 ft", "county": "Queens County"}, "geometry": {"type": "Point", "coordinates": [-73.844833, 40.719936]}}, {"type": "Feature", "properties": {"hwm_id": "41134", "event": "Ida", "height_above_gnd": 1.71, "source": "usgs_sciencebase_P9OMBJPQ", "hwm_quality": "Fair: +/- 0.20 ft", "county": "Queens County"}, "geometry": {"type": "Point", "coordinates": [-73.840423, 40.718402]}}, {"type": "Feature", "properties": {"hwm_id": "41139", "event": "Ida", "height_above_gnd": 2.58, "source": "usgs_sciencebase_P9OMBJPQ", "hwm_quality": "Fair: +/- 0.20 ft", "county": "Queens County"}, "geometry": {"type": "Point", "coordinates": [-73.846652, 40.717063]}}, {"type": "Feature", "properties": {"hwm_id": "41130", "event": "Ida", "height_above_gnd": 1.45, "source": "usgs_sciencebase_P9OMBJPQ", "hwm_quality": "Fair: +/- 0.20 ft", "county": "Queens County"}, "geometry": {"type": "Point", "coordinates": [-73.842791, 40.714701]}}, {"type": "Feature", "properties": {"hwm_id": "41151", "event": "Ida", "height_above_gnd": 0.88, "source": "usgs_sciencebase_P9OMBJPQ", "hwm_quality": "Excellent: +/- 0.05 ft", "county": "Bronx County"}, "geometry": {"type": "Point", "coordinates": [-73.844494, 40.847587]}}, {"type": "Feature", "properties": {"hwm_id": "41147", "event": "Ida", "height_above_gnd": 1.31, "source": "usgs_sciencebase_P9OMBJPQ", "hwm_quality": "Excellent: +/- 0.05 ft", "county": "Bronx County"}, "geometry": {"type": "Point", "coordinates": [-73.855975, 40.846571]}}, {"type": "Feature", "properties": {"hwm_id": "41150", "event": "Ida", "height_above_gnd": 1.5, "source": "usgs_sciencebase_P9OMBJPQ", "hwm_quality": "Good: +/- 0.10 ft", "county": "Bronx County"}, "geometry": {"type": "Point", "coordinates": [-73.898722, 40.864467]}}, {"type": "Feature", "properties": {"hwm_id": "41191", "event": "Ida", "height_above_gnd": 1.63, "source": "usgs_sciencebase_P9OMBJPQ", "hwm_quality": "Good: +/- 0.10 ft", "county": "Kings County"}, "geometry": {"type": "Point", "coordinates": [-73.989996, 40.675959]}}, {"type": "Feature", "properties": {"hwm_id": "41203", "event": "Ida", "height_above_gnd": 0.59, "source": "usgs_sciencebase_P9OMBJPQ", "hwm_quality": "Fair: +/- 0.20 ft", "county": "Bronx County"}, "geometry": {"type": "Point", "coordinates": [-73.843699, 40.888074]}}, {"type": "Feature", "properties": {"hwm_id": "41251", "event": "Ida", "height_above_gnd": 5.36, "source": "usgs_sciencebase_P9OMBJPQ", "hwm_quality": "Excellent: +/- 0.05 ft", "county": "Queens County"}, "geometry": {"type": "Point", "coordinates": [-73.88191, 40.764806]}}, {"type": "Feature", "properties": {"hwm_id": "41229", "event": "Ida", "height_above_gnd": 0.0, "source": "usgs_sciencebase_P9OMBJPQ", "hwm_quality": "Fair: +/- 0.20 ft", "county": "Queens County"}, "geometry": {"type": "Point", "coordinates": [-73.881569, 40.767108]}}, {"type": "Feature", "properties": {"hwm_id": "41447", "event": "Ida", "height_above_gnd": 0.41, "source": "usgs_sciencebase_P9OMBJPQ", "hwm_quality": "Excellent: +/- 0.05 ft", "county": "Kings County"}, "geometry": {"type": "Point", "coordinates": [-73.950433, 40.700654]}}, {"type": "Feature", "properties": {"hwm_id": "41192", "event": "Ida", "height_above_gnd": 0.46, "source": "usgs_sciencebase_P9OMBJPQ", "hwm_quality": "Excellent: +/- 0.05 ft", "county": "Bronx County"}, "geometry": {"type": "Point", "coordinates": [-73.830764, 40.82978]}}, {"type": "Feature", "properties": {"hwm_id": "41189", "event": "Ida", "height_above_gnd": 0.81, "source": "usgs_sciencebase_P9OMBJPQ", "hwm_quality": "Fair: +/- 0.20 ft", "county": "Kings County"}, "geometry": {"type": "Point", "coordinates": [-73.988235, 40.677948]}}, {"type": "Feature", "properties": {"hwm_id": "41202", "event": "Ida", "height_above_gnd": 2.01, "source": "usgs_sciencebase_P9OMBJPQ", "hwm_quality": "Excellent: +/- 0.05 ft", "county": "Bronx County"}, "geometry": {"type": "Point", "coordinates": [-73.843384, 40.894235]}}, {"type": "Feature", "properties": {"hwm_id": "41183", "event": "Ida", "height_above_gnd": 2.32, "source": "usgs_sciencebase_P9OMBJPQ", "hwm_quality": "Fair: +/- 0.20 ft", "county": "Kings County"}, "geometry": {"type": "Point", "coordinates": [-73.996919, 40.67635]}}, {"type": "Feature", "properties": {"hwm_id": "41196", "event": "Ida", "height_above_gnd": 2.71, "source": "usgs_sciencebase_P9OMBJPQ", "hwm_quality": "Excellent: +/- 0.05 ft", "county": "Bronx County"}, "geometry": {"type": "Point", "coordinates": [-73.823077, 40.835452]}}, {"type": "Feature", "properties": {"hwm_id": "41250", "event": "Ida", "height_above_gnd": 6.51, "source": "usgs_sciencebase_P9OMBJPQ", "hwm_quality": "Excellent: +/- 0.05 ft", "county": "Queens County"}, "geometry": {"type": "Point", "coordinates": [-73.901136, 40.751352]}}, {"type": "Feature", "properties": {"hwm_id": "41228", "event": "Ida", "height_above_gnd": 0.74, "source": "usgs_sciencebase_P9OMBJPQ", "hwm_quality": "Excellent: +/- 0.05 ft", "county": "Queens County"}, "geometry": {"type": "Point", "coordinates": [-73.8793, 40.762058]}}, {"type": "Feature", "properties": {"hwm_id": "41299", "event": "Ida", "height_above_gnd": 4.44, "source": "usgs_sciencebase_P9OMBJPQ", "hwm_quality": "Good: +/- 0.10 ft", "county": "Queens County"}, "geometry": {"type": "Point", "coordinates": [-73.900683, 40.737983]}}, {"type": "Feature", "properties": {"hwm_id": "41307", "event": "Ida", "height_above_gnd": 3.48, "source": "usgs_sciencebase_P9OMBJPQ", "hwm_quality": "Good: +/- 0.10 ft", "county": "Kings County"}, "geometry": {"type": "Point", "coordinates": [-73.973043, 40.667095]}}, {"type": "Feature", "properties": {"hwm_id": "41304", "event": "Ida", "height_above_gnd": 1.22, "source": "usgs_sciencebase_P9OMBJPQ", "hwm_quality": "Fair: +/- 0.20 ft", "county": "Kings County"}, "geometry": {"type": "Point", "coordinates": [-73.986403, 40.673421]}}, {"type": "Feature", "properties": {"hwm_id": "41303", "event": "Ida", "height_above_gnd": 0.97, "source": "usgs_sciencebase_P9OMBJPQ", "hwm_quality": "Good: +/- 0.10 ft", "county": "Kings County"}, "geometry": {"type": "Point", "coordinates": [-73.984479, 40.674164]}}, {"type": "Feature", "properties": {"hwm_id": "41305", "event": "Ida", "height_above_gnd": 1.12, "source": "usgs_sciencebase_P9OMBJPQ", "hwm_quality": "Fair: +/- 0.20 ft", "county": "Kings County"}, "geometry": {"type": "Point", "coordinates": [-73.986252, 40.670755]}}, {"type": "Feature", "properties": {"hwm_id": "41679", "event": "Ida", "height_above_gnd": 2.2, "source": "usgs_sciencebase_P9OMBJPQ", "hwm_quality": "Fair: +/- 0.20 ft", "county": "Kings County"}, "geometry": {"type": "Point", "coordinates": [-73.971688, 40.669816]}}, {"type": "Feature", "properties": {"hwm_id": "41306", "event": "Ida", "height_above_gnd": 0.38, "source": "usgs_sciencebase_P9OMBJPQ", "hwm_quality": "Fair: +/- 0.20 ft", "county": "Kings County"}, "geometry": {"type": "Point", "coordinates": [-73.976915, 40.668089]}}, {"type": "Feature", "properties": {"hwm_id": "41430", "event": "Ida", "height_above_gnd": 0.3, "source": "usgs_sciencebase_P9OMBJPQ", "hwm_quality": "Good: +/- 0.10 ft", "county": "Kings County"}, "geometry": {"type": "Point", "coordinates": [-74.009158, 40.679252]}}, {"type": "Feature", "properties": {"hwm_id": "41433", "event": "Ida", "height_above_gnd": 1.18, "source": "usgs_sciencebase_P9OMBJPQ", "hwm_quality": "Fair: +/- 0.20 ft", "county": "Kings County"}, "geometry": {"type": "Point", "coordinates": [-73.953568, 40.721788]}}, {"type": "Feature", "properties": {"hwm_id": "40947", "event": "Ida", "height_above_gnd": 1.7, "source": "usgs_sciencebase_P9OMBJPQ", "hwm_quality": "Fair: +/- 0.20 ft", "county": "Bronx County"}, "geometry": {"type": "Point", "coordinates": [-73.82371, 40.816385]}}, {"type": "Feature", "properties": {"hwm_id": "40945", "event": "Ida", "height_above_gnd": 2.05, "source": "usgs_sciencebase_P9OMBJPQ", "hwm_quality": "Good: +/- 0.10 ft", "county": "Richmond County"}, "geometry": {"type": "Point", "coordinates": [-74.135611, 40.62562]}}, {"type": "Feature", "properties": {"hwm_id": "40957", "event": "Ida", "height_above_gnd": 1.62, "source": "usgs_sciencebase_P9OMBJPQ", "hwm_quality": "Good: +/- 0.10 ft", "county": "Bronx County"}, "geometry": {"type": "Point", "coordinates": [-73.833614, 40.833019]}}, {"type": "Feature", "properties": {"hwm_id": "40951", "event": "Ida", "height_above_gnd": 2.55, "source": "usgs_sciencebase_P9OMBJPQ", "hwm_quality": "Good: +/- 0.10 ft", "county": "Richmond County"}, "geometry": {"type": "Point", "coordinates": [-74.130572, 40.630429]}}, {"type": "Feature", "properties": {"hwm_id": "40964", "event": "Ida", "height_above_gnd": 4.31, "source": "usgs_sciencebase_P9OMBJPQ", "hwm_quality": "Excellent: +/- 0.05 ft", "county": "Queens County"}, "geometry": {"type": "Point", "coordinates": [-73.907689, 40.729346]}}, {"type": "Feature", "properties": {"hwm_id": "40981", "event": "Ida", "height_above_gnd": 4.0, "source": "usgs_sciencebase_P9OMBJPQ", "hwm_quality": "Excellent: +/- 0.05 ft", "county": "Queens County"}, "geometry": {"type": "Point", "coordinates": [-73.846648, 40.724804]}}, {"type": "Feature", "properties": {"hwm_id": "40993", "event": "Ida", "height_above_gnd": 1.8, "source": "usgs_sciencebase_P9OMBJPQ", "hwm_quality": "Good: +/- 0.10 ft", "county": "Queens County"}, "geometry": {"type": "Point", "coordinates": [-73.847329, 40.73573]}}, {"type": "Feature", "properties": {"hwm_id": "40980", "event": "Ida", "height_above_gnd": 0.91, "source": "usgs_sciencebase_P9OMBJPQ", "hwm_quality": "Good: +/- 0.10 ft", "county": "Queens County"}, "geometry": {"type": "Point", "coordinates": [-73.846067, 40.723835]}}, {"type": "Feature", "properties": {"hwm_id": "41146", "event": "Ida", "height_above_gnd": 0.34, "source": "usgs_sciencebase_P9OMBJPQ", "hwm_quality": "Excellent: +/- 0.05 ft", "county": "Bronx County"}, "geometry": {"type": "Point", "coordinates": [-73.869797, 40.822912]}}, {"type": "Feature", "properties": {"hwm_id": "41190", "event": "Ida", "height_above_gnd": 1.19, "source": "usgs_sciencebase_P9OMBJPQ", "hwm_quality": "Excellent: +/- 0.05 ft", "county": "Bronx County"}, "geometry": {"type": "Point", "coordinates": [-73.830852, 40.82857]}}, {"type": "Feature", "properties": {"hwm_id": "41247", "event": "Ida", "height_above_gnd": 4.59, "source": "usgs_sciencebase_P9OMBJPQ", "hwm_quality": "Excellent: +/- 0.05 ft", "county": "Queens County"}, "geometry": {"type": "Point", "coordinates": [-73.881204, 40.764953]}}, {"type": "Feature", "properties": {"hwm_id": "41148", "event": "Ida", "height_above_gnd": 43.3, "source": "usgs_sciencebase_P9OMBJPQ", "hwm_quality": "Excellent: +/- 0.05 ft", "county": "Queens County"}, "geometry": {"type": "Point", "coordinates": [-73.856543, 40.716525]}}, {"type": "Feature", "properties": {"hwm_id": "40969", "event": "Ida", "height_above_gnd": 2.2, "source": "usgs_sciencebase_P9OMBJPQ", "hwm_quality": "Poor: +/- 0.40 ft", "county": "Queens County"}, "geometry": {"type": "Point", "coordinates": [-73.845924, 40.73707]}}, {"type": "Feature", "properties": {"hwm_id": "40971", "event": "Ida", "height_above_gnd": 2.44, "source": "usgs_sciencebase_P9OMBJPQ", "hwm_quality": "Good: +/- 0.10 ft", "county": "Queens County"}, "geometry": {"type": "Point", "coordinates": [-73.846818, 40.737707]}}, {"type": "Feature", "properties": {"hwm_id": "41444", "event": "Ida", "height_above_gnd": 2.32, "source": "usgs_sciencebase_P9OMBJPQ", "hwm_quality": "Excellent: +/- 0.05 ft", "county": "Richmond County"}, "geometry": {"type": "Point", "coordinates": [-74.148727, 40.622111]}}, {"type": "Feature", "properties": {"hwm_id": "40975", "event": "Ida", "height_above_gnd": 2.5, "source": "usgs_sciencebase_P9OMBJPQ", "hwm_quality": "Fair: +/- 0.20 ft", "county": "Richmond County"}, "geometry": {"type": "Point", "coordinates": [-74.140413, 40.623342]}}, {"type": "Feature", "properties": {"hwm_id": "40976", "event": "Ida", "height_above_gnd": 1.92, "source": "usgs_sciencebase_P9OMBJPQ", "hwm_quality": "Good: +/- 0.10 ft", "county": "Richmond County"}, "geometry": {"type": "Point", "coordinates": [-74.128814, 40.633761]}}, {"type": "Feature", "properties": {"hwm_id": "41448", "event": "Ida", "height_above_gnd": 0.72, "source": "usgs_sciencebase_P9OMBJPQ", "hwm_quality": "Good: +/- 0.10 ft", "county": "Queens County"}, "geometry": {"type": "Point", "coordinates": [-73.87616, 40.761716]}}, {"type": "Feature", "properties": {"hwm_id": "41309", "event": "Ida", "height_above_gnd": 0.87, "source": "usgs_sciencebase_P9OMBJPQ", "hwm_quality": "Good: +/- 0.10 ft", "county": "Queens County"}, "geometry": {"type": "Point", "coordinates": [-73.897388, 40.739729]}}, {"type": "Feature", "properties": {"hwm_id": "41040", "event": "Ida", "height_above_gnd": 1.05, "source": "usgs_sciencebase_P9OMBJPQ", "hwm_quality": "Poor: +/- 0.40 ft", "county": "Queens County"}, "geometry": {"type": "Point", "coordinates": [-73.877717, 40.72237]}}, {"type": "Feature", "properties": {"hwm_id": "41343", "event": "Ida", "height_above_gnd": 4.61, "source": "usgs_sciencebase_P9OMBJPQ", "hwm_quality": "Excellent: +/- 0.05 ft", "county": "Bronx County"}, "geometry": {"type": "Point", "coordinates": [-73.895815, 40.890165]}}, {"type": "Feature", "properties": {"hwm_id": "41612", "event": "Ida", "height_above_gnd": 0.9, "source": "usgs_sciencebase_P9OMBJPQ", "hwm_quality": "Poor: +/- 0.40 ft", "county": "Kings County"}, "geometry": {"type": "Point", "coordinates": [-73.911282, 40.687954]}}, {"type": "Feature", "properties": {"hwm_id": "41012", "event": "Ida", "height_above_gnd": 0.72, "source": "usgs_sciencebase_P9OMBJPQ", "hwm_quality": "Fair: +/- 0.20 ft", "county": "Richmond County"}, "geometry": {"type": "Point", "coordinates": [-74.144543, 40.626237]}}, {"type": "Feature", "properties": {"hwm_id": "41013", "event": "Ida", "height_above_gnd": 0.0, "source": "usgs_sciencebase_P9OMBJPQ", "hwm_quality": "Good: +/- 0.10 ft", "county": "Richmond County"}, "geometry": {"type": "Point", "coordinates": [-74.156896, 40.605499]}}, {"type": "Feature", "properties": {"hwm_id": "41614", "event": "Ida", "height_above_gnd": 3.04, "source": "usgs_sciencebase_P9OMBJPQ", "hwm_quality": "Good: +/- 0.10 ft", "county": "Kings County"}, "geometry": {"type": "Point", "coordinates": [-73.91538, 40.695028]}}, {"type": "Feature", "properties": {"hwm_id": "41316", "event": "Ida", "height_above_gnd": 0.72, "source": "usgs_sciencebase_P9OMBJPQ", "hwm_quality": "Good: +/- 0.10 ft", "county": "Queens County"}, "geometry": {"type": "Point", "coordinates": [-73.848079, 40.726837]}}, {"type": "Feature", "properties": {"hwm_id": "41317", "event": "Ida", "height_above_gnd": 0.76, "source": "usgs_sciencebase_P9OMBJPQ", "hwm_quality": "Good: +/- 0.10 ft", "county": "Queens County"}, "geometry": {"type": "Point", "coordinates": [-73.847971, 40.73233]}}, {"type": "Feature", "properties": {"hwm_id": "41592", "event": "Ida", "height_above_gnd": 0.0, "source": "usgs_sciencebase_P9OMBJPQ", "hwm_quality": "Fair: +/- 0.20 ft", "county": "Bronx County"}, "geometry": {"type": "Point", "coordinates": [-73.873351, 40.852372]}}, {"type": "Feature", "properties": {"hwm_id": "41312", "event": "Ida", "height_above_gnd": 5.87, "source": "usgs_sciencebase_P9OMBJPQ", "hwm_quality": "Fair: +/- 0.20 ft", "county": "Queens County"}, "geometry": {"type": "Point", "coordinates": [-73.90141, 40.73809]}}, {"type": "Feature", "properties": {"hwm_id": "41589", "event": "Ida", "height_above_gnd": 1.49, "source": "usgs_sciencebase_P9OMBJPQ", "hwm_quality": "Poor: +/- 0.40 ft", "county": "Queens County"}, "geometry": {"type": "Point", "coordinates": [-73.770858, 40.718217]}}, {"type": "Feature", "properties": {"hwm_id": "41619", "event": "Ida", "height_above_gnd": 1.4, "source": "usgs_sciencebase_P9OMBJPQ", "hwm_quality": "Good: +/- 0.10 ft", "county": "Kings County"}, "geometry": {"type": "Point", "coordinates": [-73.951028, 40.700818]}}, {"type": "Feature", "properties": {"hwm_id": "41620", "event": "Ida", "height_above_gnd": 1.5, "source": "usgs_sciencebase_P9OMBJPQ", "hwm_quality": "Fair: +/- 0.20 ft", "county": "Kings County"}, "geometry": {"type": "Point", "coordinates": [-73.950766, 40.69979]}}, {"type": "Feature", "properties": {"hwm_id": "41617", "event": "Ida", "height_above_gnd": 1.12, "source": "usgs_sciencebase_P9OMBJPQ", "hwm_quality": "Good: +/- 0.10 ft", "county": "Kings County"}, "geometry": {"type": "Point", "coordinates": [-73.948515, 40.701237]}}, {"type": "Feature", "properties": {"hwm_id": "41615", "event": "Ida", "height_above_gnd": 1.11, "source": "usgs_sciencebase_P9OMBJPQ", "hwm_quality": "Fair: +/- 0.20 ft", "county": "Kings County"}, "geometry": {"type": "Point", "coordinates": [-73.946356, 40.702351]}}, {"type": "Feature", "properties": {"hwm_id": "41588", "event": "Ida", "height_above_gnd": 0.7, "source": "usgs_sciencebase_P9OMBJPQ", "hwm_quality": "Fair: +/- 0.20 ft", "county": "Queens County"}, "geometry": {"type": "Point", "coordinates": [-73.779756, 40.711216]}}, {"type": "Feature", "properties": {"hwm_id": "41320", "event": "Ida", "height_above_gnd": 0.84, "source": "usgs_sciencebase_P9OMBJPQ", "hwm_quality": "Good: +/- 0.10 ft", "county": "Queens County"}, "geometry": {"type": "Point", "coordinates": [-73.765212, 40.73933]}}, {"type": "Feature", "properties": {"hwm_id": "41446", "event": "Ida", "height_above_gnd": 1.25, "source": "usgs_sciencebase_P9OMBJPQ", "hwm_quality": "Excellent: +/- 0.05 ft", "county": "Richmond County"}, "geometry": {"type": "Point", "coordinates": [-74.138265, 40.639585]}}, {"type": "Feature", "properties": {"hwm_id": "41322", "event": "Ida", "height_above_gnd": 2.0, "source": "usgs_sciencebase_P9OMBJPQ", "hwm_quality": "Good: +/- 0.10 ft", "county": "Queens County"}, "geometry": {"type": "Point", "coordinates": [-73.806019, 40.730146]}}, {"type": "Feature", "properties": {"hwm_id": "41445", "event": "Ida", "height_above_gnd": 2.13, "source": "usgs_sciencebase_P9OMBJPQ", "hwm_quality": "Good: +/- 0.10 ft", "county": "Richmond County"}, "geometry": {"type": "Point", "coordinates": [-74.122955, 40.627938]}}, {"type": "Feature", "properties": {"hwm_id": "41323", "event": "Ida", "height_above_gnd": 4.2, "source": "usgs_sciencebase_P9OMBJPQ", "hwm_quality": "Fair: +/- 0.20 ft", "county": "Queens County"}, "geometry": {"type": "Point", "coordinates": [-73.804343, 40.730562]}}, {"type": "Feature", "properties": {"hwm_id": "41440", "event": "Ida", "height_above_gnd": 0.0, "source": "usgs_sciencebase_P9OMBJPQ", "hwm_quality": "Good: +/- 0.10 ft", "county": "New York County"}, "geometry": {"type": "Point", "coordinates": [-73.919438, 40.873684]}}, {"type": "Feature", "properties": {"hwm_id": "41438", "event": "Ida", "height_above_gnd": 0.0, "source": "usgs_sciencebase_P9OMBJPQ", "hwm_quality": "Fair: +/- 0.20 ft", "county": "New York County"}, "geometry": {"type": "Point", "coordinates": [-73.951375, 40.794968]}}, {"type": "Feature", "properties": {"hwm_id": "41101", "event": "Ida", "height_above_gnd": 64.4, "source": "usgs_sciencebase_P9OMBJPQ", "hwm_quality": "Poor: +/- 0.40 ft", "county": "Kings County"}, "geometry": {"type": "Point", "coordinates": [-73.995239, 40.636113]}}, {"type": "Feature", "properties": {"hwm_id": "41439", "event": "Ida", "height_above_gnd": 0.97, "source": "usgs_sciencebase_P9OMBJPQ", "hwm_quality": "Excellent: +/- 0.05 ft", "county": "New York County"}, "geometry": {"type": "Point", "coordinates": [-73.928234, 40.866027]}}, {"type": "Feature", "properties": {"hwm_id": "41406", "event": "Ida", "height_above_gnd": 1.48, "source": "usgs_sciencebase_P9OMBJPQ", "hwm_quality": "Fair: +/- 0.20 ft", "county": "Kings County"}, "geometry": {"type": "Point", "coordinates": [-73.964684, 40.612261]}}, {"type": "Feature", "properties": {"hwm_id": "41623", "event": "Ida", "height_above_gnd": 81.3, "source": "usgs_sciencebase_P9OMBJPQ", "hwm_quality": "Poor: +/- 0.40 ft", "county": "Kings County"}, "geometry": {"type": "Point", "coordinates": [-73.998108, 40.63779]}}, {"type": "Feature", "properties": {"hwm_id": "41152", "event": "Ida", "height_above_gnd": 63.3, "source": "usgs_sciencebase_P9OMBJPQ", "hwm_quality": "Poor: +/- 0.40 ft", "county": "Kings County"}, "geometry": {"type": "Point", "coordinates": [-73.996319, 40.633767]}}, {"type": "Feature", "properties": {"hwm_id": "41584", "event": "Ida", "height_above_gnd": 1.05, "source": "usgs_sciencebase_P9OMBJPQ", "hwm_quality": "Good: +/- 0.10 ft", "county": "Queens County"}, "geometry": {"type": "Point", "coordinates": [-73.855781, 40.717588]}}, {"type": "Feature", "properties": {"hwm_id": "41644", "event": "Ida", "height_above_gnd": 2.37, "source": "usgs_sciencebase_P9OMBJPQ", "hwm_quality": "Excellent: +/- 0.05 ft", "county": "Queens County"}, "geometry": {"type": "Point", "coordinates": [-73.856626, 40.716623]}}, {"type": "Feature", "properties": {"hwm_id": "41643", "event": "Ida", "height_above_gnd": 1.28, "source": "usgs_sciencebase_P9OMBJPQ", "hwm_quality": "Fair: +/- 0.20 ft", "county": "Queens County"}, "geometry": {"type": "Point", "coordinates": [-73.847831, 40.718044]}}, {"type": "Feature", "properties": {"hwm_id": "41641", "event": "Ida", "height_above_gnd": 1.59, "source": "usgs_sciencebase_P9OMBJPQ", "hwm_quality": "Fair: +/- 0.20 ft", "county": "Queens County"}, "geometry": {"type": "Point", "coordinates": [-73.844808, 40.719878]}}, {"type": "Feature", "properties": {"hwm_id": "41677", "event": "Ida", "height_above_gnd": 2.17, "source": "usgs_sciencebase_P9OMBJPQ", "hwm_quality": "Fair: +/- 0.20 ft", "county": "Queens County"}, "geometry": {"type": "Point", "coordinates": [-73.840873, 40.718115]}}, {"type": "Feature", "properties": {"hwm_id": "41676", "event": "Ida", "height_above_gnd": 2.2, "source": "usgs_sciencebase_P9OMBJPQ", "hwm_quality": "Fair: +/- 0.20 ft", "county": "Queens County"}, "geometry": {"type": "Point", "coordinates": [-73.846729, 40.717232]}}, {"type": "Feature", "properties": {"hwm_id": "41630", "event": "Ida", "height_above_gnd": 1.84, "source": "usgs_sciencebase_P9OMBJPQ", "hwm_quality": "Fair: +/- 0.20 ft", "county": "Queens County"}, "geometry": {"type": "Point", "coordinates": [-73.842933, 40.714741]}}, {"type": "Feature", "properties": {"hwm_id": "41594", "event": "Ida", "height_above_gnd": 1.29, "source": "usgs_sciencebase_P9OMBJPQ", "hwm_quality": "Good: +/- 0.10 ft", "county": "Bronx County"}, "geometry": {"type": "Point", "coordinates": [-73.856007, 40.846576]}}, {"type": "Feature", "properties": {"hwm_id": "41201", "event": "Ida", "height_above_gnd": 1.68, "source": "usgs_sciencebase_P9OMBJPQ", "hwm_quality": "Good: +/- 0.10 ft", "county": "Bronx County"}, "geometry": {"type": "Point", "coordinates": [-73.89875, 40.864431]}}, {"type": "Feature", "properties": {"hwm_id": "41674", "event": "Ida", "height_above_gnd": 1.42, "source": "usgs_sciencebase_P9OMBJPQ", "hwm_quality": "Fair: +/- 0.20 ft", "county": "Kings County"}, "geometry": {"type": "Point", "coordinates": [-73.989975, 40.675946]}}, {"type": "Feature", "properties": {"hwm_id": "41326", "event": "Ida", "height_above_gnd": 0.12, "source": "usgs_sciencebase_P9OMBJPQ", "hwm_quality": "Good: +/- 0.10 ft", "county": "Bronx County"}, "geometry": {"type": "Point", "coordinates": [-73.823089, 40.835449]}}, {"type": "Feature", "properties": {"hwm_id": "41591", "event": "Ida", "height_above_gnd": 1.1, "source": "usgs_sciencebase_P9OMBJPQ", "hwm_quality": "Fair: +/- 0.20 ft", "county": "Kings County"}, "geometry": {"type": "Point", "coordinates": [-73.988262, 40.677963]}}, {"type": "Feature", "properties": {"hwm_id": "41325", "event": "Ida", "height_above_gnd": 1.54, "source": "usgs_sciencebase_P9OMBJPQ", "hwm_quality": "Poor: +/- 0.40 ft", "county": "Queens County"}, "geometry": {"type": "Point", "coordinates": [-73.881704, 40.767315]}}, {"type": "Feature", "properties": {"hwm_id": "41590", "event": "Ida", "height_above_gnd": 1.7, "source": "usgs_sciencebase_P9OMBJPQ", "hwm_quality": "Fair: +/- 0.20 ft", "county": "Kings County"}, "geometry": {"type": "Point", "coordinates": [-73.99684, 40.676424]}}, {"type": "Feature", "properties": {"hwm_id": "41324", "event": "Ida", "height_above_gnd": 4.91, "source": "usgs_sciencebase_P9OMBJPQ", "hwm_quality": "Good: +/- 0.10 ft", "county": "Queens County"}, "geometry": {"type": "Point", "coordinates": [-73.881209, 40.764944]}}, {"type": "Feature", "properties": {"hwm_id": "41442", "event": "Ida", "height_above_gnd": 4.92, "source": "usgs_sciencebase_P9OMBJPQ", "hwm_quality": "Excellent: +/- 0.05 ft", "county": "Queens County"}, "geometry": {"type": "Point", "coordinates": [-73.881902, 40.764767]}}, {"type": "Feature", "properties": {"hwm_id": "41595", "event": "Ida", "height_above_gnd": 4.32, "source": "usgs_sciencebase_P9OMBJPQ", "hwm_quality": "Good: +/- 0.10 ft", "county": "Queens County"}, "geometry": {"type": "Point", "coordinates": [-73.900688, 40.737948]}}, {"type": "Feature", "properties": {"hwm_id": "41610", "event": "Ida", "height_above_gnd": 3.23, "source": "usgs_sciencebase_P9OMBJPQ", "hwm_quality": "Good: +/- 0.10 ft", "county": "Kings County"}, "geometry": {"type": "Point", "coordinates": [-73.973127, 40.667135]}}, {"type": "Feature", "properties": {"hwm_id": "41603", "event": "Ida", "height_above_gnd": 1.16, "source": "usgs_sciencebase_P9OMBJPQ", "hwm_quality": "Fair: +/- 0.20 ft", "county": "Kings County"}, "geometry": {"type": "Point", "coordinates": [-73.985991, 40.673379]}}, {"type": "Feature", "properties": {"hwm_id": "41605", "event": "Ida", "height_above_gnd": 1.28, "source": "usgs_sciencebase_P9OMBJPQ", "hwm_quality": "Fair: +/- 0.20 ft", "county": "Kings County"}, "geometry": {"type": "Point", "coordinates": [-73.986159, 40.670679]}}, {"type": "Feature", "properties": {"hwm_id": "41680", "event": "Ida", "height_above_gnd": 2.0, "source": "usgs_sciencebase_P9OMBJPQ", "hwm_quality": "Fair: +/- 0.20 ft", "county": "Kings County"}, "geometry": {"type": "Point", "coordinates": [-73.971663, 40.669907]}}, {"type": "Feature", "properties": {"hwm_id": "41608", "event": "Ida", "height_above_gnd": 1.27, "source": "usgs_sciencebase_P9OMBJPQ", "hwm_quality": "Good: +/- 0.10 ft", "county": "Kings County"}, "geometry": {"type": "Point", "coordinates": [-73.984631, 40.674235]}}, {"type": "Feature", "properties": {"hwm_id": "41624", "event": "Ida", "height_above_gnd": 0.54, "source": "usgs_sciencebase_P9OMBJPQ", "hwm_quality": "Fair: +/- 0.20 ft", "county": "Kings County"}, "geometry": {"type": "Point", "coordinates": [-73.976984, 40.668]}}, {"type": "Feature", "properties": {"hwm_id": "41678", "event": "Ida", "height_above_gnd": 1.42, "source": "usgs_sciencebase_P9OMBJPQ", "hwm_quality": "Fair: +/- 0.20 ft", "county": "Kings County"}, "geometry": {"type": "Point", "coordinates": [-73.953619, 40.721744]}}, {"type": "Feature", "properties": {"hwm_id": "41675", "event": "Ida", "height_above_gnd": 1.21, "source": "usgs_sciencebase_P9OMBJPQ", "hwm_quality": "Fair: +/- 0.20 ft", "county": "Queens County"}, "geometry": {"type": "Point", "coordinates": [-73.853092, 40.71526]}}, {"type": "Feature", "properties": {"hwm_id": "40961", "event": "Ida", "height_above_gnd": 1.85, "source": "usgs_sciencebase_P9OMBJPQ", "hwm_quality": "Good: +/- 0.10 ft", "county": "Richmond County"}, "geometry": {"type": "Point", "coordinates": [-74.133512, 40.627906]}}, {"type": "Feature", "properties": {"hwm_id": "40946", "event": "Ida", "height_above_gnd": 3.92, "source": "usgs_sciencebase_P9OMBJPQ", "hwm_quality": "Good: +/- 0.10 ft", "county": "Richmond County"}, "geometry": {"type": "Point", "coordinates": [-74.135583, 40.625695]}}, {"type": "Feature", "properties": {"hwm_id": "41585", "event": "Ida", "height_above_gnd": 1.14, "source": "usgs_sciencebase_P9OMBJPQ", "hwm_quality": "Fair: +/- 0.20 ft", "county": "Bronx County"}, "geometry": {"type": "Point", "coordinates": [-73.823643, 40.816439]}}, {"type": "Feature", "properties": {"hwm_id": "41593", "event": "Ida", "height_above_gnd": 2.0, "source": "usgs_sciencebase_P9OMBJPQ", "hwm_quality": "Poor: +/- 0.40 ft", "county": "Bronx County"}, "geometry": {"type": "Point", "coordinates": [-73.833706, 40.83299]}}, {"type": "Feature", "properties": {"hwm_id": "40974", "event": "Ida", "height_above_gnd": 2.11, "source": "usgs_sciencebase_P9OMBJPQ", "hwm_quality": "Good: +/- 0.10 ft", "county": "Richmond County"}, "geometry": {"type": "Point", "coordinates": [-74.130259, 40.630695]}}, {"type": "Feature", "properties": {"hwm_id": "41441", "event": "Ida", "height_above_gnd": 4.24, "source": "usgs_sciencebase_P9OMBJPQ", "hwm_quality": "Excellent: +/- 0.05 ft", "county": "Queens County"}, "geometry": {"type": "Point", "coordinates": [-73.907607, 40.72928]}}, {"type": "Feature", "properties": {"hwm_id": "41586", "event": "Ida", "height_above_gnd": 5.9, "source": "usgs_sciencebase_P9OMBJPQ", "hwm_quality": "Good: +/- 0.10 ft", "county": "Bronx County"}, "geometry": {"type": "Point", "coordinates": [-73.894339, 40.888736]}}, {"type": "Feature", "properties": {"hwm_id": "41310", "event": "Ida", "height_above_gnd": 4.0, "source": "usgs_sciencebase_P9OMBJPQ", "hwm_quality": "Excellent: +/- 0.05 ft", "county": "Queens County"}, "geometry": {"type": "Point", "coordinates": [-73.846648, 40.724804]}}, {"type": "Feature", "properties": {"hwm_id": "41319", "event": "Ida", "height_above_gnd": 2.01, "source": "usgs_sciencebase_P9OMBJPQ", "hwm_quality": "Good: +/- 0.10 ft", "county": "Queens County"}, "geometry": {"type": "Point", "coordinates": [-73.84729, 40.735743]}}, {"type": "Feature", "properties": {"hwm_id": "41629", "event": "Ida", "height_above_gnd": 0.86, "source": "usgs_sciencebase_P9OMBJPQ", "hwm_quality": "Good: +/- 0.10 ft", "county": "Queens County"}, "geometry": {"type": "Point", "coordinates": [-73.846047, 40.7238]}}, {"type": "Feature", "properties": {"hwm_id": "41587", "event": "Ida", "height_above_gnd": 0.34, "source": "usgs_sciencebase_P9OMBJPQ", "hwm_quality": "Excellent: +/- 0.05 ft", "county": "Bronx County"}, "geometry": {"type": "Point", "coordinates": [-73.869797, 40.822912]}}, {"type": "Feature", "properties": {"hwm_id": "41328", "event": "Ida", "height_above_gnd": 1.75, "source": "usgs_sciencebase_P9OMBJPQ", "hwm_quality": "Excellent: +/- 0.05 ft", "county": "Bronx County"}, "geometry": {"type": "Point", "coordinates": [-73.830872, 40.828566]}}, {"type": "Feature", "properties": {"hwm_id": "40970", "event": "Ida", "height_above_gnd": 3.5, "source": "usgs_sciencebase_P9OMBJPQ", "hwm_quality": "Fair: +/- 0.20 ft", "county": "Queens County"}, "geometry": {"type": "Point", "coordinates": [-73.846059, 40.736606]}}, {"type": "Feature", "properties": {"hwm_id": "41015", "event": "Ida", "height_above_gnd": 0.0, "source": "usgs_sciencebase_P9OMBJPQ", "hwm_quality": "Excellent: +/- 0.05 ft", "county": "Richmond County"}, "geometry": {"type": "Point", "coordinates": [-74.156568, 40.606423]}}, {"type": "Feature", "properties": {"hwm_id": "41314", "event": "Ida", "height_above_gnd": 5.41, "source": "usgs_sciencebase_P9OMBJPQ", "hwm_quality": "Fair: +/- 0.20 ft", "county": "Queens County"}, "geometry": {"type": "Point", "coordinates": [-73.901409, 40.738021]}}, {"type": "Feature", "properties": {"hwm_id": "41321", "event": "Ida", "height_above_gnd": 1.24, "source": "usgs_sciencebase_P9OMBJPQ", "hwm_quality": "Good: +/- 0.10 ft", "county": "Queens County"}, "geometry": {"type": "Point", "coordinates": [-73.765121, 40.739337]}}, {"type": "Feature", "properties": {"hwm_id": "41597", "event": "Ida", "height_above_gnd": 4.45, "source": "usgs_sciencebase_P9OMBJPQ", "hwm_quality": "Good: +/- 0.10 ft", "county": "Queens County"}, "geometry": {"type": "Point", "coordinates": [-73.900686, 40.737888]}}]}